InspectionID,BusinessName,License,Address,City,State,Zip,Latitude,Longitude,DatePerformed,Result,ViolationID,Name,Comments
509506,MCDONALD'S,1490035,6900 S LAFAYETTE AVE,CHICAGO,IL,60621,41.769155335336,-87.6268126762725,2012-01-20,Pass,33,"FOOD AND NON-FOOD CONTACT EQUIPMENT UTENSILS CLEAN, FREE OF ABRASIVE DETERGENTS","UNUSED DEEP FREEZER NOT CLEAN, EXCESSIVE FOOD DEBRIS. CLEAN AND MAINTAIN SAME."
547973,MCDONALD'S RESTAURANT,1193659,5015 W MADISON ST,CHICAGO,IL,60644,41.8803177115273,-87.750746355478,2012-01-27,Pass,33,"FOOD AND NON-FOOD CONTACT EQUIPMENT UTENSILS CLEAN, FREE OF ABRASIVE DETERGENTS","Inspector Comments: Inspector Comments: All food and non-food contact surfaces of equipment and all food storage utensils shall be thoroughly cleaned and sanitized daily.MUST CLEAN GREASE & FOOD DEBRI FROM ALL EQUIPMENT,COOLERS,CARTS,CONDIMENT BINS,SODA MACHINE  "
557673,"MCDONALD'S REST. OF ILLINOIS, INC",1332910,2317 N CICERO AVE,CHICAGO,IL,60639,41.9229310425538,-87.7461194779431,2012-01-20,Pass,33,"FOOD AND NON-FOOD CONTACT EQUIPMENT UTENSILS CLEAN, FREE OF ABRASIVE DETERGENTS",Interior ice machine panel not cleaned. Instructed to detail clean and sanitize.
588272,MCDONALD'S,1578392,119 N WABASH AVE,CHICAGO,IL,60602,41.8837168512818,-87.6260862245146,2012-02-28,Pass,33,"FOOD AND NON-FOOD CONTACT EQUIPMENT UTENSILS CLEAN, FREE OF ABRASIVE DETERGENTS",MUST REMOVE GREASE SPILL FROM INTERIOR OF DEEP FRYER IN PREP AREA.
598574,MCDONALD'S #4308 (MCDONALD'S),1904304,3867 S ARCHER AVE BLDG,CHICAGO,IL,60632,41.823158345079,-87.6892366472357,2012-01-19,Pass,33,"FOOD AND NON-FOOD CONTACT EQUIPMENT UTENSILS CLEAN, FREE OF ABRASIVE DETERGENTS",
606532,MCDONALD'S RESTAURANT,1678414,6336 S ASHLAND AVE,CHICAGO,IL,60636,41.7783609760376,-87.6643368634279,2012-01-13,Pass,33,"FOOD AND NON-FOOD CONTACT EQUIPMENT UTENSILS CLEAN, FREE OF ABRASIVE DETERGENTS","CLEAN INTERIOR AND EXTERIOR OF ALL BEVERAGE MACHINES, NOZZLES AND SPIGOTS, PREP COOLERS AND FREEZERS, AND ICE MACHINE."
606576,MCDONALD'S,1718785,8321 S ASHLAND AVE,CHICAGO,IL,60620,41.7424208244385,-87.6630911433338,2012-02-06,Pass,33,"FOOD AND NON-FOOD CONTACT EQUIPMENT UTENSILS CLEAN, FREE OF ABRASIVE DETERGENTS","CLEAN STORAGE SHELVES AND CARTS IN BASEMENT WHERE NEEDED, ALL UNUSED EQUIPMENT STORED IN LOCKED ROOM IN BASEMENT, EXTERIOR OF LIDS ON SWEET EA IN WALK-IN COOLER, BACK OPEN SECTION OF POP DISPENSERS IN FOOD PREP AREA, AND INTERIOR OF CABINETS UNDERNEATH DEEP FRYERS,   "
626363,MCDONALD'S,33706,3200 W ROOSEVELT RD,CHICAGO,IL,60624,41.8665138881923,-87.7057335990255,2012-01-12,Pass,33,"FOOD AND NON-FOOD CONTACT EQUIPMENT UTENSILS CLEAN, FREE OF ABRASIVE DETERGENTS","All food and non-food contact surfaces of equipment and all food storage utensils shall be thoroughly cleaned and sanitized daily. CLEAN EXTERIOR SURFACES OF COOKING EQUIPMENT, COFFEE MACHINES, SODA MACHINES ETC AND MAINTAIN. CLEAN INTERIOR BOTTOMS OF FRYERS TO REMOVE DUST OBSERVED."
626383,MCDONALD'S,33706,3200 W ROOSEVELT RD,CHICAGO,IL,60624,41.8665138881923,-87.7057335990255,2012-01-25,Pass,33,"FOOD AND NON-FOOD CONTACT EQUIPMENT UTENSILS CLEAN, FREE OF ABRASIVE DETERGENTS","All food and non-food contact surfaces of equipment and all food storage utensils shall be thoroughly cleaned and sanitized daily. CLEAN EXTERIOR SURFACES OF COOKING EQUIPMENT, COFFEE MACHINES, SODA MACHINES ETC AND MAINTAIN. CLEAN INTERIOR BOTTOMS OF FRYERS TO REMOVE DUST OBSERVED."
659884,MCDONALD'S,33706,3200 W ROOSEVELT RD,CHICAGO,IL,60624,41.8665138881923,-87.7057335990255,2012-01-05,Pass,33,"FOOD AND NON-FOOD CONTACT EQUIPMENT UTENSILS CLEAN, FREE OF ABRASIVE DETERGENTS","All food and non-food contact surfaces of equipment and all food storage utensils shall be thoroughly cleaned and sanitized daily.    CLEAN EXTERIOR SURFACES OF COOKING EQUIPMENT, COFFEE MACHINES, SODA MACHINES ETC AND MAINTAIN.  CLEAN INTERIOR BOTTOMS OF FRYERS TO REMOVE DUST OBSERVED."
659897,MCDONALD'S,1443887,2350 N CENTRAL AVE,CHICAGO,IL,60639,41.9236610622972,-87.7661255171168,2012-01-06,Pass,33,"FOOD AND NON-FOOD CONTACT EQUIPMENT UTENSILS CLEAN, FREE OF ABRASIVE DETERGENTS","INSTRUCTED TO CLEAN AND MAINTAIN INTERIOR SURFACES OF ICE MACHINE IN REAR AREA, EXTERIOR SURFACES OF BEVERAGE/ICE MACHINE WITH LIME BUILD-UP IN FRONT (DINING AREA) AND INTERIOR SURFACES OF MOP SINK (REAR AREA)."
664323,MCDONALD'S,35587,3122 W TOUHY AVE,CHICAGO,IL,60645,42.011998577874,-87.7077027456968,2012-01-09,Pass,33,"FOOD AND NON-FOOD CONTACT EQUIPMENT UTENSILS CLEAN, FREE OF ABRASIVE DETERGENTS","MUST CLEAN IN DETAIL THE CART WITH MICROWAVE, INSIDE THE CABINET WITH SODA AND THE TOP AND SIDE OF THE SODA MACHINE IN THE REAR AREA, WITH FOOD DEBRIS AND MAINTAIN."
670639,MCDONALD'S,2002814,8415 S PULASKI RD,CHICAGO,IL,60652,41.7398605220475,-87.7214563026118,2012-02-21,Pass,33,"FOOD AND NON-FOOD CONTACT EQUIPMENT UTENSILS CLEAN, FREE OF ABRASIVE DETERGENTS","All food and non-food contact surfaces of equipment and all food storage utensils shall be thoroughly cleaned and sanitized daily.NEED TO CLEAN DRIP TRAY FRONT MILK DISPENSOR, COFFEE STATION."
670645,MCDONALD'S #6310,33143,4704 S CICERO AVE,CHICAGO,IL,60638,41.8074171973865,-87.7432946955316,2012-02-21,Pass,33,"FOOD AND NON-FOOD CONTACT EQUIPMENT UTENSILS CLEAN, FREE OF ABRASIVE DETERGENTS","CORRECTED  "
671122,MCDONALD'S,1332921,2005 W CHICAGO AVE,CHICAGO,IL,60622,41.8957965124416,-87.6773227997198,2012-03-21,Pass,33,"FOOD AND NON-FOOD CONTACT EQUIPMENT UTENSILS CLEAN, FREE OF ABRASIVE DETERGENTS","Cooking equipment, storage shelves, sinks and prep tables not cleaned. Instructed to detail clean and sanitize daily."
673259,MCDONALD'S,1519152,6355 S DR MARTIN LUTHER KING JR DR,CHICAGO,IL,60637,41.7785971834236,-87.6154413879464,2012-01-13,Pass,33,"FOOD AND NON-FOOD CONTACT EQUIPMENT UTENSILS CLEAN, FREE OF ABRASIVE DETERGENTS","All utensils shall be thoroughly cleaned and sanitized after each usage.CONTINUE TO CLEAN AND SANITIZE COFFEE STATION, JUICE DRIP TRAY ETC.FROM REPORT 537754 12/7/11  "
673287,MCDONALD'S,1943516,6560 S STONY ISLAND AVE,CHICAGO,IL,60637,41.7752200873081,-87.5864366257481,2012-01-27,Pass,33,"FOOD AND NON-FOOD CONTACT EQUIPMENT UTENSILS CLEAN, FREE OF ABRASIVE DETERGENTS","All food and non-food contact surfaces of equipment and all food storage utensils shall be thoroughly cleaned and sanitized daily.  CLEAN INTERIOR AND EXTERIOR OF ICE MACHINE, BEVERAGE MACHINES (JUICE, COFFEE, CREAMER, SHAKE, ETC), NOZZLES, SPIGOTS, DRIP TRAYS, PREP TABLES, HOLDING UNITS, FRYER CABINETS, COOLERS, FREEZERS, CUP HOLDERS."
679219,MCDONALD'S (MCDONALD'S (T1-B11)),2013206,11601 W TOUHY AVE,CHICAGO,IL,60666,42.0085364008687,-87.9144284392705,2012-03-13,Pass w/ Conditions,2,FACILITIES TO MAINTAIN PROPER TEMPERATURE,"All food establishments that display, prepare, or store potentially hazardous food shall have adequate refrigerated food storage facilities.  COOLER AT IMPROPEWR TEMPERATURE,CRITICAL VIOLATION,CITATION ISSUED,FOUND COOLER AT THE REAR SIDE AT 50.1F,INSTRUCTED COOLER MUST BE 40F OR LESS,TAG COOLER,MUST CALL SERVICEFOR REPAIR;MUST FAX LETTER TO CDPH 312-746-4240 WHEN COOLER HAS BEEN FIXED 40F OR LESS"
679219,MCDONALD'S (MCDONALD'S (T1-B11)),2013206,11601 W TOUHY AVE,CHICAGO,IL,60666,42.0085364008687,-87.9144284392705,2012-03-13,Pass w/ Conditions,3,"POTENTIALLY HAZARDOUS FOOD MEETS TEMPERATURE REQUIREMENT DURING STORAGE, PREPARATION DISPLAY AND SERVICE","All cold food shall be stored at a temperature of 40F or less.  POTENTIALLY HAZARDOUS FOODS AT IMPROPER TEMPERATURE,CRITICAL VIOLATION,CITATION ISSUED,FOUND LIQUID EGGS 12 PCSOF 2.2 LBS,YOGURT 3 PCS OF 2 LBS,2 DOZ EGGS,15 PCS SLICED CHEESE 5 LBS EACH,10 GAL MILK,TEMPERATURE OF FOOD RANGES FROM 48.7F TO 52.5F,TOTAL $ 130, MANAGER DISCARDED THE FOOD;INSTRUCTED FOOD MUST BE 40F OR BELOW"
679219,MCDONALD'S (MCDONALD'S (T1-B11)),2013206,11601 W TOUHY AVE,CHICAGO,IL,60666,42.0085364008687,-87.9144284392705,2012-03-13,Pass w/ Conditions,33,"FOOD AND NON-FOOD CONTACT EQUIPMENT UTENSILS CLEAN, FREE OF ABRASIVE DETERGENTS",SHELVES IN PREP AREA UNCLEAN MUST CLEAN AND MAINTAIN
679232,MCDONALD'S (MCDONALD'S (T1-B11)),2013206,11601 W TOUHY AVE,CHICAGO,IL,60666,42.0085364008687,-87.9144284392705,2012-03-26,Pass,33,"FOOD AND NON-FOOD CONTACT EQUIPMENT UTENSILS CLEAN, FREE OF ABRASIVE DETERGENTS",NEXT REGULAR INSPECTION
679245,MCDONALD'S,1678525,5700 S CICERO AVE,CHICAGO,IL,60638,41.7893293232654,-87.7416456441964,2012-03-26,Pass,33,"FOOD AND NON-FOOD CONTACT EQUIPMENT UTENSILS CLEAN, FREE OF ABRASIVE DETERGENTS","SYRUP LINES AND BOXES, STORAGE SHELVES UNDER HOT HOLDING LINE, AND ALSO BOTTOM OF CUP DISPENSER UNIT AT FRONT LINE NOT CLEAN, DEBRIS. CLEAN AND MAINTAIN SAME.  "
920224,MCDONALD'S,1474116,1443 E 87TH ST,CHICAGO,IL,60619,41.7367599255433,-87.588841701402,2012-03-30,Pass,33,"FOOD AND NON-FOOD CONTACT EQUIPMENT UTENSILS CLEAN, FREE OF ABRASIVE DETERGENTS",CLEAN THE INTERIOR AND EXTERIOR OF THE ICE MACHINE IN REAR.
920297,MCDONALD'S,1490035,6900 S LAFAYETTE AVE,CHICAGO,IL,60621,41.769155335336,-87.6268126762725,2013-03-13,Pass,33,"FOOD AND NON-FOOD CONTACT EQUIPMENT UTENSILS CLEAN, FREE OF ABRASIVE DETERGENTS","CLEAN THE FOLLOWING: ALL UNUSED EQUIPMENT STORED IN BASEMENT, ALL SHELVES & STORAGE RACKS THROUGHOUT, DUST BUILD-UP ON COILS IN WALK-IN COOLER, CABINET INTERIORS OF DEEP FRYERS, GREASE BUILD-UP ON COOKING EQUIPMENT AND ALL OTHER UNCLEAN SURFACES.   "
920307,MCDONALD'S,1490035,6900 S LAFAYETTE AVE,CHICAGO,IL,60621,41.769155335336,-87.6268126762725,2013-03-26,Pass,33,"FOOD AND NON-FOOD CONTACT EQUIPMENT UTENSILS CLEAN, FREE OF ABRASIVE DETERGENTS","CLEAN THE FOLLOWING: ALL UNUSED EQUIPMENT STORED IN BASEMENT, ALL SHELVES & STORAGE RACKS THROUGHOUT, DUST BUILD-UP ON COILS IN WALK-IN COOLER, CABINET INTERIORS OF DEEP FRYERS, GREASE BUILD-UP ON COOKING EQUIPMENT AND ALL OTHER UNCLEAN SURFACES.   "
920440,MCDONALD'S RESTAURANT,64964,2425 E 79TH ST,CHICAGO,IL,60649,41.7516335989759,-87.5651606509335,2013-12-30,Pass,33,"FOOD AND NON-FOOD CONTACT EQUIPMENT UTENSILS CLEAN, FREE OF ABRASIVE DETERGENTS",CORRECTED.
1072261,MCDONALD'S,1979615,7832 S WESTERN AVE,CHICAGO,IL,60620,41.7509316572994,-87.6830175318953,2013-02-04,Pass,33,"FOOD AND NON-FOOD CONTACT EQUIPMENT UTENSILS CLEAN, FREE OF ABRASIVE DETERGENTS",VIOLATION CORRECTED.
1072262,MCDONALD'S RESTAURANT,59747,7601 S VINCENNES AVE,CHICAGO,IL,60620,41.7562118830204,-87.6321305421237,2013-02-05,Pass w/ Conditions,3,"POTENTIALLY HAZARDOUS FOOD MEETS TEMPERATURE REQUIREMENT DURING STORAGE, PREPARATION DISPLAY AND SERVICE","NOTED 17 EGGS IN CARTON ON TOP OF PREP COOLER IN PREP AREA AT IMPROPER   INTERNAL TEMPERATURE OF 59 DEGREES, WITH MANAGERS THERMOMETER READING THE SAME INTERNAL TEMP. MANAGER VOLUNTARILY DENATURED AND TOSSED OUT THE EGGS. APPROX. WEIGHT 22.5LBS, COST $37.70. MUST MAINTAIN PROPER TEMPERATURE. CRITICAL CITATION, 7-38-005(a.)"
1096509,MCDONALD'S,1514130,207 E 35TH ST,CHICAGO,IL,60616,41.8309527893036,-87.6214491630074,2012-09-10,Pass w/ Conditions,12,"HAND WASHING FACILITIES: WITH SOAP AND SANITARY HAND DRYING DEVICES, CONVENIENT AND ACCESSIBLE TO FOOD PREP AREA","FOUND NO SOAP AND PAPER TOWELS AT EXPOSED HAND SINK AT MAIN KITCHEN. ALSO, FOUND NO SOAP AT MEN'S RESTROOM. CRITICAL VIOLATION. CITATION ISSUED."
1098378,MCDONALD'S,3738,2608 W ADDISON ST,CHICAGO,IL,60618,41.9468233995587,-87.693532642598,2012-06-14,Pass,33,"FOOD AND NON-FOOD CONTACT EQUIPMENT UTENSILS CLEAN, FREE OF ABRASIVE DETERGENTS","INSTRUCTED TO CLEAN/SANITIZE; FRYERS, MOP SINKS, AND EXTERIOR OF FROZEN DESERTS MACHINES."
1098457,MCDONALD'S,1093571,3615 W IRVING PARK RD,CHICAGO,IL,60618,41.9536466519158,-87.7184849050502,2012-07-20,Pass,33,"FOOD AND NON-FOOD CONTACT EQUIPMENT UTENSILS CLEAN, FREE OF ABRASIVE DETERGENTS","MUST CLEAN/SANITIZE; COOLERS, OVEN, FRYERS, UPPER PANEL OF ICE MACHINE, AND DISH WASHING MACHINE."
1098570,MCDONALD'S,1093571,3615 W IRVING PARK RD,CHICAGO,IL,60618,41.9536466519158,-87.7184849050502,2012-09-05,Pass,33,"FOOD AND NON-FOOD CONTACT EQUIPMENT UTENSILS CLEAN, FREE OF ABRASIVE DETERGENTS","MUST CLEAN/SANITIZE; COOLERS, OVEN, FRYERS, UPPER PANEL OF ICE MACHINE, AND DISH WASHING MACHINE.  "
1098816,"MCDONALD'S REST. OF ILL, INC (MCDONALD'S)",1093503,3154 W FOSTER AVE,CHICAGO,IL,60625,41.975859694203,-87.7084649677299,2013-01-30,Pass,33,"FOOD AND NON-FOOD CONTACT EQUIPMENT UTENSILS CLEAN, FREE OF ABRASIVE DETERGENTS","EQUIPMENT CLEANED, VIOLATION CORRECTED."
1098824,MCDONALD'S,1680019,3855 W LAWRENCE AVE,CHICAGO,IL,60625,41.9681612546391,-87.7253770419993,2013-02-06,Pass,33,"FOOD AND NON-FOOD CONTACT EQUIPMENT UTENSILS CLEAN, FREE OF ABRASIVE DETERGENTS","EXCESSIVE DEBRIS AND ICE BUILD-UP INSIDE THE TWO DOORS FREEZER, MUST REMOVE ICE, CLEAN AND SANITIZE."
1098850,MCDONALD'S #4305 (MCDONALD'S),1922105,4844 N LINCOLN AVE,CHICAGO,IL,60625,41.9697537205744,-87.6894034367043,2013-02-26,Pass,33,"FOOD AND NON-FOOD CONTACT EQUIPMENT UTENSILS CLEAN, FREE OF ABRASIVE DETERGENTS","EXCESSIVE FOOD DEBRIS AND GREASE ON EQUIPMENT; INSTRUCTED TO CLEAN/SANITIZE; COOKING EQUIPMENT, FREEZERS, COOLERS, FRONT AREA CABINETS, AND SOFT SERVED MACHINE."
1098920,MCDONALD'S #4305 (MCDONALD'S),1922105,4844 N LINCOLN AVE,CHICAGO,IL,60625,41.9697537205744,-87.6894034367043,2013-04-11,Pass w/ Conditions,2,FACILITIES TO MAINTAIN PROPER TEMPERATURE,"FACILITY NOT MAINTAINING PROPER TEMPERATURE. OBSERVED ONE DOOR PREP REACH IN COOLER BY HOT PREP AREA AT IMPROPER TEMPERATURE OF 48.8. INSTRUCTED TO REPAIR COOLER AND KEEP AT 40F OR BELOW.   MANAGER CALL REPAIR PERSON, COOLER REPAIRED AND AT 32.4F BY END OF EXIT INTERVIEW.  CRITICAL CITATION ISSUED, 7-38-005(A)."
1098920,MCDONALD'S #4305 (MCDONALD'S),1922105,4844 N LINCOLN AVE,CHICAGO,IL,60625,41.9697537205744,-87.6894034367043,2013-04-11,Pass w/ Conditions,3,"POTENTIALLY HAZARDOUS FOOD MEETS TEMPERATURE REQUIREMENT DURING STORAGE, PREPARATION DISPLAY AND SERVICE","POTENTIALLY HAZARDOUS FOODS INSIDE ABOVE COOLER AT IMPROPER TEMPERATURES; THREE DOZ. FRESH EGGS RANGING FROM 54.1-55.8F, TWO DOZ. FOLDED EGGS AT 58.5F, ONE LB. HAM AT 49.8F, AND FOUR CONTAINERS OF LIQUID EGGS,2.2LBS., RANGING FROM 50.9-55.7F. INADEQUATE FOOD PROTECTION.  INSTRUCTED COLD POTENTIALLY HAZARDOUS FOODS MUST BE AT 40F OR BELOW.  CRITICAL CITATION ISSUED, 7-38-005(A)."
1098920,MCDONALD'S #4305 (MCDONALD'S),1922105,4844 N LINCOLN AVE,CHICAGO,IL,60625,41.9697537205744,-87.6894034367043,2013-04-11,Pass w/ Conditions,33,"FOOD AND NON-FOOD CONTACT EQUIPMENT UTENSILS CLEAN, FREE OF ABRASIVE DETERGENTS","EXCESSIVE FOOD DEBRIS AND GREASE ON EQUIPMENT; INSTRUCTED TO CLEAN/SANITIZE; COOKING EQUIPMENT, FREEZERS, COOLERS, FRONT AREA CABINETS, AND SOFT SERVED MACHINE.  "
1098922,MCDONALD'S,1680019,3855 W LAWRENCE AVE,CHICAGO,IL,60625,41.9681612546391,-87.7253770419993,2013-04-11,Pass w/ Conditions,33,"FOOD AND NON-FOOD CONTACT EQUIPMENT UTENSILS CLEAN, FREE OF ABRASIVE DETERGENTS","EXCESSIVE DEBRIS AND ICE BUILD-UP INSIDE THE TWO DOORS FREEZER, MUST REMOVE ICE, CLEAN AND SANITIZE.  "
1099248,MCDONALD'S,1679820,4546 N KEDZIE AVE,CHICAGO,IL,60625,41.9643875286351,-87.708492478441,2013-10-25,Pass,33,"FOOD AND NON-FOOD CONTACT EQUIPMENT UTENSILS CLEAN, FREE OF ABRASIVE DETERGENTS","DEBRIS/FOOD DEBRIS ON EQUIPMENT; INSTRUCTED TO CLEAN/SANITIZE MOP SINKS, STORAGE UNIT AT REAR DISH WASHING AREA AND UPPER PANEL OF ICE MACHINE."
1102210,MCDONALD'S,1356058,5656 W IRVING PARK RD,CHICAGO,IL,60634,41.9532631107403,-87.7693112226014,2012-03-28,Pass,33,"FOOD AND NON-FOOD CONTACT EQUIPMENT UTENSILS CLEAN, FREE OF ABRASIVE DETERGENTS","Interior deep fryer cabinets, lower storage shelves and sinks not cleaned. Instructed to detail clean and sanitize daily.  "
1102210,MCDONALD'S,1356058,5656 W IRVING PARK RD,CHICAGO,IL,60634,41.9532631107403,-87.7693112226014,2012-03-28,Pass,33,"FOOD AND NON-FOOD CONTACT EQUIPMENT UTENSILS CLEAN, FREE OF ABRASIVE DETERGENTS","All food and non-food contact surfaces of equipment and all food storage utensils shall be thoroughly cleaned and sanitized daily.  DEEP FRYER PANEL FULL OF GREASE,MUST SCHEDULE SERVICE FOR CLEANING ;  INTERIOR PREP COOLER UNCLEAN MUST CLEAN AND MAINTAIN;  SHELVES FOR CLEAN KITCHEN WARES UNCLEAN MUST CLEAN AND MAINTAIN"
1102244,MCDONALD'S (MCDONALD'S (T1-B11)),2013206,11601 W TOUHY AVE,CHICAGO,IL,60666,42.0085364008687,-87.9144284392705,2012-05-02,Pass,33,"FOOD AND NON-FOOD CONTACT EQUIPMENT UTENSILS CLEAN, FREE OF ABRASIVE DETERGENTS",FOR NEXT INSPECTION
1106814,MCDONALD'S,35587,3122 W TOUHY AVE,CHICAGO,IL,60645,42.011998577874,-87.7077027456968,2013-08-29,Pass w/ Conditions,11,"ADEQUATE NUMBER, CONVENIENT, ACCESSIBLE, DESIGNED, AND MAINTAINED","EXPOSED HAND SINK IN REAR PREP AREA NOT MAINTAINED.SINK IS CLOGGED,UNABLE TO WASH HANDS,OBSERVED EMPLOYEE REMOVING WATER WITH A PLASTIC CONTAINER AND PAPER TOWELS FROM SINK.INSTRUCTED TO REPAIR AND USE THE OTHER EXPOSED HAND SINK AT FRONT PREP AREA.  CRITICAL VIOLATION:7-38-030"
1106814,MCDONALD'S,35587,3122 W TOUHY AVE,CHICAGO,IL,60645,42.011998577874,-87.7077027456968,2013-08-29,Pass w/ Conditions,33,"FOOD AND NON-FOOD CONTACT EQUIPMENT UTENSILS CLEAN, FREE OF ABRASIVE DETERGENTS",ICEMACHINE AT  COCA COLA MACHINE IS CLEANED
1114482,MCDONALDS'S RESTAURANTS (MCDONALD'S),2064660,230 S STATE ST,CHICAGO,IL,60604,41.8787197385817,-87.6278394358472,2012-09-26,Pass,33,"FOOD AND NON-FOOD CONTACT EQUIPMENT UTENSILS CLEAN, FREE OF ABRASIVE DETERGENTS","MUST DETAIL CLEAN AND MAINTAIN THE INTERIOR OF THE DEEP FRYERS, CABINET UNDER THE FRY STATION AND THE REACH IN FREEZER BY SIDE REAR DOOR EXIT-REMOVE EXCESS ICE BUILD UP.  "
1114838,MCDONALD'S RESTAURANTS (MCDONALD'S),2064662,2525 S DR MARTIN LUTHER KING JR DR,CHICAGO,IL,60616,41.8467666109193,-87.6171757775497,2013-05-23,Pass,33,"FOOD AND NON-FOOD CONTACT EQUIPMENT UTENSILS CLEAN, FREE OF ABRASIVE DETERGENTS",MUST CLEAN AND MAINTAIN THE INTERIOR OF THE DEEP FRYERS AND REMOVE EXCESS ICE BUILD UP FROM REACH IN FREEZER IN FRONT OF OFFICE.
1114856,MCDONALD'S,2204169,207 E 35TH ST,CHICAGO,IL,60616,41.8309527893036,-87.6214491630074,2013-06-05,Pass w/ Conditions,11,"ADEQUATE NUMBER, CONVENIENT, ACCESSIBLE, DESIGNED, AND MAINTAINED","FOUND REAR EXPOSED HANDWASHING SINK NOT ACCESSIBLE. SINK HAD CONTAINERS INSIDE OF IT, BOXES AND CONTAINERS WITH ONIONS ON TOP OF IT. INSTRUCTED TO ALWAYS KEEP SINK ACCESSIBLE. CRITICAL VIOLATION 7-38-030."
1115109,MCDONALD'S RESTAURANTS,1884173,144 S WABASH AVE,CHICAGO,IL,60603,41.8797188963466,-87.6262811454758,2013-10-31,Pass,33,"FOOD AND NON-FOOD CONTACT EQUIPMENT UTENSILS CLEAN, FREE OF ABRASIVE DETERGENTS",CORRECTED. EQUIPMENT NOW CLEAN.
1118249,MCDONALD'S RESTAURANT,64964,2425 E 79TH ST,CHICAGO,IL,60649,41.7516335989759,-87.5651606509335,2012-04-13,Pass,33,"FOOD AND NON-FOOD CONTACT EQUIPMENT UTENSILS CLEAN, FREE OF ABRASIVE DETERGENTS",All food and non-food contact surfaces of equipment and all food storage utensils shall be thoroughly cleaned and sanitized daily.INSIDE CABINETS OF DEEP FRYER CABINETS NOT CLEAN.ALSO CABINETS UNDER SELF SERVE SODA COUNTER.MUST CLEAN/MAINTAIN.
1134589,MCDONALD'S,1969971,225 S CANAL ST,CHICAGO,IL,60606,41.8785312783536,-87.6394274596272,2012-09-25,Pass,33,"FOOD AND NON-FOOD CONTACT EQUIPMENT UTENSILS CLEAN, FREE OF ABRASIVE DETERGENTS",INTERIOR PANEL OF ICE MACHINE & CUP HOLDER UNDER SODA DISPENSERS MUST BE KEPT CLEAN.
1134604,MCDONALD'S,1985411,300 N WELLS ST,CHICAGO,IL,60654,41.8875559103703,-87.6341176575025,2012-09-28,Pass,33,"FOOD AND NON-FOOD CONTACT EQUIPMENT UTENSILS CLEAN, FREE OF ABRASIVE DETERGENTS",EXTERIOR SIDE OF ICE CHUTE AT SODA DISPENSER & CABINTES BELOW THIS SECTION MUST BE KEPT CLEAN.
1134631,MCDONALDS RESTAURANT # 14173 (MCDONALD'S),78375,1563 N WELLS ST,CHICAGO,IL,60610,41.9109544727648,-87.6345574822366,2012-10-12,Pass,33,"FOOD AND NON-FOOD CONTACT EQUIPMENT UTENSILS CLEAN, FREE OF ABRASIVE DETERGENTS",CORRECTED AT THIS TIME
1150245,MCDONALD'S #490,81721,10320 S KEDZIE AVE,CHICAGO,IL,60655,41.7055202965588,-87.7014580422018,2012-03-16,Pass,33,"FOOD AND NON-FOOD CONTACT EQUIPMENT UTENSILS CLEAN, FREE OF ABRASIVE DETERGENTS","All food and non-food contact surfaces of equipment and all food storage utensils shall be thoroughly cleaned and sanitized daily.CLEAN SALAD COOLER STANDING WATER, CLEAN DRINK DISPENSOR DRIP TRAYS AND EXTERIOR OR FRYERS. FROM REPORT 1674734 DATE 3/9/12"
1150467,MCDONALD'S,1979615,7832 S WESTERN AVE,CHICAGO,IL,60620,41.7509316572994,-87.6830175318953,2012-06-15,Pass,33,"FOOD AND NON-FOOD CONTACT EQUIPMENT UTENSILS CLEAN, FREE OF ABRASIVE DETERGENTS",All food and non-food contact surfaces of equipment and all food storage utensils shall be thoroughly cleaned and sanitized daily.CONTINUE TO CLEAN ALL AREAS LISTED ON REPORT 1229487 DATE 6/8/12.
1150494,MCDONALD'S,2002814,8415 S PULASKI RD,CHICAGO,IL,60652,41.7398605220475,-87.7214563026118,2012-06-22,Pass,33,"FOOD AND NON-FOOD CONTACT EQUIPMENT UTENSILS CLEAN, FREE OF ABRASIVE DETERGENTS","All food and non-food contact surfaces of equipment and all food storage utensils shall be thoroughly cleaned and sanitized daily.NEED TO CLEAN CABINETS UNDER THE SODA COUNTER FRONT, CLEAN INTERIOR OF THE UNDER COUNTER FREEZER IN REAR PREP, ALSO REAR FRYER AREA."
1150506,MCDONALD'S #11290,33144,7601 S CICERO AVE,CHICAGO,IL,60652,41.7546601243937,-87.7413847586052,2012-06-28,Pass,33,"FOOD AND NON-FOOD CONTACT EQUIPMENT UTENSILS CLEAN, FREE OF ABRASIVE DETERGENTS",All utensils shall be thoroughly cleaned and sanitized after each usage.NEED TO CLEAN AND SANITIZE CAFE MACHINE AND AREA.
1150580,MCDONALD'S,1490035,6900 S LAFAYETTE AVE,CHICAGO,IL,60621,41.769155335336,-87.6268126762725,2012-07-30,Pass,33,"FOOD AND NON-FOOD CONTACT EQUIPMENT UTENSILS CLEAN, FREE OF ABRASIVE DETERGENTS",All utensils shall be thoroughly cleaned and sanitized after each usage.CLEAN FRONT DRIP TRAY'S AT DRINK COUNTER.
1150633,MCDONALD'S,1490035,6900 S LAFAYETTE AVE,CHICAGO,IL,60621,41.769155335336,-87.6268126762725,2012-08-15,Pass,33,"FOOD AND NON-FOOD CONTACT EQUIPMENT UTENSILS CLEAN, FREE OF ABRASIVE DETERGENTS",All food and non-food contact surfaces of equipment and all food storage utensils shall be thoroughly cleaned and sanitized daily.NEED TO CLEAN FRONT DRIP TRAY'S AT DRINK COUNTER.FROM REPORT# 1150580 DATE 7/30/12.
1150633,MCDONALD'S,1490035,6900 S LAFAYETTE AVE,CHICAGO,IL,60621,41.769155335336,-87.6268126762725,2012-08-15,Pass,33,"FOOD AND NON-FOOD CONTACT EQUIPMENT UTENSILS CLEAN, FREE OF ABRASIVE DETERGENTS",All utensils shall be thoroughly cleaned and sanitized after each usage.NEED TO PULL THE 4 TABLES THAT MAKE THE BEVERAGE STATION APART AND CLEAN  BETWEEN THEM FOOD DEBRIS/GREASE ON BOTTOM OF GRILL.
1150878,MCDONALD'S,1490035,6900 S LAFAYETTE AVE,CHICAGO,IL,60621,41.769155335336,-87.6268126762725,2012-10-26,Pass,33,"FOOD AND NON-FOOD CONTACT EQUIPMENT UTENSILS CLEAN, FREE OF ABRASIVE DETERGENTS",VIOLATION CORRECTED DRIP TRAY AND FRONT COUNTER CLEAN.
1150964,MCDONALD'S,1170058,1657 W 95TH ST,CHICAGO,IL,60643,41.7210731421679,-87.6648983733961,2012-11-29,Pass,33,"FOOD AND NON-FOOD CONTACT EQUIPMENT UTENSILS CLEAN, FREE OF ABRASIVE DETERGENTS",CLEAN DUSTY FAN GUARD COVERS IN WALK-IN COOLER.
1151918,MCDONALD'S,1943516,6560 S STONY ISLAND AVE,CHICAGO,IL,60637,41.7752200873081,-87.5864366257481,2014-01-10,Pass,33,"FOOD AND NON-FOOD CONTACT EQUIPMENT UTENSILS CLEAN, FREE OF ABRASIVE DETERGENTS","MUST DETAIL CLEAN PREP COOLERS,COUNTER TOPS AND INTERIOR OF FRYERS."
1152154,MCDONALD'S,1519152,6355 S DR MARTIN LUTHER KING JR DR,CHICAGO,IL,60637,41.7785971834236,-87.6154413879464,2014-05-12,Pass,33,"FOOD AND NON-FOOD CONTACT EQUIPMENT UTENSILS CLEAN, FREE OF ABRASIVE DETERGENTS","OBSERVED COFFEE MACHINES UNDER COFFEE BASKET NOT CLEAN, INSTRUCTED TO CLEAN. ALSO NEED TO CLEAN INTERIOR STEAMER TRAY.OBSERVED THE DRINK STATION COUNTER AROUND BLENDER NOT CLEAN, INSTRUCTED TO CLEAN AND SANITIZE."
1154253,MCDONALD'S,1519152,6355 S DR MARTIN LUTHER KING JR DR,CHICAGO,IL,60637,41.7785971834236,-87.6154413879464,2012-03-08,Pass,33,"FOOD AND NON-FOOD CONTACT EQUIPMENT UTENSILS CLEAN, FREE OF ABRASIVE DETERGENTS","CLEAN AND SANITIZE COFFEE STATION, JUICE DRIP TRAY ETC."
1154257,MCDONALD'S,1943516,6560 S STONY ISLAND AVE,CHICAGO,IL,60637,41.7752200873081,-87.5864366257481,2012-04-23,Pass,33,"FOOD AND NON-FOOD CONTACT EQUIPMENT UTENSILS CLEAN, FREE OF ABRASIVE DETERGENTS","CLEAN INTERIOR AND EXTERIOR OF ICE MACHINE, BEVERAGE MACHINES (JUICE, COFFEE, CREAMER, SHAKE, ETC), NOZZLES, SPIGOTS, DRIP TRAYS, PREP TABLES, HOLDING UNITS, FRYER CABINETS, COOLERS, FREEZERS, CUP HOLDERS."
1154330,MCDONALD'S,1943516,6560 S STONY ISLAND AVE,CHICAGO,IL,60637,41.7752200873081,-87.5864366257481,2012-05-18,Pass,33,"FOOD AND NON-FOOD CONTACT EQUIPMENT UTENSILS CLEAN, FREE OF ABRASIVE DETERGENTS","CLEAN INTERIOR AND EXTERIOR OF ICE MACHINE, BEVERAGE MACHINES (JUICE, COFFEE, CREAMER, SHAKE, ETC), NOZZLES, SPIGOTS, DRIP TRAYS, PREP TABLES, HOLDING UNITS, FRYER CABINETS, COOLERS, FREEZERS, CUP HOLDERS.  "
1154460,MCDONALD'S,1679682,11421 S HALSTED ST,CHICAGO,IL,60628,41.6862492664438,-87.6420421730029,2012-07-18,Pass,33,"FOOD AND NON-FOOD CONTACT EQUIPMENT UTENSILS CLEAN, FREE OF ABRASIVE DETERGENTS","CLEAN INTERIOR AND EXTERIOR OF ALL ICE CREAM AND BEVERAGE MACHINES NOZZLES, SPIGOTS, ICE DISPENSER, DRIP TRAY, HOLDING UNITS, GRILL, FRYER, COOLERS, FREEZERS, ETC."
1154482,MCDONALD'S,1302136,70 E GARFIELD BLVD,CHICAGO,IL,60615,41.7947940242651,-87.6229151035504,2012-07-31,Pass,33,"FOOD AND NON-FOOD CONTACT EQUIPMENT UTENSILS CLEAN, FREE OF ABRASIVE DETERGENTS","MUST DETAIL CLEAN INTERIOR AND EXTERIOR OF ALL FRYERS. MUST REMOVE GREASE AND DUST. MUST ALSO CLEAN ALL PREP TABLES AND COOLERS. MUST DETAIL CLEAN THE INTERIOR TOP PANEL OF THE ICE MACHINE.   "
1154519,MCDONALD'S,1768770,600 E 115TH ST,CHICAGO,IL,60628,41.6855811783059,-87.6082071152992,2012-08-20,Pass,33,"FOOD AND NON-FOOD CONTACT EQUIPMENT UTENSILS CLEAN, FREE OF ABRASIVE DETERGENTS","CLEAN INTERIOR AND EXTERIOR OF ALL BEVERAGE MACHINE NOZZLES AND SPIGOTS, CABINETS UNDER SELF SERVICE BEVERAGE AREA, HOLDING UNITS, FRYERS, FRYER CABINETS, GRILL, COOLERS, FREEZERS."
1154520,MCDONALD'S,1970361,9542 S HALSTED ST,CHICAGO,IL,60628,41.7202240990589,-87.6433279836791,2012-08-21,Pass,33,"FOOD AND NON-FOOD CONTACT EQUIPMENT UTENSILS CLEAN, FREE OF ABRASIVE DETERGENTS","CLEAN INTERIOR AND EXTERIOR OF ALL MCCAFE, SODA, CREAMER, ORANGE JUICE, BEVERAGE AND ICE CREAM MACHINE SPIGOTS AND NOZZLES, HOLDING UNITS, CABINETS, SHELVES, COOKING EQUIPMENT, ICE MACHINE.  "
1154660,MCDONALD'S RESTAURANT,1330046,36 W 95TH ST,CHICAGO,IL,60628,41.7218087646306,-87.6252418946853,2012-10-29,Pass,33,"FOOD AND NON-FOOD CONTACT EQUIPMENT UTENSILS CLEAN, FREE OF ABRASIVE DETERGENTS","CLEAN INTERIOR AND EXTERIOR OF ALL SINKS, PREP TABLES, COOLERS, FREEZERS, FRYERS, FRYER CABINETS, CABINETS UNDER BEVERAGE AREA, BEVERAGE MACHINE NOZZLES AND SPIGOTS.  "
1154679,MCDONALD'S RESTAURANT,64964,2425 E 79TH ST,CHICAGO,IL,60649,41.7516335989759,-87.5651606509335,2012-11-08,Pass w/ Conditions,33,"FOOD AND NON-FOOD CONTACT EQUIPMENT UTENSILS CLEAN, FREE OF ABRASIVE DETERGENTS","CLEAN INTERIOR AND EXTERIOR OF ALL BEVERAGE MACHINES, NOZZLES, SPIGOTS, FRYERS, FRYER CABINETS, GRILL, PREP TABLES."
1154706,MCDONALD'S RESTAURANT,64964,2425 E 79TH ST,CHICAGO,IL,60649,41.7516335989759,-87.5651606509335,2012-11-19,Pass,33,"FOOD AND NON-FOOD CONTACT EQUIPMENT UTENSILS CLEAN, FREE OF ABRASIVE DETERGENTS","CLEAN INTERIOR AND EXTERIOR OF ALL BEVERAGE MACHINES, NOZZLES, SPIGOTS, FRYERS, FRYER CABINETS, GRILL, PREP TABLES.  "
1154945,MCDONALD'S,1679682,11421 S HALSTED ST,CHICAGO,IL,60628,41.6862492664438,-87.6420421730029,2013-03-19,Pass,33,"FOOD AND NON-FOOD CONTACT EQUIPMENT UTENSILS CLEAN, FREE OF ABRASIVE DETERGENTS",EQUIPMENT CLEANED.
1158235,MCDONALD'S,1519152,6355 S DR MARTIN LUTHER KING JR DR,CHICAGO,IL,60637,41.7785971834236,-87.6154413879464,2012-04-06,Pass,33,"FOOD AND NON-FOOD CONTACT EQUIPMENT UTENSILS CLEAN, FREE OF ABRASIVE DETERGENTS","MUST DETAIL CLEAN THE INTERIOR TOP PANEL OF THE ICE MACHINE.  MUST ALSO DETAIL CLEAN TOILETS IN WASHROOMS.  MUST CLEAN ALL COOKING EQUIPMENT,PREP TABLES AND REFRIGERATION UNITS AND REMOVE GREASE AND FOOD DEBRIS."
1158283,MCDONALD'S,1445833,740 E 47TH ST,CHICAGO,IL,60653,41.8096286978775,-87.607369737858,2012-04-26,Pass,33,"FOOD AND NON-FOOD CONTACT EQUIPMENT UTENSILS CLEAN, FREE OF ABRASIVE DETERGENTS","MUST DETAIL CLEAN PREP TABLES,INTERIOR AND EXTERIOR OF COOLERS AND THE TOP INTERIOR PANELS AT BOTH WORKING ICE MACHINES."
1158372,MCDONALD'S,1519152,6355 S DR MARTIN LUTHER KING JR DR,CHICAGO,IL,60637,41.7785971834236,-87.6154413879464,2012-06-05,Pass,33,"FOOD AND NON-FOOD CONTACT EQUIPMENT UTENSILS CLEAN, FREE OF ABRASIVE DETERGENTS","MUST DETAIL CLEAN THE INTERIOR TOP PANEL OF THE ICE MACHINE. MUST ALSO DETAIL CLEAN TOILETS IN WASHROOMS. MUST CLEAN ALL COOKING EQUIPMENT,PREP TABLES AND REFRIGERATION UNITS AND REMOVE GREASE AND FOOD DEBRIS."
1158431,MCDONALD'S,1302136,70 E GARFIELD BLVD,CHICAGO,IL,60615,41.7947940242651,-87.6229151035504,2012-08-09,Pass,33,"FOOD AND NON-FOOD CONTACT EQUIPMENT UTENSILS CLEAN, FREE OF ABRASIVE DETERGENTS","MUST DETAIL CLEAN INTERIOR AND EXTERIOR OF ALL FRYERS. MUST REMOVE GREASE AND DUST. MUST ALSO CLEAN ALL PREP TABLES AND COOLERS. MUST DETAIL CLEAN THE INTERIOR TOP PANEL OF THE ICE MACHINE.   "
1170453,PMA MCD INC (MCDONALD'S),1677122,5624 W ROOSEVELT RD,CHICAGO,IL,60644,41.8656901070454,-87.7653891146793,2012-09-10,Pass w/ Conditions,33,"FOOD AND NON-FOOD CONTACT EQUIPMENT UTENSILS CLEAN, FREE OF ABRASIVE DETERGENTS","Inspector Comments: MUST CLEAN GREASE & FOOD DEBRI FROM WINDOW SILLS,FRYERS,FILTER,GRILLS,ICE DISPENSER ON SODA MACHINE.  "
1174254,MCDONALD'S,1332913,2609 S KEDZIE AVE,CHICAGO,IL,60623,41.844202240983,-87.7048869943916,2012-06-04,Pass,33,"FOOD AND NON-FOOD CONTACT EQUIPMENT UTENSILS CLEAN, FREE OF ABRASIVE DETERGENTS",VIOLATION CORRECTED.
1174357,MCDONALD'S,1577303,4048 W MADISON ST,CHICAGO,IL,60624,41.8808120522647,-87.7276197790487,2012-08-29,Pass,33,"FOOD AND NON-FOOD CONTACT EQUIPMENT UTENSILS CLEAN, FREE OF ABRASIVE DETERGENTS",MUST CLEAN INTERIOR BOTTOMS OF ALL FRYERS TO REMOVE GREASE AND DUST.  CLEAN BETWEEN ALL COOKING EQUIPMENT (EXTERIOR SURFACES) TO REMOVE GREASE.
1174387,MCDONALD'S,33706,3200 W ROOSEVELT RD,CHICAGO,IL,60624,41.8665138881923,-87.7057335990255,2012-09-11,Pass,33,"FOOD AND NON-FOOD CONTACT EQUIPMENT UTENSILS CLEAN, FREE OF ABRASIVE DETERGENTS","All food and non-food contact surfaces of equipment and all food storage utensils shall be thoroughly cleaned and sanitized daily. CLEAN EXTERIOR SURFACES OF COOKING EQUIPMENT, COFFEE MACHINES, SODA MACHINES ETC AND MAINTAIN. CLEAN INTERIOR BOTTOMS OF FRYERS TO REMOVE DUST OBSERVED."
1174486,MCDONALD'S,1577303,4048 W MADISON ST,CHICAGO,IL,60624,41.8808120522647,-87.7276197790487,2012-12-11,Pass,33,"FOOD AND NON-FOOD CONTACT EQUIPMENT UTENSILS CLEAN, FREE OF ABRASIVE DETERGENTS",VIOLATION CORRECTED.
1174600,"MCDONALD'S RESTAURANT OF ILLINOIS,INC (MCDONALD'S RESTAURANT)",1069488,500 W MADISON ST,CHICAGO,IL,60661,41.8819943382051,-87.6397586848809,2013-10-10,Pass,33,"FOOD AND NON-FOOD CONTACT EQUIPMENT UTENSILS CLEAN, FREE OF ABRASIVE DETERGENTS",BOTTOM INTERIOR OF FRYER (NOW IN USE) NEEDS CLEANING TO REMOVE GREASE AND DUST OBSERVED.
1174632,MCDONALD'S,1969970,555 W MADISON ST,CHICAGO,IL,60661,41.8817375162117,-87.6418080251031,2013-11-07,Pass,33,"FOOD AND NON-FOOD CONTACT EQUIPMENT UTENSILS CLEAN, FREE OF ABRASIVE DETERGENTS","CLEAN INTERIOR BOTTOM OF FRYERS TO REMOVE GREASE NOTED. CLEAN FILTERS ABOVE FRYERS AND GRILL.  "
1184506,"MCDONALD'S RESTAURANT OF ILLINOIS,INC (MCDONALD'S RESTAURANT)",1069488,500 W MADISON ST,CHICAGO,IL,60661,41.8819943382051,-87.6397586848809,2012-08-06,Pass,33,"FOOD AND NON-FOOD CONTACT EQUIPMENT UTENSILS CLEAN, FREE OF ABRASIVE DETERGENTS",MUST REPAIR GASKET AT ONE DOR MILK COOLER AT FRONT SERVICE AREA.MUST CLEAN YOGURT MACHINE AND ALL COFFEE STATIONS TO REMOVE FOOD SPLASHES AND FOOD DEBRIS. MUST CLEAN COUNTER TOPS TO REMOVE SAME AS STATED ABOVE. MUST ALSO DETAIL CLEAN AND SANITIZE EXTERIOR OF ICE MACHINE TO REMOVE STICKY SODA SYRUP. ALSO INTERIOR OF ICE MACHINE LID.
1188378,MCDONALD'S #4305 (MCDONALD'S),1922105,4844 N LINCOLN AVE,CHICAGO,IL,60625,41.9697537205744,-87.6894034367043,2012-10-05,Pass,33,"FOOD AND NON-FOOD CONTACT EQUIPMENT UTENSILS CLEAN, FREE OF ABRASIVE DETERGENTS",CORRECTED.
1188452,MCDONALD'S,1679820,4546 N KEDZIE AVE,CHICAGO,IL,60625,41.9643875286351,-87.708492478441,2012-12-28,Pass w/ Conditions,33,"FOOD AND NON-FOOD CONTACT EQUIPMENT UTENSILS CLEAN, FREE OF ABRASIVE DETERGENTS",MUST CLEAN AND SANITIZE THE INTERIOR OF THE ICE MAKER ABOVE THE SODA MACHINE  AND MAINTAIN.
1188485,MCDONALD'S,1093571,3615 W IRVING PARK RD,CHICAGO,IL,60618,41.9536466519158,-87.7184849050502,2013-01-18,Pass,33,"FOOD AND NON-FOOD CONTACT EQUIPMENT UTENSILS CLEAN, FREE OF ABRASIVE DETERGENTS",CORRECTED AND ABATED.
1199535,"MCDONALD'S RESTAURANT OF ILLINOIS,INC (MCDONALD'S RESTAURANT)",1069488,500 W MADISON ST,CHICAGO,IL,60661,41.8819943382051,-87.6397586848809,2014-09-30,Pass w/ Conditions,2,FACILITIES TO MAINTAIN PROPER TEMPERATURE,FACILITIES UNABLE TO MAINTAIN PROPER TEMPERATURES. TALL REACH-IN COOLER FOUND TO BE AT 65.8F WITH FOODS SUCH AS SAUSAGE/EGG BURRITO STUFFING AT 67.6F. COOLER TAGGED HELD FOR INSPECTION AND MUST NOT USE UNTIL REPAIRED AND MAINTAINS A TEMPERATURE OF 40F OR BELOW. CDPH CONTACTED FOR RE-INSPECTION AND TAG REMOVAL. CRITICAL CITATION ISSUED 7-38-005(A).
1199535,"MCDONALD'S RESTAURANT OF ILLINOIS,INC (MCDONALD'S RESTAURANT)",1069488,500 W MADISON ST,CHICAGO,IL,60661,41.8819943382051,-87.6397586848809,2014-09-30,Pass w/ Conditions,3,"POTENTIALLY HAZARDOUS FOOD MEETS TEMPERATURE REQUIREMENT DURING STORAGE, PREPARATION DISPLAY AND SERVICE","THE FOLLOWING POTENTIALLY HAZARDOUS FOODS FOUND HELD AT IMPROPER TEMPERATURES IN THE ABOVE MENTIONED COOLER. APPROXIMATELY 1 LB OF SAUSAGE/EGG BURRITO FILLING AT 67.6F, 1 LB CHICKEN CHORIZO/EGG FILLING AT 54.7F, 4 LBS YOGURT AT 44.6F. OBSERVED ONE CASE OF MILK INSIDE WALK-IN COOLER,PREVIOUSLY STORED IN HALLWAY UPON DELIVERY AT 53.7F.  ALL FOODS DISCARDED. INSTRUCTED MANAGEMENT TO STORE ALL PERISHABLE FOODS DELIVERED IN REFRIGERATION UPON ARRIVAL. MANAGEMENT STATES ESTIMATED VALUE TO BE $200.00. CRITICAL CITATION ISSUED 7-38-005(A)."
1202322,MCDONALD'S #4308 (MCDONALD'S),1904304,3867 S ARCHER AVE BLDG,CHICAGO,IL,60632,41.823158345079,-87.6892366472357,2012-06-20,Pass,33,"FOOD AND NON-FOOD CONTACT EQUIPMENT UTENSILS CLEAN, FREE OF ABRASIVE DETERGENTS",CLEAN THE FRYERS SOUTH WALLS AND CABINETS UNDER THE TWO POP MACHINES.
1202357,MCDONALD'S #4308 (MCDONALD'S),1904304,3867 S ARCHER AVE BLDG,CHICAGO,IL,60632,41.823158345079,-87.6892366472357,2012-07-16,Pass,33,"FOOD AND NON-FOOD CONTACT EQUIPMENT UTENSILS CLEAN, FREE OF ABRASIVE DETERGENTS",CLEAN THE ALL THE FRYERS AND CABINETS UNDERNEATH HAS GREASE BUILDUP.  CLEAN THE CABINETS UNDER THE POP MACHINE ALSO.
1202368,MCDONALD'S #4308 (MCDONALD'S),1904304,3867 S ARCHER AVE BLDG,CHICAGO,IL,60632,41.823158345079,-87.6892366472357,2012-07-23,Pass,33,"FOOD AND NON-FOOD CONTACT EQUIPMENT UTENSILS CLEAN, FREE OF ABRASIVE DETERGENTS",VIOLATIONS CORRECTED
1202504,MCDONALD'S #4308 (MCDONALD'S),1904304,3867 S ARCHER AVE BLDG,CHICAGO,IL,60632,41.823158345079,-87.6892366472357,2012-11-07,Pass,33,"FOOD AND NON-FOOD CONTACT EQUIPMENT UTENSILS CLEAN, FREE OF ABRASIVE DETERGENTS","CLEAN ALL THE COOKING EQUIPMENT,CABINETS, STORAGE SHELVES, POP MACHINE AND NOZZLES,"
1202552,MCDONALD'S,65404,5253 S PULASKI RD,CHICAGO,IL,60632,41.7971097354294,-87.7231243505289,2012-12-12,Pass w/ Conditions,2,FACILITIES TO MAINTAIN PROPER TEMPERATURE,THE TWO DOOR COOLER NOT MAINTAINING PROPER TEMPERATURES WAS 58.2F.UNIT IS TAGGED. CRITICAL CITATION GIVEN.   WHEN THE UNIT HAS BEEN REPAIRED OR REPLACED FAX A LETTER TO THE DEPARTMENT OF PUBLIC HEALTH SO AN INSPECTOR CAN COME HERE TO REMOVE TAG.DO NOT USE THE UNIT. FAX#312 746-4240.
1202552,MCDONALD'S,65404,5253 S PULASKI RD,CHICAGO,IL,60632,41.7971097354294,-87.7231243505289,2012-12-12,Pass w/ Conditions,33,"FOOD AND NON-FOOD CONTACT EQUIPMENT UTENSILS CLEAN, FREE OF ABRASIVE DETERGENTS",CLEAN ALL THE FRYERS AND CABINETS UNDERNEATH HAS GREAS BUILDUP.
1202654,MCDONALD'S,1577303,4048 W MADISON ST,CHICAGO,IL,60624,41.8808120522647,-87.7276197790487,2013-02-13,Pass,33,"FOOD AND NON-FOOD CONTACT EQUIPMENT UTENSILS CLEAN, FREE OF ABRASIVE DETERGENTS","CLEAN ALL THE COOKING EQUIPMENT, CABINETS AND COUNTERS THROUGHOUT THEY HAVE GREASE BUILDUP ON THEM."
1202655,MCDONALD'S,33706,3200 W ROOSEVELT RD,CHICAGO,IL,60624,41.8665138881923,-87.7057335990255,2013-02-13,Pass,33,"FOOD AND NON-FOOD CONTACT EQUIPMENT UTENSILS CLEAN, FREE OF ABRASIVE DETERGENTS",VIOLATION CORRECTED
1214769,MCDONALD'S RESTAURANT,1330046,36 W 95TH ST,CHICAGO,IL,60628,41.7218087646306,-87.6252418946853,2012-05-10,Pass,33,"FOOD AND NON-FOOD CONTACT EQUIPMENT UTENSILS CLEAN, FREE OF ABRASIVE DETERGENTS",VIOLATION CORRECTED.
1227316,MCDONALD'S,61707,6720 W ARCHER AVE,CHICAGO,IL,60638,41.7922933994001,-87.7901127088606,2012-05-23,Pass w/ Conditions,3,"POTENTIALLY HAZARDOUS FOOD MEETS TEMPERATURE REQUIREMENT DURING STORAGE, PREPARATION DISPLAY AND SERVICE","FOUND THE FOLLOWING AT IMPROPER TEMPERATURE: 50 EGGS, 4 CARTONS OF LIQUID EGGS, AND 36 READY TO EAT PANCAKES. 49.3 - 52.5 DEGREES. ALL PRODUCT WAS ON A CART TO BE PUT IN LARGE WALK IN COOLER. ALL PRODUCT HAS BEEN DISCARDED AT THIS TIME.  TOTAL VALUE $17.21     CRITICAL VIOLATION 7-38-005(a) CITATION ISSUED  POTENTIALLY HAZARDOUS PRODUCTS AT IMPROPER TEMPERATURE."
1227316,MCDONALD'S,61707,6720 W ARCHER AVE,CHICAGO,IL,60638,41.7922933994001,-87.7901127088606,2012-05-23,Pass w/ Conditions,33,"FOOD AND NON-FOOD CONTACT EQUIPMENT UTENSILS CLEAN, FREE OF ABRASIVE DETERGENTS","SMOOTHIE MACHINE, EXTERIOR/INTERIOR OF HAMBURGER FREEZER, AND EXTERIOR OF CONDIMENT MACHINE AT FRONT COUNTER NOT CLEAN. CLEAN SAME.  "
1227316,MCDONALD'S,61707,6720 W ARCHER AVE,CHICAGO,IL,60638,41.7922933994001,-87.7901127088606,2012-05-23,Pass w/ Conditions,33,"FOOD AND NON-FOOD CONTACT EQUIPMENT UTENSILS CLEAN, FREE OF ABRASIVE DETERGENTS","MUST CLEAN NOZZLES OF ALL DRINK DISPENSORS.  MUST CLEAN AND MAINTAIN.  "
1227610,MCDONALD'S,1045468,6737 S PULASKI RD,CHICAGO,IL,60629,41.7702902639118,-87.7224013240254,2012-10-04,Pass,33,"FOOD AND NON-FOOD CONTACT EQUIPMENT UTENSILS CLEAN, FREE OF ABRASIVE DETERGENTS","CLEAN ALL DRINK DISPENSORS AND NOZZLES, CLEAN COOKING EQUIPMENT TO REMOVE FOOD SPLATTERS AND BUILD-UP. MUST CLEAN AND MAINTAIN AT ALL TIMES."
1227803,MCDONALD'S,1620828,1454 W 47TH ST,CHICAGO,IL,60609,41.8087493740108,-87.6623069600337,2013-03-14,Pass,33,"FOOD AND NON-FOOD CONTACT EQUIPMENT UTENSILS CLEAN, FREE OF ABRASIVE DETERGENTS","FRYERS IN NEED OF CLEANING TO REMOVE ALL GREASE BUILD UP. ALL DRINK DISPENSORS IN NEED OF CLEANING TO REMOVE ALL BUILD UP AROUND NOZZLES. MUST CLEAN AND MAINTAIN AT ALL TIMES.   "
1227904,MCDONALD'S,1620828,1454 W 47TH ST,CHICAGO,IL,60609,41.8087493740108,-87.6623069600337,2013-04-29,Pass,33,"FOOD AND NON-FOOD CONTACT EQUIPMENT UTENSILS CLEAN, FREE OF ABRASIVE DETERGENTS","FRYERS IN NEED OF CLEANING TO REMOVE ALL GREASE BUILD UP. ALL DRINK DISPENSORS IN NEED OF CLEANING TO REMOVE ALL BUILD UP AROUND NOZZLES. MUST CLEAN AND MAINTAIN AT ALL TIMES.   "
1227978,MCDONALD'S,1593965,4158 S ASHLAND AVE,CHICAGO,IL,60609,41.8177427370255,-87.6653350123341,2013-05-30,Pass,33,"FOOD AND NON-FOOD CONTACT EQUIPMENT UTENSILS CLEAN, FREE OF ABRASIVE DETERGENTS","DRINK NOZZELS IN NEED OF DETAIL CLEANING TO REMOVE ALL BUILD UP OF PRODUCT. MUST CLEAN AND MAINTAIN AT ALL TIMES.   "
1228058,MCDONALD'S,2204169,207 E 35TH ST,CHICAGO,IL,60616,41.8309527893036,-87.6214491630074,2013-07-19,Pass,33,"FOOD AND NON-FOOD CONTACT EQUIPMENT UTENSILS CLEAN, FREE OF ABRASIVE DETERGENTS","ICE SCOOP IN POOR REPAIR.  MUST REPLACE AND MAINTAIN AT ALL TIMES.  "
1228294,MCDONALD'S (MC DONALDS-MCCORMICK PLACE NORTH),60108,2301 S LAKE SHORE DR,CHICAGO,IL,60616,41.85110748019,-87.6128666325438,2013-11-14,Pass,33,"FOOD AND NON-FOOD CONTACT EQUIPMENT UTENSILS CLEAN, FREE OF ABRASIVE DETERGENTS","MUST CLEAN THE FOLOWING: INTERIOR OF ICE MACHINE, DRINK NOZZLES ON SODA FOUNTAIN, COFFEE AND SMOOTHIE MACHINES TO REMOVE ALL BUILD UP OF DEBRIS.  MUST CLEAN AND MAINTAIN AT ALL TIMES.  "
1228374,MCDONALD'S RESTAURANTS (MCDONALD'S),2064662,2525 S DR MARTIN LUTHER KING JR DR,CHICAGO,IL,60616,41.8467666109193,-87.6171757775497,2013-12-12,Pass,33,"FOOD AND NON-FOOD CONTACT EQUIPMENT UTENSILS CLEAN, FREE OF ABRASIVE DETERGENTS","CLEAN INTERIOR OF REACH IN COOLERS TO REMOVE ALL FOOD SPILLS.  MUST CLEAN AND MAINTAIN AT ALL TIMES.  "
1229325,MCDONALD'S #4305 (MCDONALD'S),1922105,4844 N LINCOLN AVE,CHICAGO,IL,60625,41.9697537205744,-87.6894034367043,2012-06-04,Pass,33,"FOOD AND NON-FOOD CONTACT EQUIPMENT UTENSILS CLEAN, FREE OF ABRASIVE DETERGENTS",NOTED HEAVY GREASE BUILD-UP AT HOOD/EXHAUST (GRILL). INSTRUCTED TO CLEAN AND MAINTAIN.-------------INSTRUCTED TO CLEAN AND MAINTAIN INTERIOR SURFACES OF ICE MACHINE AND MOP SINK IN REAR AREA.
1229343,MCDONALD'S,1874347,6515 S WESTERN AVE,CHICAGO,IL,60636,41.7751165659088,-87.6833858388708,2012-06-04,Pass,33,"FOOD AND NON-FOOD CONTACT EQUIPMENT UTENSILS CLEAN, FREE OF ABRASIVE DETERGENTS","CLEAN INTERIOR AND EXTERIOR OF ICE MACHINE, ORANGE JUICE, CREAMER, FRAPPE, SMOOTHIE AND POP MACHINES DRIP TRAYS, NOZZLES AND SPIGOTS, BLENDERS, CABINETS UNDER ICE CREAM MACHINE (SPILLS), ETC.   "
1229532,MCDONALD'S RESTAURANT,1678414,6336 S ASHLAND AVE,CHICAGO,IL,60636,41.7783609760376,-87.6643368634279,2012-06-11,Pass w/ Conditions,2,FACILITIES TO MAINTAIN PROPER TEMPERATURE,"WALK-IN COOLER UNABLE TO MAINTAIN PROPER TEMPERATURE, INTERNAL TEMPERATURE OF 53F. INSTD TO BE ABLE TO MAINTAIN PRODUCT TEMPERATURES OF 40F OR BELOW AT ALL TIMES. CITATION ISSUED 7-38-005A CRITICAL. REFRIGERATION REPAIR SERVICE ARRIVED AT END OF INSPECTION TO REPAIR SAME."
1229532,MCDONALD'S RESTAURANT,1678414,6336 S ASHLAND AVE,CHICAGO,IL,60636,41.7783609760376,-87.6643368634279,2012-06-11,Pass w/ Conditions,3,"POTENTIALLY HAZARDOUS FOOD MEETS TEMPERATURE REQUIREMENT DURING STORAGE, PREPARATION DISPLAY AND SERVICE","OBSERVED 30 SAUSAGE & EGG BURRITOS AT IMPROPER TEMPERATURES RANGING FROM 70F-72F ON STORAGE SHELF IN PREP AREA. THE FOLLOWING POTENTIALLY HAZARDOUS FOODS OBSERVED AT IMPROPER HOLDING TEMPERATURES IN WALK-IN COOLER: 6 CONTAINERS OF LIQUID EGG AT 51.2F, 35 MILK CONTAINERS AT 49F, AND 30 DOZEN EGGS AT 50.0F. ALL PRODUCT DISCARDED AND DENATURED. INSTD TO MAINTAIN PROPER TEMPERATURES AT ALL TIMES.  CITATION ISSUED 7-38-005A CRITICAL."
1229663,MCDONALD'S RESTAURANT,64964,2425 E 79TH ST,CHICAGO,IL,60649,41.7516335989759,-87.5651606509335,2012-06-15,Pass,33,"FOOD AND NON-FOOD CONTACT EQUIPMENT UTENSILS CLEAN, FREE OF ABRASIVE DETERGENTS",VIOLATION CORRECTED.
1229820,MCDONALD'S #4305 (MCDONALD'S),1922105,4844 N LINCOLN AVE,CHICAGO,IL,60625,41.9697537205744,-87.6894034367043,2012-06-26,Pass,33,"FOOD AND NON-FOOD CONTACT EQUIPMENT UTENSILS CLEAN, FREE OF ABRASIVE DETERGENTS","NOTED HEAVY GREASE BUILD-UP AT HOOD/EXHAUST (GRILL). INSTRUCTED TO CLEAN AND MAINTAIN.-------------INSTRUCTED TO CLEAN AND MAINTAIN INTERIOR SURFACES OF ICE MACHINE AND MOP SINK IN REAR AREA.  "
1229858,MCDONALD'S,84425,4038 W BELMONT AVE,CHICAGO,IL,60641,41.9391826068248,-87.7287604353185,2012-06-28,Pass w/ Conditions,12,"HAND WASHING FACILITIES: WITH SOAP AND SANITARY HAND DRYING DEVICES, CONVENIENT AND ACCESSIBLE TO FOOD PREP AREA","FOUND NO HAND DRYING DEVICE (PAPER TOWELS) AVAILABLE AT (2) EXPOSED HAND SINK IN FOOD PREP AREA. MUST PROVIDE. INSTRUCTED MANAGER, ALL HAND WASHING FACILITIES MUST BE WITH HAND DRYING DEVICE AVAILABLE (CONVENIENT AND ACCESSIBLE) TO ALL EMPLOYEES.  (MANAGER PROVIDED PAPER TOWEL AT THE END OF INSPECTION).  CRITICAL CITATION ISSUED 7-38-030"
1229858,MCDONALD'S,84425,4038 W BELMONT AVE,CHICAGO,IL,60641,41.9391826068248,-87.7287604353185,2012-06-28,Pass w/ Conditions,33,"FOOD AND NON-FOOD CONTACT EQUIPMENT UTENSILS CLEAN, FREE OF ABRASIVE DETERGENTS",INSTRUCTED TO CLEAN AND MAINTAIN INTERIOR SURFACES (BEHIND UPPER PANEL) OF ICE MACHINE.
1230115,MCDONALD'S,1718785,8321 S ASHLAND AVE,CHICAGO,IL,60620,41.7424208244385,-87.6630911433338,2012-07-16,Pass,33,"FOOD AND NON-FOOD CONTACT EQUIPMENT UTENSILS CLEAN, FREE OF ABRASIVE DETERGENTS","CLEAN INTERIORS AND EXTERIORS OF ICE MACHINE(1ST FLOOR), SOFT-SERVE MACHINE, POP DISPESING STATION IN DRIVE-THRU, HOOD ABOVE GRILLS, LEGES AND WHEELS OF CARTS OF ALL EQUIPMENT IN FOOD PREP AREA., PREP TABLES, COUNTERS AND CABINET INTERIORS OF DEEP FRYERS."
1234255,MCDONALD'S,1474116,1443 E 87TH ST,CHICAGO,IL,60619,41.7367599255433,-87.588841701402,2012-07-23,Pass,33,"FOOD AND NON-FOOD CONTACT EQUIPMENT UTENSILS CLEAN, FREE OF ABRASIVE DETERGENTS",VIOLATION CORRECTED.
1234961,MCDONALD'S #6337,1768801,29 E 87TH ST,CHICAGO,IL,60619,41.7362554617903,-87.6229175082059,2012-08-29,Pass,33,"FOOD AND NON-FOOD CONTACT EQUIPMENT UTENSILS CLEAN, FREE OF ABRASIVE DETERGENTS","CLEAN GREASY BUILD-UP FROM SIDES AND INTERIORS OF ALL COOKING EQUIPMENT IN FRY PREP AREA, AND STORAGE SHELVES IN REAR BY 3 COMPARTMENT SINK.  "
1234976,MCDONALD'S RESTAURANT (MCDONALD'S),1986407,1831 W DEVON AVE,CHICAGO,IL,60660,41.9978564374219,-87.6764250260207,2012-08-30,Pass w/ Conditions,2,FACILITIES TO MAINTAIN PROPER TEMPERATURE,"FOUND PREP REACH IN COOLER #1 NOT MAINTAINED, AMBINET AIR TEMPERATURE AT 45.0 F WITH CHEESE, CHOPPED LETTUCE HELD INSIDE. INSTRUCTED MANAGER TO REPAIR COOLER, AMBIENT AIR TEMPERATURE MUST BE 40 F OR BELOW."
1234976,MCDONALD'S RESTAURANT (MCDONALD'S),1986407,1831 W DEVON AVE,CHICAGO,IL,60660,41.9978564374219,-87.6764250260207,2012-08-30,Pass w/ Conditions,3,"POTENTIALLY HAZARDOUS FOOD MEETS TEMPERATURE REQUIREMENT DURING STORAGE, PREPARATION DISPLAY AND SERVICE","FOUND THE FOLLOWING POTENTAILLY HAZARDOUS FOODS HELD AT 45.0 F- CHEESE, CHOPPED LETTUCE, CUT TOMOATOES, CHOPPED ONIONS, CHOPPED CUCUMBERS. INSTRUCTED MANAGER ALL POTENTIALLY HAZARDOUS FOODS MUST BE HELD AT 40 F OR BELOW IF HELD COLD. ALL THE ABOVE FOODS VOLUNTARILY DISCARDED AT THIS TIME."
1235454,MCDONALD'S (MCDONALD'S (T3- L4)),2016727,11601 W TOUHY AVE,CHICAGO,IL,60666,42.0085364008687,-87.9144284392705,2012-10-19,Pass,33,"FOOD AND NON-FOOD CONTACT EQUIPMENT UTENSILS CLEAN, FREE OF ABRASIVE DETERGENTS",OBSERVED FOOD/DUST BUILD UP ON SHELVES AT PREP AREA. INSTRUCED MANAGER TO CLEAN SHELVES AND MAINTAIN.
1235498,MCDONALD'S RESTAURANT (MCDONALD'S RESTAURANT (T3 H9)),51206,11601 W TOUHY AVE,CHICAGO,IL,60666,42.0085364008687,-87.9144284392705,2012-11-08,Pass w/ Conditions,2,FACILITIES TO MAINTAIN PROPER TEMPERATURE,"STORAGE ROOM WALK IN COOLER AND STORAGE ROOM WALK IN FREEZER BOTH EMPTY AND OFF AT THIS TIME, STORAGE AREA IS LOCATED BY GATE L/ TERMINAL #3. COOLER AND FREEZER IS TAGGED BY CDPH AT THIS TIME. NO CITATION ISSUED. ESTALBISHMENT HAS WORKING WALK IN COOLER AND WALK IN FREEZER AT LOWER LEVEL SEPERATE STORAGE AREA AND WALK IN FREEZER ON PREMISES."
1235498,MCDONALD'S RESTAURANT (MCDONALD'S RESTAURANT (T3 H9)),51206,11601 W TOUHY AVE,CHICAGO,IL,60666,42.0085364008687,-87.9144284392705,2012-11-08,Pass w/ Conditions,33,"FOOD AND NON-FOOD CONTACT EQUIPMENT UTENSILS CLEAN, FREE OF ABRASIVE DETERGENTS",OBSERVED SLIGHT CALCIUM BUILD UP INSIDE ICE MACHINE. MUST CLEAN AND MAINTAIN INTERIOR OF ICE MACHINE.
1235506,MCDONALD'S RESTAURANT (MCDONALD'S RESTAURANT (T3 H9)),51206,11601 W TOUHY AVE,CHICAGO,IL,60666,42.0085364008687,-87.9144284392705,2012-11-14,Pass,2,FACILITIES TO MAINTAIN PROPER TEMPERATURE,"CORRECTED, STORAGE ROOM WALK IN COOLER AMBIENT AIR AT 37 F AND WALK IN FREEZER AT 0 F."
1235506,MCDONALD'S RESTAURANT (MCDONALD'S RESTAURANT (T3 H9)),51206,11601 W TOUHY AVE,CHICAGO,IL,60666,42.0085364008687,-87.9144284392705,2012-11-14,Pass,33,"FOOD AND NON-FOOD CONTACT EQUIPMENT UTENSILS CLEAN, FREE OF ABRASIVE DETERGENTS",SEE REPORT DATED ON 11/08/12
1235577,MCDONALD'S RESTAURANT,1225984,6125 N MILWAUKEE AVE,CHICAGO,IL,60646,41.9928754427605,-87.7835214845884,2013-01-02,Pass,33,"FOOD AND NON-FOOD CONTACT EQUIPMENT UTENSILS CLEAN, FREE OF ABRASIVE DETERGENTS",CORRECTED
1236054,KARAVITES REST INC (MCDONALD'S),11136,5130 N SHERIDAN RD,CHICAGO,IL,60640,41.976283055914,-87.6551477688298,2013-10-25,Pass w/ Conditions,2,FACILITIES TO MAINTAIN PROPER TEMPERATURE,"STAND UP REACH IN COOLER #1 NOT MAINTAINED, AMBIENT AIR TEMPERATURE AT 56.8 F. FOUND CUT FRUIT, MILK, DRESSING INSIDE SAID COOLER. INSTRUCTED MANAGER TO REPAIR COOLER, AMBIENT AIR TEMPERATURE MUST BE 40 F OR BELOW. CRITICAL VIOLATION 7-38-005(A)."
1236054,KARAVITES REST INC (MCDONALD'S),11136,5130 N SHERIDAN RD,CHICAGO,IL,60640,41.976283055914,-87.6551477688298,2013-10-25,Pass w/ Conditions,3,"POTENTIALLY HAZARDOUS FOOD MEETS TEMPERATURE REQUIREMENT DURING STORAGE, PREPARATION DISPLAY AND SERVICE","FOUND THE FOLLOWING POTENTIALLY HAZARDOUS FOODS HELD AT IMPROPER TEMPERATURE, 53 F INSIDE COOLER- CUT FRUIT, SALAD DRESSINGS AND MILK. INSTRUCTED MANAGER ALL POTENTIALLY HAZARDOUS FOODS MUST BE HELD AT 40 F OR BELOW. ALL OUT OF TEMPERATURE POTENTIALLY HAZARDOUS FOODS VOLUNTARILLY DISCARDED AT THIS TIME. CRITICAL VIOLATION 7-38-005(A)."
1236068,MCDONALD'S,51011,1004 W WILSON AVE,CHICAGO,IL,60640,41.9655372266183,-87.6550274072498,2013-11-04,Pass,33,"FOOD AND NON-FOOD CONTACT EQUIPMENT UTENSILS CLEAN, FREE OF ABRASIVE DETERGENTS",OBSERVED CALCIUM BUILD UP INSIDE ICE MACHINE (ICE MACHINE IN PREP AREA). INSTRUCTED MANAGER TO CLEAN AND MAINTAIN INTERIOR OF ICE MACHINE.
1271493,MCDONALD'S,1356058,5656 W IRVING PARK RD,CHICAGO,IL,60634,41.9532631107403,-87.7693112226014,2013-01-10,Pass,33,"FOOD AND NON-FOOD CONTACT EQUIPMENT UTENSILS CLEAN, FREE OF ABRASIVE DETERGENTS","Non food contact surfaces of ice machine not clean, need cleaning(detailed)."
1277275,MCDONALD'S,57781,3020 S HALSTED ST,CHICAGO,IL,60608,41.8392068322871,-87.6464535456406,2012-07-18,Pass,2,FACILITIES TO MAINTAIN PROPER TEMPERATURE,"Internal temperature of reach-in double door cooler at 35.6 F double,and two reach-in double door freezer at 0 F."
1277275,MCDONALD'S,57781,3020 S HALSTED ST,CHICAGO,IL,60608,41.8392068322871,-87.6464535456406,2012-07-18,Pass,3,"POTENTIALLY HAZARDOUS FOOD MEETS TEMPERATURE REQUIREMENT DURING STORAGE, PREPARATION DISPLAY AND SERVICE",Violation #03 now corrected.
1277275,MCDONALD'S,57781,3020 S HALSTED ST,CHICAGO,IL,60608,41.8392068322871,-87.6464535456406,2012-07-18,Pass,33,"FOOD AND NON-FOOD CONTACT EQUIPMENT UTENSILS CLEAN, FREE OF ABRASIVE DETERGENTS",Violation #33 now corrected.
1285278,MCDONALD'S,1332921,2005 W CHICAGO AVE,CHICAGO,IL,60622,41.8957965124416,-87.6773227997198,2012-09-17,Pass w/ Conditions,33,"FOOD AND NON-FOOD CONTACT EQUIPMENT UTENSILS CLEAN, FREE OF ABRASIVE DETERGENTS",VIOLATION NOW CORRECTED
1285300,MCDONALD'S RESTAURANT,59747,7601 S VINCENNES AVE,CHICAGO,IL,60620,41.7562118830204,-87.6321305421237,2012-09-18,Pass,33,"FOOD AND NON-FOOD CONTACT EQUIPMENT UTENSILS CLEAN, FREE OF ABRASIVE DETERGENTS","CLEAN THE FOLLOWING: INTERIOR CABINETS OF DEEP FRYERS, INTERIOR OF ICE MACHINE, EXTERIOR OF SOFT-SERVE MACHINE, AND ALL UNCLEAN EQUIPMENT IN DISH WASHING AREA(INCLUDING SLIDING STORAGE RACKS IN REAR). REMOVE ICY BUILD-UP FRON AIR VENTS IN WALK-IN FREEZER AND SALAD COOLER.  "
1285329,MCDONALD'S,1356058,5656 W IRVING PARK RD,CHICAGO,IL,60634,41.9532631107403,-87.7693112226014,2012-09-18,Pass,33,"FOOD AND NON-FOOD CONTACT EQUIPMENT UTENSILS CLEAN, FREE OF ABRASIVE DETERGENTS",VIOLATION HAS BEEN CORRECTED.
1285340,MCDONALD'S,33706,3200 W ROOSEVELT RD,CHICAGO,IL,60624,41.8665138881923,-87.7057335990255,2012-09-19,Pass,33,"FOOD AND NON-FOOD CONTACT EQUIPMENT UTENSILS CLEAN, FREE OF ABRASIVE DETERGENTS","All food and non-food contact surfaces of equipment and all food storage utensils shall be thoroughly cleaned and sanitized daily. CLEAN EXTERIOR SURFACES OF COOKING EQUIPMENT, COFFEE MACHINES, SODA MACHINES ETC AND MAINTAIN. CLEAN INTERIOR BOTTOMS OF FRYERS TO REMOVE DUST OBSERVED."
1285868,MCDONALD'S,1519152,6355 S DR MARTIN LUTHER KING JR DR,CHICAGO,IL,60637,41.7785971834236,-87.6154413879464,2012-10-15,Pass w/ Conditions,33,"FOOD AND NON-FOOD CONTACT EQUIPMENT UTENSILS CLEAN, FREE OF ABRASIVE DETERGENTS",VIOLATION CORRECTED.
1286103,MCDONALD'S,1474116,1443 E 87TH ST,CHICAGO,IL,60619,41.7367599255433,-87.588841701402,2012-10-25,Pass w/ Conditions,2,FACILITIES TO MAINTAIN PROPER TEMPERATURE,"REACH-IN SALAD COOLER NOT MAINTAINING ADEQUATE TEMPERATURE, AIR TEMP RECORDED AT 48.1F. INSTRUCTED TO HAVE UNIT SERVICED, HELD FOR INSPECTION TAG PLACED ON UNIT. MUST FAX REQUEST FOR RE-INSPECTION OF UNIT TO 312-746-4240 ONCE REPAIRED(CANNOT USE UNIT UNTIL RELEASED BY CDPH). CITATION ISSUED-CRITICAL 7-38-005(A)."
1286103,MCDONALD'S,1474116,1443 E 87TH ST,CHICAGO,IL,60619,41.7367599255433,-87.588841701402,2012-10-25,Pass w/ Conditions,33,"FOOD AND NON-FOOD CONTACT EQUIPMENT UTENSILS CLEAN, FREE OF ABRASIVE DETERGENTS","CLEAN THE FOLLOWING: INTERIOR OF REACH-IN FREEZER BY BREAKFAST GRILL, FILTERS ABOVE GRILLS, TOP EXTERIOR OF SOFT-SERVE MACHINE(SPLASH), AND UPPER INTERIOR OF FRENCH FRY HOLDING UNIT."
1286241,MCDONALD'S,1679006,5153 W CHICAGO AVE,CHICAGO,IL,60651,41.8948336616181,-87.7553010646592,2013-02-04,Pass,33,"FOOD AND NON-FOOD CONTACT EQUIPMENT UTENSILS CLEAN, FREE OF ABRASIVE DETERGENTS",PREVIOUS VIOLATION CORRECTED
1286341,MCDONALD'S CORPORATION,1243048,23 N WESTERN AVE,CHICAGO,IL,60612,41.8819144601214,-87.6863038518981,2013-10-07,Pass,11,"ADEQUATE NUMBER, CONVENIENT, ACCESSIBLE, DESIGNED, AND MAINTAINED",VIOLATION CORRECTED
1286341,MCDONALD'S CORPORATION,1243048,23 N WESTERN AVE,CHICAGO,IL,60612,41.8819144601214,-87.6863038518981,2013-10-07,Pass,33,"FOOD AND NON-FOOD CONTACT EQUIPMENT UTENSILS CLEAN, FREE OF ABRASIVE DETERGENTS","CLEAN BOTTOM COMPARTMENTS OF THE DEEP FRYERS,HAS GREASE BUILD-UP ALSO CLEAN BETWEEN RUNNERS OF DOOR AT THE CHEST COOLER AT DRIVE THUR AREA   "
1292316,MCDONALD'S,1969968,23 S CLARK ST,CHICAGO,IL,60603,41.8813862844238,-87.6307195439334,2013-02-05,Pass,33,"FOOD AND NON-FOOD CONTACT EQUIPMENT UTENSILS CLEAN, FREE OF ABRASIVE DETERGENTS","MUST CLEAN AND SANITIZE ALL DRINK DISPENSERS AT MCCAFE STATION TO REMOVE FOOD SPLASHES AND DEBRIS.    MUST CLEAN AND SANITIZE INTERIOR OF DEEP FRYERS TO REMOVE EXCESSIVE GREASE BUILD UP.  "
1296390,MCDONALD'S,2031962,1951 E 95TH ST,CHICAGO,IL,60617,41.7223544482932,-87.5757780641475,2013-05-28,Pass,33,"FOOD AND NON-FOOD CONTACT EQUIPMENT UTENSILS CLEAN, FREE OF ABRASIVE DETERGENTS",INTERIOR UPPER PANEL INSIDE ICE MACHINE NOT CLEAN.MUST CLEAN/MAINTAIN.
1296474,MCDONALD'S #5813,14116,4047 E 106TH ST,CHICAGO,IL,60617,41.7025732753772,-87.5250941359867,2013-07-18,Pass w/ Conditions,8,"SANITIZING RINSE FOR EQUIPMENT AND UTENSILS:  CLEAN, PROPER TEMPERATURE, CONCENTRATION, EXPOSURE TIME","0OBSERVED LOW TEMP DISH MACHINE BEING USED NOT SANITIZING PROPER CHLORINE CHEMICAL CONCENTRATION REQUIRED OF 100PPM.TEST KIT CHEMICAL READS  10 PPM.DISH MACHINE WILL BE TAGGED HELD FOR INSPECTION.MUST HAVE DISH MACHINE SERVICED/REPAIRED.MUST USE 3- COMP SINK TO WASH,RINSE AND SANITIZE FOOD EQUIPMENT AND UTENSILS,CDI.CRITICAL CITATION ISSUED."
1296474,MCDONALD'S #5813,14116,4047 E 106TH ST,CHICAGO,IL,60617,41.7025732753772,-87.5250941359867,2013-07-18,Pass w/ Conditions,33,"FOOD AND NON-FOOD CONTACT EQUIPMENT UTENSILS CLEAN, FREE OF ABRASIVE DETERGENTS","ICE DISPENSERS OF SODA MACHINE IN DINING ROOM NOT CLEAN,INSINDE CABINETS OF FRENCH FRY HOLDING UNIT NOT CLEAN,REAR STORAGE SHELVES IN DRIVE THRU NOT CLEAN.INSTRUCTED TO CLEAN THE FOLLOWING AND MAINTAIN."
1296491,MCDONALD'S #5813,14116,4047 E 106TH ST,CHICAGO,IL,60617,41.7025732753772,-87.5250941359867,2013-07-25,Pass,33,"FOOD AND NON-FOOD CONTACT EQUIPMENT UTENSILS CLEAN, FREE OF ABRASIVE DETERGENTS","ICE DISPENSERS OF SODA MACHINE IN DINING ROOM NOT CLEAN,INSINDE CABINETS OF FRENCH FRY HOLDING UNIT NOT CLEAN,REAR STORAGE SHELVES IN DRIVE THRU NOT CLEAN.INSTRUCTED TO CLEAN THE FOLLOWING AND MAINTAIN.  "
1296598,MCDONALD'S RESTAURANT,64964,2425 E 79TH ST,CHICAGO,IL,60649,41.7516335989759,-87.5651606509335,2013-09-27,Pass,33,"FOOD AND NON-FOOD CONTACT EQUIPMENT UTENSILS CLEAN, FREE OF ABRASIVE DETERGENTS",OBSERVED DINING ROOM TABLES AND POP STATION NOT CLEAN/MAINTAIN.INSTRUCTED TO CLEAN TABLES /MAINTAIN REGULARLY FOR CUSTOMERS. ALSO EXTERIOR OF COOLERS NOT CLEAN IN PREP AREAS.MUST CLEAN.
1296721,MCDONALD'S RESTAURANT,64964,2425 E 79TH ST,CHICAGO,IL,60649,41.7516335989759,-87.5651606509335,2013-12-09,Pass,33,"FOOD AND NON-FOOD CONTACT EQUIPMENT UTENSILS CLEAN, FREE OF ABRASIVE DETERGENTS","EXTERIOR OF COOLERS NOT CLEAN IN PREP AREAS.MUST CLEAN.  "
1296869,MCDONALD'S,1979615,7832 S WESTERN AVE,CHICAGO,IL,60620,41.7509316572994,-87.6830175318953,2014-05-02,Pass,33,"FOOD AND NON-FOOD CONTACT EQUIPMENT UTENSILS CLEAN, FREE OF ABRASIVE DETERGENTS",INTERIOR  UPPER PANEL OF ICE MACHINE NOT CLEAN.MUST CLEAN/MAINTAIN.
1296914,MCDONALD'S,1170058,1657 W 95TH ST,CHICAGO,IL,60643,41.7210731421679,-87.6648983733961,2014-05-28,Pass w/ Conditions,2,FACILITIES TO MAINTAIN PROPER TEMPERATURE,"FOUND WALK IN COOLER MAINTAINING IMPROPER AIR TEMPERATURE OF 46F,AND REACH IN COOLER AT FRONT COUNTER MAINTAINED AT 48.9F.MUST BE MAINTAINED AT 40F OR BELOW. WALK IN COOLER SERVICED/AIR TEMPERATURE-37F.-CDI.CRITICAL VIOLATION ISSUED 7-38-005A"
1296914,MCDONALD'S,1170058,1657 W 95TH ST,CHICAGO,IL,60643,41.7210731421679,-87.6648983733961,2014-05-28,Pass w/ Conditions,3,"POTENTIALLY HAZARDOUS FOOD MEETS TEMPERATURE REQUIREMENT DURING STORAGE, PREPARATION DISPLAY AND SERVICE","FOUND POTENTIALLY HAZARDOUS FOODS IN COOLERS MAINTAINED AT IMPROPER COLD TEMPERATURES,IE 23LBS LARGE EGGS AT 48F-49.7F.ALSO APPROX 25LBS OF CHOCOLATE MILK/1LBS WHITE MILK AT 48F-55F.FOOD WAS REMOVED AND DISCARDED BY MANAGERS,CDI.MUST MAINTAIN POTENTIALLY HAZARDOUS FOODS AT 40F OR BELOW. TOTAL COST APPROX $.75.00 CRITICAL VIOLATION ISSUED 7-38-005A"
1296914,MCDONALD'S,1170058,1657 W 95TH ST,CHICAGO,IL,60643,41.7210731421679,-87.6648983733961,2014-05-28,Pass w/ Conditions,33,"FOOD AND NON-FOOD CONTACT EQUIPMENT UTENSILS CLEAN, FREE OF ABRASIVE DETERGENTS","REAR SHELVING UNITS NOT CLEAN IN REAR OF DEBRIS ,OLD FOOD.MUST CLEAN/MAINTAIN."
1300347,MCDONALD'S,1943516,6560 S STONY ISLAND AVE,CHICAGO,IL,60637,41.7752200873081,-87.5864366257481,2012-11-06,Pass w/ Conditions,33,"FOOD AND NON-FOOD CONTACT EQUIPMENT UTENSILS CLEAN, FREE OF ABRASIVE DETERGENTS",VIOLATION CORRECTED
1300547,MCDONALD'S,1474116,1443 E 87TH ST,CHICAGO,IL,60619,41.7367599255433,-87.588841701402,2012-11-19,Pass,33,"FOOD AND NON-FOOD CONTACT EQUIPMENT UTENSILS CLEAN, FREE OF ABRASIVE DETERGENTS","CLEAN THE FOLLOWING: INTERIOR OF REACH-IN FREEZER BY BREAKFAST GRILL, FILTERS ABOVE GRILLS, TOP EXTERIOR OF SOFT-SERVE MACHINE(SPLASH), AND UPPER INTERIOR OF FRENCH FRY HOLDING UNIT.  "
1300619,MCDONALD'S,1984911,4320 N CICERO AVE,CHICAGO,IL,60641,41.9595750994431,-87.7476456870793,2012-11-26,Pass,33,"FOOD AND NON-FOOD CONTACT EQUIPMENT UTENSILS CLEAN, FREE OF ABRASIVE DETERGENTS","Non food contact surfaces of ice machine not clean, need detailed cleaning(crevices), non food contact surfaces of walk in cooler shelving/racks not clean, need detailed cleaning, rear storage shelving/racks not clean, need detailed cleaning, front counter shelving need cleaning(detailed)."
1300725,MCDONALD'S RESTAURANT (MCDONALD'S),1477366,2707 N MILWAUKEE AVE,CHICAGO,IL,60647,41.9304965318765,-87.7095113244665,2012-12-04,Pass w/ Conditions,2,FACILITIES TO MAINTAIN PROPER TEMPERATURE,"COOLER TEMP READING 55.0'F FRONT SERVICE AREA, MUST ALL COOLERS UP AND OPERATING AT TIME OF INSPECTION"
1300946,MCDONALD'S (MCDONALD'S (T3- L4)),2016727,11601 W TOUHY AVE,CHICAGO,IL,60666,42.0085364008687,-87.9144284392705,2012-12-17,Pass,33,"FOOD AND NON-FOOD CONTACT EQUIPMENT UTENSILS CLEAN, FREE OF ABRASIVE DETERGENTS","OBSERVED FOOD/DUST BUILD UP ON SHELVES AT PREP AREA. INSTRUCED MANAGER TO CLEAN SHELVES AND MAINTAIN.  "
1305213,MCDONALD'S,1302136,70 E GARFIELD BLVD,CHICAGO,IL,60615,41.7947940242651,-87.6229151035504,2012-10-09,Pass w/ Conditions,33,"FOOD AND NON-FOOD CONTACT EQUIPMENT UTENSILS CLEAN, FREE OF ABRASIVE DETERGENTS","MUST DETAIL CLEAN INTERIOR AND EXTERIOR OF ALL FRYERS. MUST REMOVE GREASE AND DUST. MUST ALSO CLEAN ALL PREP TABLES AND COOLERS. MUST DETAIL CLEAN THE INTERIOR TOP PANEL OF THE ICE MACHINE.   "
1305349,MCDONALD'S,1678525,5700 S CICERO AVE,CHICAGO,IL,60638,41.7893293232654,-87.7416456441964,2013-07-18,Pass w/ Conditions,3,"POTENTIALLY HAZARDOUS FOOD MEETS TEMPERATURE REQUIREMENT DURING STORAGE, PREPARATION DISPLAY AND SERVICE",OBSERVED 1 TRAY OF EGGS (30) AT IMPROPRER TEMPERATURE OF 58.1F IN COOLER. INSTD TO MAINTAIN PROPER TEMPERATURES OF 40F OR BELOW AT ALL TIMES. MGR DISCARDED AND DENATURED AT THIS TIME. CITATION ISSUED 7-38-005A CRITICAL.  APPROX 3LBS $25 VALUE.
1305399,MCDONALD'S #4308 (MCDONALD'S),1904304,3867 S ARCHER AVE BLDG,CHICAGO,IL,60632,41.823158345079,-87.6892366472357,2013-09-10,Pass,33,"FOOD AND NON-FOOD CONTACT EQUIPMENT UTENSILS CLEAN, FREE OF ABRASIVE DETERGENTS","INTERIOR BOTTOM OF CABINETS UNDER KETCHUP/BBQ SAUCE CONDIMENT STATION NOT CLEAN, EXCEESSIVE FOOD SPILLS. INSTD TO CLEAN SAME. ORANGE JUICE BEVERAGE STATIONS, NOZZLES, AND ALL ATTACHED HARDWARE NEEDS DETAILED CLEANING.  "
1305427,MCDONALD'S,1678527,5700 S CICERO AVE,CHICAGO,IL,60638,41.7893293232654,-87.7416456441964,2013-09-19,Pass w/ Conditions,2,FACILITIES TO MAINTAIN PROPER TEMPERATURE,2-DOOR FREEZER IN USE UNABLE TO MAINTAIN PROPER TEMPERATURE (INTERNAL TEMPERATURE OF 44.6F). UNIT TAGGED AND UNABLE TO USE AT THIS TIME. INSTD TO REMOVE ALL PRODUCT FROM FREEZER AND RE-LOCATE TO COOLER (BOXES OF CHICKEN AND HAMBURGERS RANGING IN TEMPERATURES FROM 12F-14.4F). INSTD MGR NOT TO RE FREEZE PRODUCT. UNIT MUST BE ABLE TO MAINTAIN PROPER TEMPERATURE OF 0F OR BELOW AT ALL TIMES. CITATION ISSUED 7-38-005A CRITICAL.
1307384,MCDONALD'S,1490035,6900 S LAFAYETTE AVE,CHICAGO,IL,60621,41.769155335336,-87.6268126762725,2014-04-11,Pass w/ Conditions,33,"FOOD AND NON-FOOD CONTACT EQUIPMENT UTENSILS CLEAN, FREE OF ABRASIVE DETERGENTS","CLEAN THE FOLLOWING: BOTH HOODS,FILTERS,TOP,SIDES OF THE COOKING EQUIPMENT THICK WITH GREASE BUILDUP ON THEM PULL ALL EQUIPMENT OUT FROM THE WALLS AND CLEAN BEHIND THEN ALSO THICK WITH GREASE BUILDUP.  INTERIORS AND EXTERIORS OF COOLERS AND FREEZERS IN SALAD PREP STATION AREA, EXTERIORS OF DEEP FRYER STATION IN REAR FOOD PREP AREA.   DEFROST REACH-IN FREEZER BY DEEP FRYER STATION IN REAR, REACH-IN COOLER IN FRONT DRIVE-THRU WINDOW AREA, STORAGE RACKS IN BASEMENT WHERE NEEDED, EXTERIORS AND SIDES OF ALL EQUIPMENT IN SMOOTHIE PREP STATION AREA.  CLEAN ALL OTHER UNCLEAN SURFACES THROUGHOUT.  "
1307396,MCDONALD'S,1874347,6515 S WESTERN AVE,CHICAGO,IL,60636,41.7751165659088,-87.6833858388708,2014-04-18,Pass,33,"FOOD AND NON-FOOD CONTACT EQUIPMENT UTENSILS CLEAN, FREE OF ABRASIVE DETERGENTS",VIOLATIONS CORRECTED.
1307410,MCDONALD'S,1490035,6900 S LAFAYETTE AVE,CHICAGO,IL,60621,41.769155335336,-87.6268126762725,2014-04-28,Pass w/ Conditions,33,"FOOD AND NON-FOOD CONTACT EQUIPMENT UTENSILS CLEAN, FREE OF ABRASIVE DETERGENTS","CLEAN THE FOLLOWING: BOTH HOODS,FILTERS,TOP,SIDES OF THE COOKING EQUIPMENT THICK WITH GREASE BUILDUP ON THEM PULL ALL EQUIPMENT OUT FROM THE WALLS AND CLEAN BEHIND THEN ALSO THICK WITH GREASE BUILDUP. INTERIORS AND EXTERIORS OF COOLERS AND FREEZERS IN SALAD PREP STATION AREA, EXTERIORS OF DEEP FRYER STATION IN REAR FOOD PREP AREA. DEFROST REACH-IN FREEZER BY DEEP FRYER STATION IN REAR, REACH-IN COOLER IN FRONT DRIVE-THRU WINDOW AREA, STORAGE RACKS IN BASEMENT WHERE NEEDED, EXTERIORS AND SIDES OF ALL EQUIPMENT IN SMOOTHIE PREP STATION AREA. CLEAN ALL OTHER UNCLEAN SURFACES THROUGHOUT"
1307423,MCDONALD'S,1490035,6900 S LAFAYETTE AVE,CHICAGO,IL,60621,41.769155335336,-87.6268126762725,2014-05-02,Pass,33,"FOOD AND NON-FOOD CONTACT EQUIPMENT UTENSILS CLEAN, FREE OF ABRASIVE DETERGENTS","CLEAN THE FOLLOWING: BOTH HOODS,FILTERS,TOP,SIDES OF THE COOKING EQUIPMENT THICK WITH GREASE BUILDUP ON THEM PULL ALL EQUIPMENT OUT FROM THE WALLS AND CLEAN BEHIND THEN ALSO THICK WITH GREASE BUILDUP. INTERIORS AND EXTERIORS OF COOLERS AND FREEZERS IN SALAD PREP STATION AREA, EXTERIORS OF DEEP FRYER STATION IN REAR FOOD PREP AREA. DEFROST REACH-IN FREEZER BY DEEP FRYER STATION IN REAR, REACH-IN COOLER IN FRONT DRIVE-THRU WINDOW AREA, STORAGE RACKS IN BASEMENT WHERE NEEDED, EXTERIORS AND SIDES OF ALL EQUIPMENT IN SMOOTHIE PREP STATION AREA. CLEAN ALL OTHER UNCLEAN SURFACES THROUGHOUT  "
1307489,MCDONALD'S RESTAURANT,1678414,6336 S ASHLAND AVE,CHICAGO,IL,60636,41.7783609760376,-87.6643368634279,2014-06-04,Pass,33,"FOOD AND NON-FOOD CONTACT EQUIPMENT UTENSILS CLEAN, FREE OF ABRASIVE DETERGENTS","MUST DEFROST A CLEAN THE DOUBLE DOOR REACH IN FREEZER HAS ICE BUILD UP AND FOOD DEBRIS INSIDE.     CLEAN AND MAINTAIN THE FOLLOWING INTERIOR AND EXTERIOR CABINETS, BEVERAGE MACHINE, SOFT SERVE MACHINE, NOZZLES AND SPIGOTS, MC CAFE STATION, COOLERS,GRILL AREA,SMALL HOOD ABOVE FRYER AND FRYER CABINETS.   "
1307694,MCDONALD'S,1874347,6515 S WESTERN AVE,CHICAGO,IL,60636,41.7751165659088,-87.6833858388708,2014-10-10,Pass,33,"FOOD AND NON-FOOD CONTACT EQUIPMENT UTENSILS CLEAN, FREE OF ABRASIVE DETERGENTS","MUST CLEAN THE TABLE IN THE BREAK ROOM AFTER IT IS USED EACH TIME. ALSO CLEAN ORANGE JUICE MACHINE, CREAMER, FRAPPE, SMOOTHIE AND POP MACHINES DRIP TRAYS, NOZZLES AND SPIGOTS, BLENDERS, CABINETS UNDER ICE CREAM MACHINE AND ALL(SPILLS).  "
1313242,"MCDONALD'S RESTAURANT OF ILLINOIS,INC (MCDONALD'S RESTAURANT)",1069488,500 W MADISON ST,CHICAGO,IL,60661,41.8819943382051,-87.6397586848809,2012-10-26,Pass,33,"FOOD AND NON-FOOD CONTACT EQUIPMENT UTENSILS CLEAN, FREE OF ABRASIVE DETERGENTS","MUST REPAIR GASKET AT ONE DOR MILK COOLER AT FRONT SERVICE AREA.MUST CLEAN YOGURT MACHINE AND ALL COFFEE STATIONS TO REMOVE FOOD SPLASHES AND FOOD DEBRIS. MUST CLEAN COUNTER TOPS TO REMOVE SAME AS STATED ABOVE. MUST ALSO DETAIL CLEAN AND SANITIZE EXTERIOR OF ICE MACHINE TO REMOVE STICKY SODA SYRUP. ALSO INTERIOR OF ICE MACHINE LID.  "
1319264,MCDONALD'S,1517920,7900 S DR MARTIN LUTHER KING JR DR,CHICAGO,IL,60619,41.7510204706819,-87.615102245534,2012-12-07,Pass,33,"FOOD AND NON-FOOD CONTACT EQUIPMENT UTENSILS CLEAN, FREE OF ABRASIVE DETERGENTS",DETAIL CLEAN THE INTERIOR OF FRYERS AND THE INTERIOR TOP PANEL OF THE 1ST ICE MACHINE.  ALSO CLEAN TOILET IN MENS WASHROOM.
1319356,MCDONALD'S RESTAURANT,1678414,6336 S ASHLAND AVE,CHICAGO,IL,60636,41.7783609760376,-87.6643368634279,2013-01-28,Pass w/ Conditions,3,"POTENTIALLY HAZARDOUS FOOD MEETS TEMPERATURE REQUIREMENT DURING STORAGE, PREPARATION DISPLAY AND SERVICE",NOTED POTENTIALLY HAZARDOUS FOODS AT IMPROPER TEMPERATURES.  NOTED APPROXIMATELY 3LBS OF SAUSAGE AND EGG BREAKFAST BURRITOS  AND STEAK BURRITOS AT AN IMPROPER TEMPERATURE OF 58 DEGREES F.  MUST MAINTAIN POTENTIALLY HAZARDOUS FOODS AT 40 DEGREES F AND BELOW OR 140 DEGREES F AND ABOVE.  CRITICAL CITATION ISSUED 7-38-005A
1319356,MCDONALD'S RESTAURANT,1678414,6336 S ASHLAND AVE,CHICAGO,IL,60636,41.7783609760376,-87.6643368634279,2013-01-28,Pass w/ Conditions,33,"FOOD AND NON-FOOD CONTACT EQUIPMENT UTENSILS CLEAN, FREE OF ABRASIVE DETERGENTS",MUST DETAIL CLEAN THE EXTERIOR OF ALL EQUIPMENT ON SITE.
1319434,MCDONALD'S,1519152,6355 S DR MARTIN LUTHER KING JR DR,CHICAGO,IL,60637,41.7785971834236,-87.6154413879464,2013-03-13,Pass w/ Conditions,12,"HAND WASHING FACILITIES: WITH SOAP AND SANITARY HAND DRYING DEVICES, CONVENIENT AND ACCESSIBLE TO FOOD PREP AREA",NO SOAP LOCATED AT THE FRONT PREPARATION AREA EXPOSED HAND SINK. MUST PROVIDE HANDWASHING FACILITIES WITH SOAP AT ALL TIMES. CRITICAL CITATION ISSUED 7-38-030
1319434,MCDONALD'S,1519152,6355 S DR MARTIN LUTHER KING JR DR,CHICAGO,IL,60637,41.7785971834236,-87.6154413879464,2013-03-13,Pass w/ Conditions,33,"FOOD AND NON-FOOD CONTACT EQUIPMENT UTENSILS CLEAN, FREE OF ABRASIVE DETERGENTS",MUST DETAIL CLEAN THE INTERIOR AND EXTERIOR OF ALL COOKING EQUIPMENT.  ALSO DETAIL CLEAN THE INTERIOR TOP PANEL OF THE ICE MACHINE.
1319448,MCDONALD'S,1302136,70 E GARFIELD BLVD,CHICAGO,IL,60615,41.7947940242651,-87.6229151035504,2013-03-26,Pass,33,"FOOD AND NON-FOOD CONTACT EQUIPMENT UTENSILS CLEAN, FREE OF ABRASIVE DETERGENTS","MUST DETAIL CLEAN THE INTERIOR AND EXTERIOR OF ALL COOKING EQUIPMENT. MUST ALSO DETAIL CLEAN THE INTERIOR TOP PANEL OF THE ICE MACHINE. MUST DETAIL CLEAN ALL WALLS AND CEILINGS THROUGHOUT PREPARATION AND DISHWASHING AREAS.   "
1319536,MCDONALD'S,1519152,6355 S DR MARTIN LUTHER KING JR DR,CHICAGO,IL,60637,41.7785971834236,-87.6154413879464,2013-05-10,Pass,33,"FOOD AND NON-FOOD CONTACT EQUIPMENT UTENSILS CLEAN, FREE OF ABRASIVE DETERGENTS",MUST DETAIL CLEAN THE INTERIOR AND EXTERIOR OF ALL COOKING EQUIPMENT. ALSO DETAIL CLEAN THE INTERIOR TOP PANEL OF THE ICE MACHINE.
1319580,MCDONALD'S,1519152,6355 S DR MARTIN LUTHER KING JR DR,CHICAGO,IL,60637,41.7785971834236,-87.6154413879464,2013-06-07,Pass,33,"FOOD AND NON-FOOD CONTACT EQUIPMENT UTENSILS CLEAN, FREE OF ABRASIVE DETERGENTS",VIOLATION CORRECTED.
1319684,MCDONALD'S RESTAURANT,1678414,6336 S ASHLAND AVE,CHICAGO,IL,60636,41.7783609760376,-87.6643368634279,2013-07-31,Pass w/ Conditions,33,"FOOD AND NON-FOOD CONTACT EQUIPMENT UTENSILS CLEAN, FREE OF ABRASIVE DETERGENTS",VIOLATION CORRECTED.
1319688,MCDONALD'S,1943516,6560 S STONY ISLAND AVE,CHICAGO,IL,60637,41.7752200873081,-87.5864366257481,2013-07-31,Pass,33,"FOOD AND NON-FOOD CONTACT EQUIPMENT UTENSILS CLEAN, FREE OF ABRASIVE DETERGENTS","MUST DETAIL CLEAN PREP COOLERS,COUNTER TOPS AND INTERIOR OF FRYERS."
1319830,MCDONALD'S,1445833,740 E 47TH ST,CHICAGO,IL,60653,41.8096286978775,-87.607369737858,2013-10-16,Pass,11,"ADEQUATE NUMBER, CONVENIENT, ACCESSIBLE, DESIGNED, AND MAINTAINED",VIOLATION CORRECTED.
1319830,MCDONALD'S,1445833,740 E 47TH ST,CHICAGO,IL,60653,41.8096286978775,-87.607369737858,2013-10-16,Pass,33,"FOOD AND NON-FOOD CONTACT EQUIPMENT UTENSILS CLEAN, FREE OF ABRASIVE DETERGENTS","MUST DETAIL CLEAN THE INTERIOR TOP PANELS OF BOTH ICE MACHINES. MUST DETAIL CLEAN TOILET IN MENS WASH ROOM.   "
1319991,MCDONALD'S,1302136,70 E GARFIELD BLVD,CHICAGO,IL,60615,41.7947940242651,-87.6229151035504,2013-12-23,Pass,11,"ADEQUATE NUMBER, CONVENIENT, ACCESSIBLE, DESIGNED, AND MAINTAINED",VIOLATION CORRECTED.
1321414,MCDONALD'S,1517920,7900 S DR MARTIN LUTHER KING JR DR,CHICAGO,IL,60619,41.7510204706819,-87.615102245534,2013-01-17,Pass,33,"FOOD AND NON-FOOD CONTACT EQUIPMENT UTENSILS CLEAN, FREE OF ABRASIVE DETERGENTS","DETAIL CLEAN THE INTERIOR OF FRYERS AND THE INTERIOR TOP PANEL OF THE 1ST ICE MACHINE. ALSO CLEAN TOILET IN MENS WASHROOM.  "
1321567,MCDONALD'S RESTAURANT,8228,3241 W PETERSON AVE,CHICAGO,IL,60659,41.9902548481319,-87.710763243534,2013-01-25,Pass w/ Conditions,8,"SANITIZING RINSE FOR EQUIPMENT AND UTENSILS:  CLEAN, PROPER TEMPERATURE, CONCENTRATION, EXPOSURE TIME","NO SANITIZING SOLUTION USED AT THREE COMPARTMENT SINK. OBSERVED EMPLOYEE WASHING AND RINSING MULTI USE UTENSILS. EMPLOYEE THEN STORED UTENSILS AT CLEAN SHELVES,ABOVE COOKING EQUIPMENT. THREE COMPARTMENT SINK WAS SETUP UPON MY REQUEST.  CRITICAL VIOLATION:7-38-030"
1321567,MCDONALD'S RESTAURANT,8228,3241 W PETERSON AVE,CHICAGO,IL,60659,41.9902548481319,-87.710763243534,2013-01-25,Pass w/ Conditions,11,"ADEQUATE NUMBER, CONVENIENT, ACCESSIBLE, DESIGNED, AND MAINTAINED","FOUND MEN'S AND WOMEN'S WASHROOM AT SOUTH-WEST AREA  OF THE PREMISES WITHOUT HOT WATER. WATER TEMP OF OF 49.1F TO 52.2F.WASHROOM ARE USED BY EMPLOYEES AND CUSTOMERS. ESTABLISHMENT HAS 4 WASHROOMS, THE OTHER TWO WASHROOMS NORTH- WEST SIDE OF PREMISES HOT WATER IS PROVIDED. MANAGER CALLED GENERAL MAINTENANCE. INSTRUCTED TO USE THE OTHER TWO WASH ROOMS. CRITICAL VIOLATION:7-38-030  AT 3:49PM MAINTENANCE EMPLOYEE ARRIVED ABLE TO PROVIDE HOT WATER ON BOTH WASHROOMS."
1321794,MCDONALD'S,35587,3122 W TOUHY AVE,CHICAGO,IL,60645,42.011998577874,-87.7077027456968,2013-02-07,Pass,33,"FOOD AND NON-FOOD CONTACT EQUIPMENT UTENSILS CLEAN, FREE OF ABRASIVE DETERGENTS","CLEAN ICE DISPENSER AT COCA-COLA MACHINE/ICE MACHINE,MINERAL BUILD-UP"
1321834,MCDONALD'S,1490035,6900 S LAFAYETTE AVE,CHICAGO,IL,60621,41.769155335336,-87.6268126762725,2013-02-13,Pass,33,"FOOD AND NON-FOOD CONTACT EQUIPMENT UTENSILS CLEAN, FREE OF ABRASIVE DETERGENTS","CLEAN THE FOLLOWING: ALL UNUSED EQUIPMENT STORED IN BASEMENT, ALL SHELVES & STORAGE RACKS THROUGHOUT, DUST BUILD-UP ON COILS IN WALK-IN COOLER, CABINET INTERIORS OF DEEP FRYERS, GREASE BUILD-UP ON COOKING EQUIPMENT AND ALL OTHER UNCLEAN SURFACES.  "
1324770,MCDONALD'S,1969971,225 S CANAL ST,CHICAGO,IL,60606,41.8785312783536,-87.6394274596272,2013-11-05,Pass,33,"FOOD AND NON-FOOD CONTACT EQUIPMENT UTENSILS CLEAN, FREE OF ABRASIVE DETERGENTS","MUST DETAIL CLEAN EXTERIOR (TOPS,SIDES AND IN BETWEEN)OF ALL EQUIPMENT TO REMOVE GREASE AND DEBRIS."
1324825,MCDONALD'S,1969971,225 S CANAL ST,CHICAGO,IL,60606,41.8785312783536,-87.6394274596272,2013-12-12,Pass,33,"FOOD AND NON-FOOD CONTACT EQUIPMENT UTENSILS CLEAN, FREE OF ABRASIVE DETERGENTS",CORRECTED
1324837,MCDONALD'S,1969969,29 N WACKER DR,CHICAGO,IL,60606,41.8827003545899,-87.6366375599773,2013-12-18,Pass,33,"FOOD AND NON-FOOD CONTACT EQUIPMENT UTENSILS CLEAN, FREE OF ABRASIVE DETERGENTS",MUST DETAIL CLEAN THE SODA DISPINSING TUBES ATTACHED TO THE BOXES IN THE REAR OF THE KITCHEN AREA.
1326912,MCDONALD'S STORE #4061,1969966,186 W ADAMS ST,CHICAGO,IL,60603,41.8794999601128,-87.6333535398272,2013-04-11,Pass,33,"FOOD AND NON-FOOD CONTACT EQUIPMENT UTENSILS CLEAN, FREE OF ABRASIVE DETERGENTS",MUST CLEAN AND SANITIZE THE HOLDING RACKS AT THE FRENCH FRY DISPENSING MACHINE TO REMOVE EXCESSIVE GREASE BUILD-UP.
1326935,MCDONALD'S STORE #4061,1969966,186 W ADAMS ST,CHICAGO,IL,60603,41.8794999601128,-87.6333535398272,2013-04-12,Pass,33,"FOOD AND NON-FOOD CONTACT EQUIPMENT UTENSILS CLEAN, FREE OF ABRASIVE DETERGENTS","MUST CLEAN AND SANITIZE THE HOLDING RACKS AT THE FRENCH FRY DISPENSING MACHINE TO REMOVE EXCESSIVE GREASE BUILD-UP.  "
1327123,MCDONALD'S,1985417,10 E CHICAGO AVE,CHICAGO,IL,60611,41.896792874374,-87.6277875784165,2013-04-23,Pass w/ Conditions,2,FACILITIES TO MAINTAIN PROPER TEMPERATURE,FACILITIES DO NOT MAINTAIN PROPER TEMPERATURE.  OBSERVED SALAD PREP COOLER WITH AN AIR TEMPERATURE OF 60F.  THE COOLER WAS USED TO STORE POTENTIALLY HAZARDOUS FOODS SUCH AS COOKED VEGETABLES AND CHEESES.  UNIT TAGGED HELD FOR INSPECTION.  MUST REPAIR AND MAINTAIN THE COOLER BELOW 40F.  CRITICAL VIOLATION 7-38-005A.
1327123,MCDONALD'S,1985417,10 E CHICAGO AVE,CHICAGO,IL,60611,41.896792874374,-87.6277875784165,2013-04-23,Pass w/ Conditions,3,"POTENTIALLY HAZARDOUS FOOD MEETS TEMPERATURE REQUIREMENT DURING STORAGE, PREPARATION DISPLAY AND SERVICE",POTENTIALLY HAZARDOUS FOODS STORED AT IMPROPER TEMPERATURES.  OBSERVED CHEDDAR CHEESE AT 56.3F AND GRILLED SOUTHWEST VEGETABLES AT 49.5F.  MANAGEMENT VOLUNTARILY DISCARDED 5# OF FOOD WORTH $10.  CRITICAL VIOLATION 7-38-005A.
1327237,MCDONALDS'S RESTAURANTS (MCDONALD'S),2064660,230 S STATE ST,CHICAGO,IL,60604,41.8787197385817,-87.6278394358472,2013-03-19,Pass,33,"FOOD AND NON-FOOD CONTACT EQUIPMENT UTENSILS CLEAN, FREE OF ABRASIVE DETERGENTS",MUST DETAIL CLEAN AND SANITIZE INTERIOR CABINET AT BOTTOM SHELF AT THE FRONT COFFEE SERVICE STATION AND ALL DRINK DISPENSING MACHINE NOZZLES TO REMOVE FOOD SPILLS AND STAINS.
1327248,MCDONALDS'S RESTAURANTS (MCDONALD'S),2064660,230 S STATE ST,CHICAGO,IL,60604,41.8787197385817,-87.6278394358472,2013-01-07,Pass,33,"FOOD AND NON-FOOD CONTACT EQUIPMENT UTENSILS CLEAN, FREE OF ABRASIVE DETERGENTS","MUST DETAIL CLEAN AND SANITIZE INTERIOR CABINETS AT BOTTOM SHELF AT THE FRONT COFFEE SERVICE STATION, AND ALL DRINK DISPENSING MACHINES AT NOZZLES TO REMOVE FOOD SPILLS AND STAINS."
1329439,MCDONALD'S,35588,6900 N WESTERN AVE,CHICAGO,IL,60645,42.0068512375709,-87.6902606045278,2013-08-08,Pass,33,"FOOD AND NON-FOOD CONTACT EQUIPMENT UTENSILS CLEAN, FREE OF ABRASIVE DETERGENTS",Above violation has been corrected at this time of canvass re-inspection.
1329517,MCDONALD'S,1680019,3855 W LAWRENCE AVE,CHICAGO,IL,60625,41.9681612546391,-87.7253770419993,2013-09-16,Pass,33,"FOOD AND NON-FOOD CONTACT EQUIPMENT UTENSILS CLEAN, FREE OF ABRASIVE DETERGENTS","Walk in cooler shelving/racks not clean, need detailed cleaning(crevices), non food contact surfaces of ice machine, pop dispensing unit shelving not clean, need detailed cleaning(crevices)."
1329603,MCDONALD'S,1356056,3540 N HARLEM AVE,CHICAGO,IL,60634,41.9446635395432,-87.8071294830706,2013-11-08,Pass,33,"FOOD AND NON-FOOD CONTACT EQUIPMENT UTENSILS CLEAN, FREE OF ABRASIVE DETERGENTS","Non food contact surfaces of walk in cooler of shelving/racks not clean, need detailed cleaning(crevices)."
1335438,MCDONALD'S #490,81721,10320 S KEDZIE AVE,CHICAGO,IL,60655,41.7055202965588,-87.7014580422018,2013-05-09,Pass,33,"FOOD AND NON-FOOD CONTACT EQUIPMENT UTENSILS CLEAN, FREE OF ABRASIVE DETERGENTS","CLEAN INTERIOR OF CHICKEN FRYER DOOR, DEFROST FRY FREEZER NEXT TO GRILL."
1335951,MCDONALD'S,1490035,6900 S LAFAYETTE AVE,CHICAGO,IL,60621,41.769155335336,-87.6268126762725,2013-06-06,Pass w/ Conditions,33,"FOOD AND NON-FOOD CONTACT EQUIPMENT UTENSILS CLEAN, FREE OF ABRASIVE DETERGENTS","CLEAN THE FOLLOWING: INTERIORS AND EXTERIORS OF COOLERS AND FREEZERS IN SALAD PREP STATION AREA, EXTERIORS OF DEEP FRYER STATION IN REAR FOOD PREP AREA, DEFROST REACH-IN FREEZER BY DEEP FRYER STATION IN REAR, REACH-IN COOLER IN FRONT DRIVE-THRU WINDOW AREA, INTERIOR OF ICE MACHINE IN REAR BY BREAK AREA, STORAGE RACKS IN BASEMENT WHERE NEEDED, EXTERIORS AND SIDES OF ALL EQUIPMENT IN SMOOTHIE PREP STATION AREA, AND ALL OTHER UNCLEAN SURFACES THROUGHOUT."
1336082,"MCDONALD'S REST. OF ILLINOIS, INC",1332910,2317 N CICERO AVE,CHICAGO,IL,60639,41.9229310425538,-87.7461194779431,2013-06-13,Pass,2,FACILITIES TO MAINTAIN PROPER TEMPERATURE,"WALK-IN COOLER NOW READING BELOW 40'F, AND FREEZER 0'F, VIOLATION NOW CORRECTED AND ABATED"
1336082,"MCDONALD'S REST. OF ILLINOIS, INC",1332910,2317 N CICERO AVE,CHICAGO,IL,60639,41.9229310425538,-87.7461194779431,2013-06-13,Pass,3,"POTENTIALLY HAZARDOUS FOOD MEETS TEMPERATURE REQUIREMENT DURING STORAGE, PREPARATION DISPLAY AND SERVICE",VIOLATION NOW CORRECTED AND ABATED
1343214,MCDONALD'S,1332913,2609 S KEDZIE AVE,CHICAGO,IL,60623,41.844202240983,-87.7048869943916,2013-04-15,Pass,33,"FOOD AND NON-FOOD CONTACT EQUIPMENT UTENSILS CLEAN, FREE OF ABRASIVE DETERGENTS","THE TOP OF THE ICE CREAM DISPENSER, THE FLURRY CUP HOLDING SLEEVES AND THE COFFEE STATION ARE FULL OF SPILLED PRODUCT; WASH, RINSE AND SANITIZE IN DETAIL."
1345243,MCDONALD'S,1969969,29 N WACKER DR,CHICAGO,IL,60606,41.8827003545899,-87.6366375599773,2013-05-13,Pass,33,"FOOD AND NON-FOOD CONTACT EQUIPMENT UTENSILS CLEAN, FREE OF ABRASIVE DETERGENTS","MUST DETAIL CLEAN THE SODA DISPINSING TUBES ATTACHED TO THE BOXES IN THE REAR OF THE KITCHEN AREA. ALSO MUST CLEAN THE INTERIOR OF THE 1DR REFRIGERATORS LOCATED AT THE MC CAFE AREA TO REMOVE COFFEE BUILD-UP AND FOOD DEBRIS.  "
1345258,MCDONALD'S #20104,1868077,111 W JACKSON BLVD,CHICAGO,IL,60604,41.8780344283362,-87.6311714069791,2013-05-16,Pass,33,"FOOD AND NON-FOOD CONTACT EQUIPMENT UTENSILS CLEAN, FREE OF ABRASIVE DETERGENTS","MUST DETAIL CLEAN AND SANITIZE MCCAFE STATION, ALL NOZZLES AND BLENDER CONTAINERS TO REMOVE FRUIT JUICE AND COFFEE SPLASHES. ALSO MUST DO SAME AT THE EGG MAKING STATION AT THE SIDE OF THE GRILL TO REMOVE EXCESSIVE FOOD DEBRIS AND GREASE BUILD-UP."
1345628,MCDONALD'S,1769269,233 N MICHIGAN AVE,CHICAGO,IL,60601,41.8865673708869,-87.6243846705971,2013-11-04,Pass,33,"FOOD AND NON-FOOD CONTACT EQUIPMENT UTENSILS CLEAN, FREE OF ABRASIVE DETERGENTS",MUST CLEAN AND SANITIZE ICE CHUTES AT THE SODA MACHINE IN THE CUSTOMER DINING AREA.    ALSO MUST CLEAN AND SANITIZE THE MCCAFE BLENDING MACHINE.
1345814,MCDONALD'S RESTAURANT,1225984,6125 N MILWAUKEE AVE,CHICAGO,IL,60646,41.9928754427605,-87.7835214845884,2014-01-28,Pass w/ Conditions,2,FACILITIES TO MAINTAIN PROPER TEMPERATURE,DURING INSPECTION FOUND A SMALL COFFEE CREAMER REFRIGERATOR NOT IN USE AND NOT IN WORKING CONDITION. TAGGED UNIT. MUST CONTACT CDPH TO INSPECT AND TO REMOVE TAG. NO PRODUCT WAS FOUND OUT OF TEMPERATURE. CDI. NO CITATION ISSUED.
1345814,MCDONALD'S RESTAURANT,1225984,6125 N MILWAUKEE AVE,CHICAGO,IL,60646,41.9928754427605,-87.7835214845884,2014-01-28,Pass w/ Conditions,12,"HAND WASHING FACILITIES: WITH SOAP AND SANITARY HAND DRYING DEVICES, CONVENIENT AND ACCESSIBLE TO FOOD PREP AREA",DURING INSPECTION FOUND ONLY HAND SANITIZER AT THE REAR EXPOSED HAND SINK LOCATED IN THE 3-COMP SINK AREA AND NO PAPER TOWELS.THE SOAP DISPENSER WAS EMPTY WITOUT SOAP. YOU MUST ALWAYS HAVE HAND SOAP AND PAPER TOWELS OR HAND DRYING DEVICES AT ALL EXPOSED HAND SINKS AT ALL TIMES. CDI.
1345838,MCDONALD'S RESTAURANT,1225984,6125 N MILWAUKEE AVE,CHICAGO,IL,60646,41.9928754427605,-87.7835214845884,2014-02-06,Pass,2,FACILITIES TO MAINTAIN PROPER TEMPERATURE,ON PREMISES FOR TAG REMOVAL FROM A SMALL COFFEE CREAMER REFRIGERATOR WHICH IS NOW OPERATING AND MAINTAINING 35.2F
1353302,MCDONALD'S (MCDONALD'S (T5/ARRIVAL)),2016729,11601 W TOUHY AVE,CHICAGO,IL,60666,42.0085364008687,-87.9144284392705,2013-06-25,Pass w/ Conditions,12,"HAND WASHING FACILITIES: WITH SOAP AND SANITARY HAND DRYING DEVICES, CONVENIENT AND ACCESSIBLE TO FOOD PREP AREA","FOUND NO SOAP AVAILABLE AT EXPOSED HANDSINK IN PREP AREA. INSTRUCTED  TO PROVIDE. (NO HAND SOAP ON PREMISE, EMPLOYEE CHECKED AND FOUND SOAP AT STORAGE ROOM ACROSS ESTABLISHMENT). INSTRUCTED MANAGER, SOAP AND HAND DRYING DEVICE MUST BE AVAILABLE AT ALL TIMES FOR PROPER HANDWASHING.  CRITICAL CITATION ISSUED 7-38-030"
1353398,MCDONALD'S,30231,4946 N MILWAUKEE AVE,CHICAGO,IL,60630,41.9706775856096,-87.7634289441801,2013-06-28,Pass,33,"FOOD AND NON-FOOD CONTACT EQUIPMENT UTENSILS CLEAN, FREE OF ABRASIVE DETERGENTS",INSTRUCTED TO CLEAN AND MAINTAIN INTERIOR SURFACES OF (3) ICE MACHINE WITH SOME BUILD-UP BEHIND UPPER PANEL.--------MUST CLEAN AND MAINTAIN INTERIOR SURFACES OF BEVERAGE DISPENSER CABINET (FRONT AREA) WITH SYRUP BUILD-UP TO PREVENT PEST HARBORAGE.
1353423,MCDONALD'S,1490035,6900 S LAFAYETTE AVE,CHICAGO,IL,60621,41.769155335336,-87.6268126762725,2013-07-01,Pass,33,"FOOD AND NON-FOOD CONTACT EQUIPMENT UTENSILS CLEAN, FREE OF ABRASIVE DETERGENTS","CLEAN THE FOLLOWING: INTERIORS AND EXTERIORS OF COOLERS AND FREEZERS IN SALAD PREP STATION AREA, EXTERIORS OF DEEP FRYER STATION IN REAR FOOD PREP AREA, DEFROST REACH-IN FREEZER BY DEEP FRYER STATION IN REAR, REACH-IN COOLER IN FRONT DRIVE-THRU WINDOW AREA, INTERIOR OF ICE MACHINE IN REAR BY BREAK AREA, STORAGE RACKS IN BASEMENT WHERE NEEDED, EXTERIORS AND SIDES OF ALL EQUIPMENT IN SMOOTHIE PREP STATION AREA, AND ALL OTHER UNCLEAN SURFACES THROUGHOUT.  "
1353780,MCDONALD'S,1443878,6231 N BROADWAY,CHICAGO,IL,60660,41.9954942794437,-87.6602863708148,2013-07-22,Pass w/ Conditions,2,FACILITIES TO MAINTAIN PROPER TEMPERATURE,NOTED TEMPERATURE OF 2 DOOR SALAD COOLER (TOP AND BOTTOM) AT THE FOOD PREP AREA MAINTAINING AN IMPROPER TEMPERATURE OF 53.4F. INSTRUCTED NOT TO USE COOLER UNTIL APPROPRIATE TEMPERATURE OF 40F OR BELOW IS ATTAINED.PREMISES HAS OTHER COOLERS MAINTAINING TEMPERATURES OF 40F AND BELOW.BY END OF INSPECTION TEMPERATURE OF SALAD COOLER WAS 37.1F  ISSUED CITATION FOR CRITICAL VIOLATION #7-38-005(A)
1353780,MCDONALD'S,1443878,6231 N BROADWAY,CHICAGO,IL,60660,41.9954942794437,-87.6602863708148,2013-07-22,Pass w/ Conditions,3,"POTENTIALLY HAZARDOUS FOOD MEETS TEMPERATURE REQUIREMENT DURING STORAGE, PREPARATION DISPLAY AND SERVICE","NOTED INTERNAL TEMPERATURES OF THE FOLLOWING POTENTIALLY HAZARDOUS FOOD ITEMS IN ASSORTED CONTAINERS INSIDE SALAD COOLER TO BE IMPROPER BETWEEN 51F TO 56F. (CUT SALAD READY TO SERVE 56F, CHEESE 52F, CUT ONIONS 51F, SOUTH WEST VEGIE BLEND 52F, TOMATOES 51F,CUCUMBERS 53F). MANAGER IMMEDIATELY AND VOLUNTARILY DISPOSED OF 15LBS OF PRODUCTS WORTH $71.98 THROUGH DENATURING PROCESS. INSTRUCTED TO MONITOR FOOD TEMPERATURES AT ALL TIMES.  CITATION ISSUED FOR CRITICAL VIOLATION #7-38-005(A)."
1353928,MCDONALD'S,1679682,11421 S HALSTED ST,CHICAGO,IL,60628,41.6862492664438,-87.6420421730029,2013-07-30,Pass,33,"FOOD AND NON-FOOD CONTACT EQUIPMENT UTENSILS CLEAN, FREE OF ABRASIVE DETERGENTS",CLEAN SPILLS UNDER SODA DISPENSER UNIT IN REAR STORAGE.
1354113,MCDONALD'S,1474116,1443 E 87TH ST,CHICAGO,IL,60619,41.7367599255433,-87.588841701402,2013-08-07,Pass w/ Conditions,3,"POTENTIALLY HAZARDOUS FOOD MEETS TEMPERATURE REQUIREMENT DURING STORAGE, PREPARATION DISPLAY AND SERVICE",FOUND MILK STORED IN SMALL 2-DOOR REACH-IN COOLER AT 45 DEGREES. MILK MUST BE STORED AT 40 DEGREES OR BELOW  /- 2 DEGREES. PRODUCT VOLUNTARILY REMOVED FROM SALE AND DISCARDED. CITATION ISSUED-CRITICAL 7-38-005(B1).
1354113,MCDONALD'S,1474116,1443 E 87TH ST,CHICAGO,IL,60619,41.7367599255433,-87.588841701402,2013-08-07,Pass w/ Conditions,33,"FOOD AND NON-FOOD CONTACT EQUIPMENT UTENSILS CLEAN, FREE OF ABRASIVE DETERGENTS","CLEAN THE FOLLOWING: CABINET INTERIORS IN FRENCH FRY PREP STATION AREA, ALL FILTERS ABOVE COOKING EQUIPMENT THROUGHOUT, AND UPPER INTERIOR OF FRENCH FRY HOLDING UNIT."
1354121,MCDONALD'S (MCDONALD'S (T2 E/F)),2009092,11601 W TOUHY AVE,CHICAGO,IL,60666,42.0085364008687,-87.9144284392705,2013-08-08,Pass,33,"FOOD AND NON-FOOD CONTACT EQUIPMENT UTENSILS CLEAN, FREE OF ABRASIVE DETERGENTS","INSTRUCTED TO DETAIL CLEAN AND MAINTAIN STORAGE RACKS WITH MOLD LIKE BUILD-UP INSIDE WALK-IN COOLER IN REAR AREA.---------MUST DETAIL CLEAN AND MAINTAIN INTERIOR SURFACES OF ICE MACHINE BEHIND UPPER PANEL.  "
1360233,MCDONALD'S RESTAURANT,1330046,36 W 95TH ST,CHICAGO,IL,60628,41.7218087646306,-87.6252418946853,2013-08-13,Pass,33,"FOOD AND NON-FOOD CONTACT EQUIPMENT UTENSILS CLEAN, FREE OF ABRASIVE DETERGENTS","CLEAN INTERIOR OF CABINETS UNDER BEVERAGE COUNTER IN LOBBY, BEVERAGE SYSTEM AND DRIP TRAY IN DRIVE THRU AREA, ALL BEVERAGE MACHINE SURFACES, NOZZLES, AND SPIGOTS, GRILLS, FRYERS, HOLDING UNITS."
1360667,MCDONALD'S,1490035,6900 S LAFAYETTE AVE,CHICAGO,IL,60621,41.769155335336,-87.6268126762725,2013-09-04,Pass w/ Conditions,33,"FOOD AND NON-FOOD CONTACT EQUIPMENT UTENSILS CLEAN, FREE OF ABRASIVE DETERGENTS","CLEAN THE FOLLOWING: INTERIORS AND EXTERIORS OF COOLERS AND FREEZERS IN SALAD PREP STATION AREA, EXTERIORS OF DEEP FRYER STATION IN REAR FOOD PREP AREA, DEFROST REACH-IN FREEZER BY DEEP FRYER STATION IN REAR, REACH-IN COOLER IN FRONT DRIVE-THRU WINDOW AREA, INTERIOR OF ICE MACHINE IN REAR BY BREAK AREA, STORAGE RACKS IN BASEMENT WHERE NEEDED, EXTERIORS AND SIDES OF ALL EQUIPMENT IN SMOOTHIE PREP STATION AREA, AND ALL OTHER UNCLEAN SURFACES THROUGHOUT.   "
1360694,MCDONALD'S RESTAURANT (MCDONALD'S),1477366,2707 N MILWAUKEE AVE,CHICAGO,IL,60647,41.9304965318765,-87.7095113244665,2013-09-05,Pass,33,"FOOD AND NON-FOOD CONTACT EQUIPMENT UTENSILS CLEAN, FREE OF ABRASIVE DETERGENTS","MUST CLEAN AND MAINTAIN THE FOLLOWING FOUNTAIN STATION DRINK KNOZZLES,SURFACES ABOVE THE HOT HOLDING UNITS,UPPER PANEL OF ICE MACHINE,EMPLOYEES LOCKERS AT REAR."
1363246,MCDONALD'S,1332928,1664 S BLUE ISLAND AVE,CHICAGO,IL,60608,41.858128211052,-87.6611125635149,2014-11-25,Pass,33,"FOOD AND NON-FOOD CONTACT EQUIPMENT UTENSILS CLEAN, FREE OF ABRASIVE DETERGENTS",CORRECTED.
1367334,MCDONALD'S,33706,3200 W ROOSEVELT RD,CHICAGO,IL,60624,41.8665138881923,-87.7057335990255,2013-10-15,Pass,33,"FOOD AND NON-FOOD CONTACT EQUIPMENT UTENSILS CLEAN, FREE OF ABRASIVE DETERGENTS","CLEAN EXTERIOR SURFACES OF COOKING EQUIPMENT, COFFEE MACHINES, SODA MACHINES MUST MAINTAIN THEM AND CLEAN INTERIOR BOTTOMS OF FRYERS TO REMOVE GREASE."
1369942,MCDONALD'S (MCDONALD'S (T3- L4)),2016727,11601 W TOUHY AVE,CHICAGO,IL,60666,42.0085364008687,-87.9144284392705,2013-10-24,Pass w/ Conditions,9,"WATER SOURCE: SAFE, HOT & COLD UNDER CITY PRESSURE",FOUND NO HOT RUNNING WATER ON PREMISE DURING INSPECTION. WATER TEMPERATURE OF 78.2F AT 3 COMPARTMENT SINK. INSTRUCTED TO REPAIR. (HAND WASHING OF ALL MULTI USE UTENSILS SHALL BE ACCOMPLISHED BY THE USE OF WARM WATER AT A TEMPERATURE OF FROM 110F TO 120F).   CRITICAL VIOLATION ISSUED 7-38-030    SERVICEMAN CAME AND REPAIRED THE SAID PROBLEM. HOT WATER TEMPERATURE NOW AT 124.3F.
1370013,MCDONALD'S (MCDONALD'S (T1-B11)),2013206,11601 W TOUHY AVE,CHICAGO,IL,60666,42.0085364008687,-87.9144284392705,2013-10-28,Pass,33,"FOOD AND NON-FOOD CONTACT EQUIPMENT UTENSILS CLEAN, FREE OF ABRASIVE DETERGENTS",INSTRUCTED TO CLEAN AND MAINTAIN STORAGE RACKS WITH MOLD LIKE BUILD-UP INSIDE WALK-IN COOLER (BASEMENT STORAGE ROOM 16 S DOOR#13).
1370075,MCDONALD'S,1970361,9542 S HALSTED ST,CHICAGO,IL,60628,41.7202240990589,-87.6433279836791,2013-10-30,Pass,33,"FOOD AND NON-FOOD CONTACT EQUIPMENT UTENSILS CLEAN, FREE OF ABRASIVE DETERGENTS","CLEAN INTERIOR AND EXTERIOR OF ALL BEVERAGE MACHINES NOZZLES AND SPIGOTS, COOKING EQUIPMENT, CABINETS, SHELVES, HOLDING UNITS."
1370150,MCDONALD'S,1519152,6355 S DR MARTIN LUTHER KING JR DR,CHICAGO,IL,60637,41.7785971834236,-87.6154413879464,2013-10-30,Pass,9,"WATER SOURCE: SAFE, HOT & COLD UNDER CITY PRESSURE",PREMISES HAS HOT RUNNING WATER UNDER CITY PRESSURE.
1370150,MCDONALD'S,1519152,6355 S DR MARTIN LUTHER KING JR DR,CHICAGO,IL,60637,41.7785971834236,-87.6154413879464,2013-10-30,Pass,33,"FOOD AND NON-FOOD CONTACT EQUIPMENT UTENSILS CLEAN, FREE OF ABRASIVE DETERGENTS",ALL EQUIPMENT CLEAN.
1370177,MCDONALD'S RESTAURANT,1330046,36 W 95TH ST,CHICAGO,IL,60628,41.7218087646306,-87.6252418946853,2013-11-05,Pass,33,"FOOD AND NON-FOOD CONTACT EQUIPMENT UTENSILS CLEAN, FREE OF ABRASIVE DETERGENTS","CLEAN INTERIOR OF CABINETS UNDER BEVERAGE COUNTER IN LOBBY, BEVERAGE SYSTEM AND DRIP TRAY IN DRIVE THRU AREA, ALL BEVERAGE MACHINE SURFACES, NOZZLES, AND SPIGOTS, GRILLS, FRYERS, HOLDING UNITS."
1370202,MCDONALD'S,1517920,7900 S DR MARTIN LUTHER KING JR DR,CHICAGO,IL,60619,41.7510204706819,-87.615102245534,2013-11-05,Pass,33,"FOOD AND NON-FOOD CONTACT EQUIPMENT UTENSILS CLEAN, FREE OF ABRASIVE DETERGENTS",CLEAN THE FOLLOWING: CABINET INTERIORS AND FILTERS OF ALL DEEP FRYERS AND INTERIOR PANELS INSIDE FIRST ICE MACHINE.
1375625,MCDONALD'S,1768770,600 E 115TH ST,CHICAGO,IL,60628,41.6855811783059,-87.6082071152992,2013-11-25,Pass,33,"FOOD AND NON-FOOD CONTACT EQUIPMENT UTENSILS CLEAN, FREE OF ABRASIVE DETERGENTS","CLEAN INTERIOR AND EXTERIOR OF ALL BEVERAGE, MCCAFE, JUICE, AND CREAMER MACHINES, NOZZLES, AND SPIGOTS, COOKING EQUIPMENT, COOLERS, FREEZERS."
1375890,MCDONALD'S,1170058,1657 W 95TH ST,CHICAGO,IL,60643,41.7210731421679,-87.6648983733961,2013-12-06,Pass,33,"FOOD AND NON-FOOD CONTACT EQUIPMENT UTENSILS CLEAN, FREE OF ABRASIVE DETERGENTS","CLEAN INTERIOR AND EXTERIOR OF ALL BEVERAGE MACHINES, NOZZLES, AND SPIGOTS.  "
1376014,KARAVITES REST INC (MCDONALD'S),11136,5130 N SHERIDAN RD,CHICAGO,IL,60640,41.976283055914,-87.6551477688298,2013-12-12,Pass,2,FACILITIES TO MAINTAIN PROPER TEMPERATURE,CORRECTED
1385445,MCDONALD'S,1933100,5133 W NORTH AVE,CHICAGO,IL,60639,41.909404662966,-87.7547638736271,2014-07-02,Pass,11,"ADEQUATE NUMBER, CONVENIENT, ACCESSIBLE, DESIGNED, AND MAINTAINED",VIOLATION CORRECTED
1385543,MC DONALD'S #11559 (MCDONALD'S),2341198,2754 N NARRAGANSETT AVE,CHICAGO,IL,60639,41.930793798935,-87.7858301322383,2014-08-18,Pass,33,"FOOD AND NON-FOOD CONTACT EQUIPMENT UTENSILS CLEAN, FREE OF ABRASIVE DETERGENTS","Inspector Comments: MUST CLEAN FOOD SPILL FROM UNDERSIDE OF CUP CANISTERS AT FRONT LINE,DEEP FRYERS"
1385614,MC DONALD'S #11559 (MCDONALD'S),2341198,2754 N NARRAGANSETT AVE,CHICAGO,IL,60639,41.930793798935,-87.7858301322383,2014-09-16,Pass,33,"FOOD AND NON-FOOD CONTACT EQUIPMENT UTENSILS CLEAN, FREE OF ABRASIVE DETERGENTS","Inspector Comments: Inspector Comments: Inspector Comments: MUST CLEAN FOOD SPILL FROM UNDERSIDE OF CUP CANISTERS AT FRONT LINE,DEEP FRYERS  "
1385645,MCDONALD'S RESTAURANT,1193659,5015 W MADISON ST,CHICAGO,IL,60644,41.8803177115273,-87.750746355478,2014-09-26,Pass w/ Conditions,12,"HAND WASHING FACILITIES: WITH SOAP AND SANITARY HAND DRYING DEVICES, CONVENIENT AND ACCESSIBLE TO FOOD PREP AREA",OBSERVED HAND SINKS FOR STAFF NOT MAINTAINED AND ACCESSIBLE.OBSERVED FRONT PREP AREA HAND SINK NEXT TO FRYERS WITHOUT SOAP AND MIDDLE PREP AREA HAND SINK WITH 2- BUCKETS OF SANITIZING TOWELS ON FLOOR IN FRONT OF SINK AND A CUP OF COFFEE INSIDE OF SINK BASIN AND NO SOAP AND TOWELS.ALSO REAR DISH WASHING AREA HAND SINK HAD 2- MOP BUCKETS IN FRONT OF IT AND A BOTTLE OF MOUTH WASH AND SCRAPERS AND SCRUBBERS IN SINK BASIN ALSO NO RUNNING WATER DUE TO BATTERIES ARE NOT WORKING.MANAGER SENT EMPLOYEE TO STORE TO PURCHASE BATTERIES FOR SINK.ALL HAND SINKS NOW ARE ACCESSIBLE AND MAINTAINED AT THIS TIME.(CRITICAL 7-38-030).
1385645,MCDONALD'S RESTAURANT,1193659,5015 W MADISON ST,CHICAGO,IL,60644,41.8803177115273,-87.750746355478,2014-09-26,Pass w/ Conditions,33,"FOOD AND NON-FOOD CONTACT EQUIPMENT UTENSILS CLEAN, FREE OF ABRASIVE DETERGENTS","MUST CLEAN DRIVE THRU SODA MACHINE ICE DISPENSER,ICE CREAM MACHINE AND STATION,COUNTER TOPS AT COFFEE AREA,TEA DISPENSER,ROLLING CART IN SAME AREA."
1385885,MCDONALD'S,1517920,7900 S DR MARTIN LUTHER KING JR DR,CHICAGO,IL,60619,41.7510204706819,-87.615102245534,2015-01-14,Pass,33,"FOOD AND NON-FOOD CONTACT EQUIPMENT UTENSILS CLEAN, FREE OF ABRASIVE DETERGENTS","Inspector Comments: MUST CLEAN GREASE AND FOOD DEBRI FROM FRYERS,ALL COOLERS AND FREEZERS,BLENDER STATION.CLEAN CALCIUM BUILD UP FROM INTERIOR AND EXTERIOR OF ICE MACHINES.  "
1385956,MCDONALD'S,1517920,7900 S DR MARTIN LUTHER KING JR DR,CHICAGO,IL,60619,41.7510204706819,-87.615102245534,2015-02-17,Pass,33,"FOOD AND NON-FOOD CONTACT EQUIPMENT UTENSILS CLEAN, FREE OF ABRASIVE DETERGENTS","Inspector Comments: Inspector Comments: MUST CLEAN GREASE AND FOOD DEBRI FROM FRYERS,ALL COOLERS AND FREEZERS,BLENDER STATION.CLEAN CALCIUM BUILD UP FROM INTERIOR AND EXTERIOR OF ICE MACHINES.   "
1385957,MCDONALD'S #6337,1768801,29 E 87TH ST,CHICAGO,IL,60619,41.7362554617903,-87.6229175082059,2015-02-17,Pass,11,"ADEQUATE NUMBER, CONVENIENT, ACCESSIBLE, DESIGNED, AND MAINTAINED",VIOLATION CORRECTED
1385957,MCDONALD'S #6337,1768801,29 E 87TH ST,CHICAGO,IL,60619,41.7362554617903,-87.6229175082059,2015-02-17,Pass,33,"FOOD AND NON-FOOD CONTACT EQUIPMENT UTENSILS CLEAN, FREE OF ABRASIVE DETERGENTS","Inspector Comments: MUST CLEAN GREASE AND FOOD DEBRI FROM PREP TABLES,MICROWAVES,ALL STORAGE CABINETS,FRYERS,GRILLS,SHELVING UNITS IN WALK IN COOLER AND FREEZER,SODA AND ICE NOZZLES ON SODA MACHINES.  "
1386000,MCDONALD'S,1519152,6355 S DR MARTIN LUTHER KING JR DR,CHICAGO,IL,60637,41.7785971834236,-87.6154413879464,2015-03-11,Pass,33,"FOOD AND NON-FOOD CONTACT EQUIPMENT UTENSILS CLEAN, FREE OF ABRASIVE DETERGENTS",VIOLATION CORRECTED
1386000,MCDONALD'S,1519152,6355 S DR MARTIN LUTHER KING JR DR,CHICAGO,IL,60637,41.7785971834236,-87.6154413879464,2015-03-11,Pass,33,"FOOD AND NON-FOOD CONTACT EQUIPMENT UTENSILS CLEAN, FREE OF ABRASIVE DETERGENTS","Inspector Comments: INSTRUCTED TO CLEAN AND MAINTAIN THE INTERIOR OF THE DEEP FRYERS.  "
1386024,MCDONALD'S,1302136,70 E GARFIELD BLVD,CHICAGO,IL,60615,41.7947940242651,-87.6229151035504,2015-03-18,Pass,33,"FOOD AND NON-FOOD CONTACT EQUIPMENT UTENSILS CLEAN, FREE OF ABRASIVE DETERGENTS","Inspector Comments: MUST CLEAN GREASE AND FOOD DEBRI BUILD UP ON FRYERS,GRILL,WHEEL BASES,OVER HEAD AND STORAGE SHELVING UNITS,HOT HOLDING UNITS AND UNDER SIDES OF SAME,BUN RACKS,BLENDER STATION,ALL REACH IN COOLERS,INTERIOR PARTS OF ICE MACHINE,PIPES AND CORDS OF EQUIPMENT,SHAKE MACHINE.  "
1386092,MCDONALD'S,1517920,7900 S DR MARTIN LUTHER KING JR DR,CHICAGO,IL,60619,41.7510204706819,-87.615102245534,2015-04-16,Pass,33,"FOOD AND NON-FOOD CONTACT EQUIPMENT UTENSILS CLEAN, FREE OF ABRASIVE DETERGENTS",VILATION CORRECTED
1386130,MCDONALD'S,1943516,6560 S STONY ISLAND AVE,CHICAGO,IL,60637,41.7752200873081,-87.5864366257481,2015-05-13,Pass,33,"FOOD AND NON-FOOD CONTACT EQUIPMENT UTENSILS CLEAN, FREE OF ABRASIVE DETERGENTS","Inspector Comments: MUST CLEAN FOOD DEBRI AND GREASEFROM INTERIOR LEDGES OF ALL EQUIPMENT,EXTERIOR OF ALL EQUIPMENT,FRYERS,GRILLS,PREP TABLES,COOLERS,PIPES OF COOKING EQUIPMENT.ROLLING CARTS,MCROWAVE,WHEEL BASES,CONDIMENT BINS,SODA MACHINE,CUP HOLDERS,SODA MACHINE,BLENDER STATION,COUNTER TOPS,WALK IN COOLER AND FREEZER SHELVING UNITS.  "
1386218,MCDONALD'S,1302136,70 E GARFIELD BLVD,CHICAGO,IL,60615,41.7947940242651,-87.6229151035504,2015-06-19,Pass,33,"FOOD AND NON-FOOD CONTACT EQUIPMENT UTENSILS CLEAN, FREE OF ABRASIVE DETERGENTS",VIOLATION CORRECTED
1386280,MCDONALD'S #6337,1768801,29 E 87TH ST,CHICAGO,IL,60619,41.7362554617903,-87.6229175082059,2015-07-09,Pass,33,"FOOD AND NON-FOOD CONTACT EQUIPMENT UTENSILS CLEAN, FREE OF ABRASIVE DETERGENTS",VIOLATION CORRECTED
1386591,MCDONALD'S,2428107,1443 E 87TH ST,CHICAGO,IL,60619,41.7367599255433,-87.588841701402,2015-12-08,Pass,11,"ADEQUATE NUMBER, CONVENIENT, ACCESSIBLE, DESIGNED, AND MAINTAINED",VIOLATION CORRECTED
1386607,MCDONALD'S,1302136,70 E GARFIELD BLVD,CHICAGO,IL,60615,41.7947940242651,-87.6229151035504,2015-12-15,Pass,11,"ADEQUATE NUMBER, CONVENIENT, ACCESSIBLE, DESIGNED, AND MAINTAINED",VIOLATION CORRECTED
1387487,MCDONALD'S,1517920,7900 S DR MARTIN LUTHER KING JR DR,CHICAGO,IL,60619,41.7510204706819,-87.615102245534,2014-05-22,Pass,33,"FOOD AND NON-FOOD CONTACT EQUIPMENT UTENSILS CLEAN, FREE OF ABRASIVE DETERGENTS","CLEAN INTERIOR OF CHEST FREEZER NEAR THE FRYER AREA,HAS FOOD DEBRIS  INSIDE EQUIPMENT AND CLEAN INTERIOR PANEL OF ICE MACHINE."
1387510,MCDONALD'S,1768770,600 E 115TH ST,CHICAGO,IL,60628,41.6855811783059,-87.6082071152992,2014-06-06,Pass,33,"FOOD AND NON-FOOD CONTACT EQUIPMENT UTENSILS CLEAN, FREE OF ABRASIVE DETERGENTS","MUST DEFROST THE CHEST FREEZERS IN THE PREP AREA,HAS HEAVY ICE BUILD-UP INSIDE UNIT"
1387561,MCDONALD'S,1474116,1443 E 87TH ST,CHICAGO,IL,60619,41.7367599255433,-87.588841701402,2014-07-17,Pass w/ Conditions,33,"FOOD AND NON-FOOD CONTACT EQUIPMENT UTENSILS CLEAN, FREE OF ABRASIVE DETERGENTS","CLEAN INTERIOR BOTTOM COMPARTMENT OF DEEP FRYERS,HAS GREASE BUILD-UP INSIDE COMPARTMENTS,INSTRUCTED TO CLEAN AND MAINTAIN EQUIPMENT"
1387571,MCDONALD'S #6337,1768801,29 E 87TH ST,CHICAGO,IL,60619,41.7362554617903,-87.6229175082059,2014-07-28,Pass,33,"FOOD AND NON-FOOD CONTACT EQUIPMENT UTENSILS CLEAN, FREE OF ABRASIVE DETERGENTS","CLEAN BOTTOM COMPARTMENT OF DEEP FRYERS,HAS GREASE BUILD-UP INSIDE COMPARTMENTS"
1387678,MCDONALD'S,1474116,1443 E 87TH ST,CHICAGO,IL,60619,41.7367599255433,-87.588841701402,2014-10-08,Pass,33,"FOOD AND NON-FOOD CONTACT EQUIPMENT UTENSILS CLEAN, FREE OF ABRASIVE DETERGENTS","CLEAN INTERIOR BOTTOM COMPARTMENT OF DEEP FRYERS,HAS GREASE BUILD-UP INSIDE COMPARTMENTS,INSTRUCTED TO CLEAN AND MAINTAIN EQUIPMENT   "
1395241,MCDONALD'S RESTAURANTS (MCDONALD'S),2064662,2525 S DR MARTIN LUTHER KING JR DR,CHICAGO,IL,60616,41.8467666109193,-87.6171757775497,2014-01-03,Pass,33,"FOOD AND NON-FOOD CONTACT EQUIPMENT UTENSILS CLEAN, FREE OF ABRASIVE DETERGENTS",CORRECTED.
1395730,MCDONALD'S 26371 (MCDONALD'S),2304342,36 W 95TH ST,CHICAGO,IL,60628,41.7218087646306,-87.6252418946853,2014-01-27,Pass,33,"FOOD AND NON-FOOD CONTACT EQUIPMENT UTENSILS CLEAN, FREE OF ABRASIVE DETERGENTS",MUST DETAIL CLEAN AND MAINTAIN THE INTERIOR OF ALL DEEP FRYERS AND CABINETS UNDER THE BEVERAGE STATION IN THE SELF-SERVICE AREA.
1395984,MCDONALD'S #490,81721,10320 S KEDZIE AVE,CHICAGO,IL,60655,41.7055202965588,-87.7014580422018,2014-02-05,Pass,11,"ADEQUATE NUMBER, CONVENIENT, ACCESSIBLE, DESIGNED, AND MAINTAINED",REPAIRS MADE. PREMISES NOW HAS ADEQUATE TOILET AND HAND WASHING FACILITIES.
1395984,MCDONALD'S #490,81721,10320 S KEDZIE AVE,CHICAGO,IL,60655,41.7055202965588,-87.7014580422018,2014-02-05,Pass,33,"FOOD AND NON-FOOD CONTACT EQUIPMENT UTENSILS CLEAN, FREE OF ABRASIVE DETERGENTS",CORRECTED
1396005,MCDONALD'S,2308020,2425 E 79TH ST,CHICAGO,IL,60649,41.7516335989759,-87.5651606509335,2014-02-06,Pass,33,"FOOD AND NON-FOOD CONTACT EQUIPMENT UTENSILS CLEAN, FREE OF ABRASIVE DETERGENTS","CLEAN THE FOLLOWING: HOODS & FILTERS ABOVE COOKING EQUIPMENT, CABINET INTERIOR OF DEEP FRYERS IN FRENCH FRY PREP AREA, STORAGE SHELVES AND SURFACES INSIDE CHEMICAL STORAGE CLOSET IN DISHWASHING AREA, TABLES IN BREAK ROOM, CABINET INTERIORS UNDERNEATH SELF-SERVICE POP DISPENSING STATION, AND REACH-IN FREEZER ABOVE EXPOSED HANDSINK IN MAIN FOOD PREP AREA.  "
1396013,MCDONALD'S,2308020,2425 E 79TH ST,CHICAGO,IL,60649,41.7516335989759,-87.5651606509335,2014-02-06,Pass,33,"FOOD AND NON-FOOD CONTACT EQUIPMENT UTENSILS CLEAN, FREE OF ABRASIVE DETERGENTS","CLEAN THE FOLLOWING: HOODS & FILTERS ABOVE COOKING EQUIPMENT, CABINET INTERIOR OF DEEP FRYERS IN FRENCH FRY PREP AREA, STORAGE SHELVES AND SURFACES INSIDE CHEMICAL STORAGE CLOSET IN DISHWASHING AREA, TABLES IN BREAK ROOM, CABINET INTERIORS UNDERNEATH SELF-SERVICE POP DISPENSING STATION, AND REACH-IN FREEZER ABOVE EXPOSED HANDSINK IN MAIN FOOD PREP AREA."
1401352,MCDONALD'S RESTAURANTS (MCDONALD'S),2064662,2525 S DR MARTIN LUTHER KING JR DR,CHICAGO,IL,60616,41.8467666109193,-87.6171757775497,2014-02-20,Pass,33,"FOOD AND NON-FOOD CONTACT EQUIPMENT UTENSILS CLEAN, FREE OF ABRASIVE DETERGENTS","MUST CLEAN AND MAINTAIN THE FOLLOWING:  UPPER AND LOWER INTERIOR OF ICE MACHINE, INTERIOR BOTTOMS OF FRYERS TO REMOVE GREASE AND FOOD PARTICLES, INTERIORS OF REFRIGERATION AND FREEZER UNITS IN FOOD PREP AREA TO REMOVE SPILLS AND FOOD CRUMBS, VENTS ABOVE FRYERS AND EXTERIOR SURFACES OF FRYERS AND GRILL."
1401788,MCDONALD'S RESTAURANT (MCDONALD'S),12886,9211 S COMMERCIAL AVE,CHICAGO,IL,60617,41.7278801912133,-87.5510612280602,2014-03-10,Pass,33,"FOOD AND NON-FOOD CONTACT EQUIPMENT UTENSILS CLEAN, FREE OF ABRASIVE DETERGENTS","CLEAN THE FOLLOWING: EXTERIOR OF DISH MACHINE, STORAGE SHELVES WHERE CLEAN EQUIPMENT IS STORED, SIDES OF COOKING EQUIPMENT(GREASY BUILD-UP),CABINET INTERIOR UNDERNEATH DEEP FRYERS(INCLUDING ATTACHED PIPING), UPPER SECTION WHERE LIGHTS ARE LOCATED OF FRY HOLDING UNIT, INTERIOR SECTION OF ICE BIN IN DRIVE-THRU AREA, AND EQUIPMENT IN UNUSED PREP STATION BY EXPOSED HAND SINK IN FOOD PREP AREA.  "
1418247,MCDONALD'S,51011,1004 W WILSON AVE,CHICAGO,IL,60640,41.9655372266183,-87.6550274072498,2014-04-18,Pass,33,"FOOD AND NON-FOOD CONTACT EQUIPMENT UTENSILS CLEAN, FREE OF ABRASIVE DETERGENTS",MUST DEFROST AND REMOVE EXCESSIVE ICE/FROST BUILD UP AT THE PIPE UNDER THE CONDENSOR IN THE WALK-IN FREEZER.
1418444,MCDONALD'S,2349545,3241 W PETERSON AVE,CHICAGO,IL,60659,41.9902548481319,-87.710763243534,2014-08-15,Pass,33,"FOOD AND NON-FOOD CONTACT EQUIPMENT UTENSILS CLEAN, FREE OF ABRASIVE DETERGENTS","MUST DETAIL CLEAN AND SANITIZE THE BASE HOLDER OF THE FRAPPE MACHINE LOCATED NEXT TO THE MCCAFE STATION. MUST REMOVE GRIME AT CORNERS WHICH HOLD FRAPPE CONTAINERS.   "
1418472,MCDONALD'S,1443878,6231 N BROADWAY,CHICAGO,IL,60660,41.9954942794437,-87.6602863708148,2014-08-27,Pass,33,"FOOD AND NON-FOOD CONTACT EQUIPMENT UTENSILS CLEAN, FREE OF ABRASIVE DETERGENTS",MUST CLEAN AND SANITIZE THE ICE CHUTE AT THE ICE DISPENSING MACHINE LOCATED NEXT TO THE SELF-SERVE SODA DISPENSING MACHINE.
1418472,MCDONALD'S,1443878,6231 N BROADWAY,CHICAGO,IL,60660,41.9954942794437,-87.6602863708148,2014-08-27,Pass,33,"FOOD AND NON-FOOD CONTACT EQUIPMENT UTENSILS CLEAN, FREE OF ABRASIVE DETERGENTS",MUST CLEAN AND SANITIZE THE SMOOTHIE MACHINE BLENDER BASE TO REMOVE FOOD DEBRI AND SPLASHES.
1419197,MCDONALD'S,1969969,29 N WACKER DR,CHICAGO,IL,60606,41.8827003545899,-87.6366375599773,2015-11-24,Pass,33,"FOOD AND NON-FOOD CONTACT EQUIPMENT UTENSILS CLEAN, FREE OF ABRASIVE DETERGENTS","MUST CLEAN AND SANITIZE INNER PANEL OF THE ICE MACHINE ACROSS FROM THE 3-COMP SINK TO REMOVE SLIGHT BUILD-UP, ICE CHUTES AND THE SODA DISPENSING MACHINE AS WELL AS ALL OF THE SODA DISPENSERS TO REMOVE SYRUO BUILD-UP."
1424281,MCDONALD'S (MCDONALD'S (T2 E/F)),2009092,11601 W TOUHY AVE,CHICAGO,IL,60666,42.0085364008687,-87.9144284392705,2014-05-23,Pass w/ Conditions,3,"POTENTIALLY HAZARDOUS FOOD MEETS TEMPERATURE REQUIREMENT DURING STORAGE, PREPARATION DISPLAY AND SERVICE","FOUND MILK HELD AT IMPROPER TEMPERATURES BETWEEN 44.6 F AND 47.1 F HELD INSIDE LOWER LEVEL WALK IN COOLER, HOWEVER SAID WALK IN COOLER AMBIENT AIR TEMPERATURE AT 42.0 F. ALL OUT OF TEMPERATURE MILK VOLUNTARILLY DISCARDED AT THIS TIME. INSTRUCTED MANAGER ALL POTENTIALLY HAZARDOUS FOODS MUST BE HELD AT 40 F OR BELOW IF HELD COLD. CRITICAL VIOLATION 7-38-005(A)"
1424436,MCDONALD'S,30231,4946 N MILWAUKEE AVE,CHICAGO,IL,60630,41.9706775856096,-87.7634289441801,2014-08-14,Pass,33,"FOOD AND NON-FOOD CONTACT EQUIPMENT UTENSILS CLEAN, FREE OF ABRASIVE DETERGENTS",CORRECTED
1424440,MCDONALD'S,1383391,4550 N CUMBERLAND AVE,CHICAGO,IL,60656,41.9627679194481,-87.836840326835,2014-08-15,Pass,33,"FOOD AND NON-FOOD CONTACT EQUIPMENT UTENSILS CLEAN, FREE OF ABRASIVE DETERGENTS",OBSERVED ACCUMULATED FOOD DEBRIS INSIDE PREP AREA REACH IN FREEZERS AND COOLERS DOOR RUBBER GASKETS AND FOOD SPILLS INSIDE CABINET UNDER SODA MACHINE. INSTRUCTED MANAGER TO CLEAN AND MAINTAIN.
1424982,MCDONALD'S,1443878,6231 N BROADWAY,CHICAGO,IL,60660,41.9954942794437,-87.6602863708148,2015-08-05,Pass w/ Conditions,3,"POTENTIALLY HAZARDOUS FOOD MEETS TEMPERATURE REQUIREMENT DURING STORAGE, PREPARATION DISPLAY AND SERVICE",FOUND MILK HELD INSIDE REACH IN MILK COOLER BETWEEN 46.0 F AND 47.0 F. HOWEVER MILK REACH IN COOLER AMBIENT AIR TEMPERATURE AT 42.0 F. INSTRUCTED MANAGER POTENTIALLY HAZARDOUS FOODS MUST BE HELD AT 40 F OR BELOW. ALL OUT OF TEMPERATURE MILK VOLUNTARILLY DISCARDED AT THIS TIME. CRITICAL VIOLATION 7-38-005(A).
1425156,MCDONALD'S,1968755,5614 N CLARK ST,CHICAGO,IL,60660,41.9839522006306,-87.6690061635451,2015-11-06,Pass,33,"FOOD AND NON-FOOD CONTACT EQUIPMENT UTENSILS CLEAN, FREE OF ABRASIVE DETERGENTS",OBSERVED FOOD SPILLS INSIDE SODA MACHINE CABINETS. INSTRUCTED MANAGER TO CLEAN AND MAINTAIN INTERIOR OF SODA MACHINE CABINETS.
1425178,MCDONALD'S (MCDONALD'S (T1-B11)),2013206,11601 W TOUHY AVE,CHICAGO,IL,60666,42.0085364008687,-87.9144284392705,2015-11-19,Pass,33,"FOOD AND NON-FOOD CONTACT EQUIPMENT UTENSILS CLEAN, FREE OF ABRASIVE DETERGENTS",OBSERVED ACCUMULATED DUST BUILD UP ON REAR OF CONDENSER INSIDE WALK IN COOLER. MUST CLEAN AND MAINTAIN WALK IN COOLER CONDENSER.
1425183,MCDONALD'S CORPORATION (MCDONALD'S (T3 HK FOOD COURT)),1140128,11601 W TOUHY AVE,CHICAGO,IL,60666,42.0085364008687,-87.9144284392705,2015-11-23,Pass,33,"FOOD AND NON-FOOD CONTACT EQUIPMENT UTENSILS CLEAN, FREE OF ABRASIVE DETERGENTS",OBSERVED FOOD BUILD UP ON EXTERIOR OF COOLERS/COOKING EQUIPMENT THROUGHOUT. MUST CLEAN AND MAINTAIN EQUIPMENT.
1425187,MCDONALD'S (MCDONALD'S (T3- L4)),2016727,11601 W TOUHY AVE,CHICAGO,IL,60666,42.0085364008687,-87.9144284392705,2015-11-25,Pass,33,"FOOD AND NON-FOOD CONTACT EQUIPMENT UTENSILS CLEAN, FREE OF ABRASIVE DETERGENTS",CORRECTED
1425212,MCDONALD'S,1093571,3615 W IRVING PARK RD,CHICAGO,IL,60618,41.9536466519158,-87.7184849050502,2015-12-14,Pass,33,"FOOD AND NON-FOOD CONTACT EQUIPMENT UTENSILS CLEAN, FREE OF ABRASIVE DETERGENTS",OBSERVED FOOD BUILD UP ON EXTERIOR OF DISHMACHINE. MUST CLEAN EXTERIOR OF DISHMACHINE AND MAINTAIN.
1434235,MCDONALD'S #4308 (MCDONALD'S),1904304,3867 S ARCHER AVE BLDG,CHICAGO,IL,60632,41.823158345079,-87.6892366472357,2014-03-24,Pass w/ Conditions,33,"FOOD AND NON-FOOD CONTACT EQUIPMENT UTENSILS CLEAN, FREE OF ABRASIVE DETERGENTS",OBSERVED MOP SINK UNCLEAN WITH EXCESSIVE BUILDUP ON INTERIOR AND EXTERIOR OR MOP SINK. INSTRUCTED TO CLEAN AND MAINTAIN MOP SINK IN A SANITARY CONDITION.
1434832,MCDONALD'S,1968755,5614 N CLARK ST,CHICAGO,IL,60660,41.9839522006306,-87.6690061635451,2014-04-15,Pass,33,"FOOD AND NON-FOOD CONTACT EQUIPMENT UTENSILS CLEAN, FREE OF ABRASIVE DETERGENTS",CORRECTED
1445331,MCDONALD'S,2397974,23 N WESTERN AVE,CHICAGO,IL,60612,41.8819144601214,-87.6863038518981,2015-07-17,Pass,11,"ADEQUATE NUMBER, CONVENIENT, ACCESSIBLE, DESIGNED, AND MAINTAINED",EXPOSED HANDWASHING SINK INSTALLED AT DISHWASHING AREA.
1445332,MCDONALD'S,2397974,23 N WESTERN AVE,CHICAGO,IL,60612,41.8819144601214,-87.6863038518981,2015-07-17,Pass,11,"ADEQUATE NUMBER, CONVENIENT, ACCESSIBLE, DESIGNED, AND MAINTAINED",EXPOSED HANDWASHING SINK INSTALLED AT DISHWASHING AREA.
1447480,MCDONALD'S #26364,1868073,233 W JACKSON BLVD,CHICAGO,IL,60606,41.8779990511137,-87.6346856172248,2014-09-23,Pass w/ Conditions,11,"ADEQUATE NUMBER, CONVENIENT, ACCESSIBLE, DESIGNED, AND MAINTAINED","EXPOSED HANDWASH SINKS IN PREP AREAS WITHOUT TEMPERED WATER, RUNNING HOT WATER ONLY FROM FAUCETS NO COLD RUNNING WATER. MUST PROVIDE. CRITICAL VIOLATION 7-38-030."
1447910,MCDONALD'S,1985417,10 E CHICAGO AVE,CHICAGO,IL,60611,41.896792874374,-87.6277875784165,2015-07-24,Pass,33,"FOOD AND NON-FOOD CONTACT EQUIPMENT UTENSILS CLEAN, FREE OF ABRASIVE DETERGENTS",CLEAN INTERIOR BOTTOM OF REACH-IN FREEZER OF FOOD SPILLS.
1453622,MCDONALDS'S RESTAURANTS (MCDONALD'S),2064660,230 S STATE ST,CHICAGO,IL,60604,41.8787197385817,-87.6278394358472,2014-10-30,Pass w/ Conditions,33,"FOOD AND NON-FOOD CONTACT EQUIPMENT UTENSILS CLEAN, FREE OF ABRASIVE DETERGENTS","THE FOLLOWING IN NEED OF CLEANING: ALL COOKING EQUIPMENT, FRYERS TO REMOVE GREASE BUILD UP, STORAGE SHELVES TO REMOVE ALL FOOD SPILLS, INTERIOR OF GARBAGE HOLDERS TO REMOVE ALL FOOD SPILLS, INTERIOR OF WALK IN COOLER TO REMOVE FOOD SPILLS. MUST CLEAN AND MAINTAIN AT ALL TIMES.   "
1453682,MCDONALD'S #20104,1868077,111 W JACKSON BLVD,CHICAGO,IL,60604,41.8780344283362,-87.6311714069791,2014-12-16,Pass,33,"FOOD AND NON-FOOD CONTACT EQUIPMENT UTENSILS CLEAN, FREE OF ABRASIVE DETERGENTS","FRYERS IN NEED OF CLEANING TO REMOVE ALL GREASE.  ALL BEVERAGE MACHINES IN NEED OF CLEANING TO REMOVE ALL BUILD UP AT NOZZLES.  MUST CLEAN AND MAINTAIN AT ALL TIMES.  "
1453740,MCDONALD'S,1332927,2438 W CERMAK RD,CHICAGO,IL,60608,41.8521245314486,-87.6872821649016,2015-01-30,Pass w/ Conditions,2,FACILITIES TO MAINTAIN PROPER TEMPERATURE,FRONT REACH IN COOLER IN POOR REPAIR AT THIS TIME. AIR TEMPERATURE AT 48.3 DEGRESS AIR TEMP.  COOLER MAY NOT BE USED UNTIL CORRECTED AND REINSPECTED BY THE CHICAGO DEPARTMENT OF PUBLIC HEALTH. COOLER BEING TAGGED HELD FOR INSPECTION AT THIS TIME.    CRITICAL VIOLATION 7-38-005(A) CITATION ISSUED  FACILITIES TO MAINTAIN PROPER TEMPERATURE.
1453740,MCDONALD'S,1332927,2438 W CERMAK RD,CHICAGO,IL,60608,41.8521245314486,-87.6872821649016,2015-01-30,Pass w/ Conditions,3,"POTENTIALLY HAZARDOUS FOOD MEETS TEMPERATURE REQUIREMENT DURING STORAGE, PREPARATION DISPLAY AND SERVICE",FOUND 23 CONTAINERS OF MILK AT IMPROPER TEMPERATURE OF 53.3 DEGREES.  MILK WERE DISCARDED AT THIS TIME OF INSPECTION.  TOTAL VALUE $15.00    CRITICAL VIOLATION 7-38-005(A) CITATION ISSUED  POTENTIALLY HAZARDOUS FOODS AT IMPROPER TEMPERATURE.
1453740,MCDONALD'S,1332927,2438 W CERMAK RD,CHICAGO,IL,60608,41.8521245314486,-87.6872821649016,2015-01-30,Pass w/ Conditions,33,"FOOD AND NON-FOOD CONTACT EQUIPMENT UTENSILS CLEAN, FREE OF ABRASIVE DETERGENTS","ALL NOZZLES ON DRINK MACHINES IN NEED OF CLEANING TO REMOVE ALL BUILD UP.  MUST CLEAN AND MAINTAIN AT ALL TIMES.  "
1453744,MCDONALD'S,1332927,2438 W CERMAK RD,CHICAGO,IL,60608,41.8521245314486,-87.6872821649016,2015-02-03,Pass,2,FACILITIES TO MAINTAIN PROPER TEMPERATURE,"CORRECTED  REACH IN COOLER NOW AT PROPER TEMPERATURE. 37.9 DEGREES  COOLER MAY NOW BE USED.  "
1453744,MCDONALD'S,1332927,2438 W CERMAK RD,CHICAGO,IL,60608,41.8521245314486,-87.6872821649016,2015-02-03,Pass,33,"FOOD AND NON-FOOD CONTACT EQUIPMENT UTENSILS CLEAN, FREE OF ABRASIVE DETERGENTS","ALL NOZZLES ON DRINK MACHINES IN NEED OF CLEANING TO REMOVE ALL BUILD UP. MUST CLEAN AND MAINTAIN AT ALL TIMES.   "
1453792,MCDONALD'S,1332927,2438 W CERMAK RD,CHICAGO,IL,60608,41.8521245314486,-87.6872821649016,2015-02-27,Pass,33,"FOOD AND NON-FOOD CONTACT EQUIPMENT UTENSILS CLEAN, FREE OF ABRASIVE DETERGENTS","ALL NOZZLES ON DRINK MACHINES IN NEED OF CLEANING TO REMOVE ALL BUILD UP. MUST CLEAN AND MAINTAIN AT ALL TIMES.   "
1454217,MCDONALD'S,1332921,2005 W CHICAGO AVE,CHICAGO,IL,60622,41.8957965124416,-87.6773227997198,2015-09-30,Pass,33,"FOOD AND NON-FOOD CONTACT EQUIPMENT UTENSILS CLEAN, FREE OF ABRASIVE DETERGENTS","CORRECTED  "
1454348,MCDONALD'S,2391003,4704 S CICERO AVE,CHICAGO,IL,60638,41.8074171973865,-87.7432946955316,2016-01-13,Pass,33,"FOOD AND NON-FOOD CONTACT EQUIPMENT UTENSILS CLEAN, FREE OF ABRASIVE DETERGENTS","THE FOLLOWING IN NEED OF CLEANING: ALL DRINK DISPENSOR NOZZLES, COFFEE MACHINE, FRYERS, GRILLS AND INTERIOR OF ICE MACHINE TO REMOVE ALL BUILD UP.  MUST CLEAN AND MAINTAIN AT ALL TIMES.  "
1459670,MCDONALD'S,2328103,600 N CLARK ST,CHICAGO,IL,60654,41.8924640329927,-87.631294885907,2014-05-13,Pass,33,"FOOD AND NON-FOOD CONTACT EQUIPMENT UTENSILS CLEAN, FREE OF ABRASIVE DETERGENTS",INSTRUCTED TO CLEAN THE INSIDE COMPARTMENT OF ICE MACHINE AND MAINTAIN WITH SLIGHT DIRT ACCUMULATION.
1464508,MCDONALD'S,1443878,6231 N BROADWAY,CHICAGO,IL,60660,41.9954942794437,-87.6602863708148,2014-10-02,Pass,33,"FOOD AND NON-FOOD CONTACT EQUIPMENT UTENSILS CLEAN, FREE OF ABRASIVE DETERGENTS",SMOOTHIE MACHINE BLENDER CLEAN/SANITIZED.
1467607,MCDONALD'S RESTAURANT (MCDONALD'S),2411397,233 N MICHIGAN AVE,CHICAGO,IL,60601,41.8865673708869,-87.6243846705971,2015-07-13,Pass w/ Conditions,33,"FOOD AND NON-FOOD CONTACT EQUIPMENT UTENSILS CLEAN, FREE OF ABRASIVE DETERGENTS","MUST DETAIL CLEAN ALL COOLERS, COOKING EQUIPMENT, FROZEN DESERT MACHINES AND PREP SURFACES. MUST REMOVE SPILLS AND FOOD DEBRIS. MUST ALSO DETAIL CLEAN THE INTERIOR TOP PANEL OF THE ICE MACHINE. MUST DETAIL CLEAN THE EXTERIOR OF THE GREASE TRAP AND REMOVE EXCESSIVE GREASE BUILD UP."
1471369,MCDONALD'S,1356058,5656 W IRVING PARK RD,CHICAGO,IL,60634,41.9532631107403,-87.7693112226014,2014-07-15,Pass,33,"FOOD AND NON-FOOD CONTACT EQUIPMENT UTENSILS CLEAN, FREE OF ABRASIVE DETERGENTS","walk in cooler shelving/racks not clean, need detailed cleaning(crevices), reach in cooler shelving not clean, needs cleaning, rear storage area shelving/racks not clean, need detailed cleaning(crevices)."
1471398,MCDONALD'S,1356056,3540 N HARLEM AVE,CHICAGO,IL,60634,41.9446635395432,-87.8071294830706,2014-08-01,Pass,33,"FOOD AND NON-FOOD CONTACT EQUIPMENT UTENSILS CLEAN, FREE OF ABRASIVE DETERGENTS",Corrected.
1471407,MC DONALD'S 6039 (MCDONALD'S),2341076,5656 W IRVING PARK RD,CHICAGO,IL,60634,41.9532631107403,-87.7693112226014,2014-08-07,Pass,33,"FOOD AND NON-FOOD CONTACT EQUIPMENT UTENSILS CLEAN, FREE OF ABRASIVE DETERGENTS","Rear kitchen storage shelving/racks not clean, need detailed cleaning(crevices)."
1473309,MCDONALD'S,1593965,4158 S ASHLAND AVE,CHICAGO,IL,60609,41.8177427370255,-87.6653350123341,2014-06-04,Pass,9,"WATER SOURCE: SAFE, HOT & COLD UNDER CITY PRESSURE",VIOLATION CORRECTED; PREMISES HAS HOT RUNNING WATER AT THIS TIME.  WATER TEMPERATURE AT THE 3 COMP. SINK NOW AT 115.6*F.
1473309,MCDONALD'S,1593965,4158 S ASHLAND AVE,CHICAGO,IL,60609,41.8177427370255,-87.6653350123341,2014-06-04,Pass,33,"FOOD AND NON-FOOD CONTACT EQUIPMENT UTENSILS CLEAN, FREE OF ABRASIVE DETERGENTS",VIOLATION CORRECTED.
1473568,MCDONALD'S,2002814,8415 S PULASKI RD,CHICAGO,IL,60652,41.7398605220475,-87.7214563026118,2014-06-11,Pass,33,"FOOD AND NON-FOOD CONTACT EQUIPMENT UTENSILS CLEAN, FREE OF ABRASIVE DETERGENTS",FOUND THE INTERIOR OF THE DEEP FRYERS IN NEED OF CLEANING. INSTRUCTED TO CLEAN AND MAINTAIN.
1473764,MCDONALD'S,1517920,7900 S DR MARTIN LUTHER KING JR DR,CHICAGO,IL,60619,41.7510204706819,-87.615102245534,2014-06-17,Pass w/ Conditions,33,"FOOD AND NON-FOOD CONTACT EQUIPMENT UTENSILS CLEAN, FREE OF ABRASIVE DETERGENTS","CLEAN INTERIOR OF CHEST FREEZER NEAR THE FRYER AREA,HAS FOOD DEBRIS INSIDE EQUIPMENT AND CLEAN INTERIOR PANELF ICE MACHINE  "
1473837,MCDONALD'S,30231,4946 N MILWAUKEE AVE,CHICAGO,IL,60630,41.9706775856096,-87.7634289441801,2014-06-18,Pass,33,"FOOD AND NON-FOOD CONTACT EQUIPMENT UTENSILS CLEAN, FREE OF ABRASIVE DETERGENTS",OBSERVED SLIGHT CALCIUM BUILD UP ON BOTH ICE CHUTES AT SODA MACHINE. MUST CLEAN AND MAINTAIN EQUIPMENT.
1473966,MCDONALD'S RESTAURANT (MCDONALD'S),12886,9211 S COMMERCIAL AVE,CHICAGO,IL,60617,41.7278801912133,-87.5510612280602,2014-06-23,Pass,33,"FOOD AND NON-FOOD CONTACT EQUIPMENT UTENSILS CLEAN, FREE OF ABRASIVE DETERGENTS",ABATED.
1473984,MCDONALD'S RESTAURANTS (MCDONALD'S),2064662,2525 S DR MARTIN LUTHER KING JR DR,CHICAGO,IL,60616,41.8467666109193,-87.6171757775497,2014-06-23,Pass,33,"FOOD AND NON-FOOD CONTACT EQUIPMENT UTENSILS CLEAN, FREE OF ABRASIVE DETERGENTS",VIOLATION CORRECTED.
1474162,MCDONALD'S,1679820,4546 N KEDZIE AVE,CHICAGO,IL,60625,41.9643875286351,-87.708492478441,2014-06-27,Pass,33,"FOOD AND NON-FOOD CONTACT EQUIPMENT UTENSILS CLEAN, FREE OF ABRASIVE DETERGENTS",INTERIOR ICE MACHINE PARTS NOT CLEAN. INSTRUCTED TO DETAIL CLEAN AND SANITIZE FREQUENTLY.
1480404,MCDONALD'S,1332913,2609 S KEDZIE AVE,CHICAGO,IL,60623,41.844202240983,-87.7048869943916,2014-12-04,Pass,33,"FOOD AND NON-FOOD CONTACT EQUIPMENT UTENSILS CLEAN, FREE OF ABRASIVE DETERGENTS","MULTI-USE SPOON CONTAINER AT FRONT LINE NOT CLEAN, DEBRIS. INSTD TO CLEAN AND MAINTAIN. BLENDERS AT COFFEE LINE NOT CLEAN. INSTD TO CLEAN AND MAINTAIN. INTERIOR PANEL OF ICE MACHINE NOT CLEAN. CLEAN SAME AND MAINTAIN"
1482301,KARAVITES REST INC (MCDONALD'S),11136,5130 N SHERIDAN RD,CHICAGO,IL,60640,41.976283055914,-87.6551477688298,2014-08-01,Pass w/ Conditions,2,FACILITIES TO MAINTAIN PROPER TEMPERATURE,"FOUND SMALL COOLER STORED ON TOP THE FRONT COUNTER,AMBIENT AIR TEMPERATURE OF 47.8F TO 49F. POTENTIALLY HAZARDOUS FOOD IS STORED INSIDE THE UNIT:CHOCOLATE AND WHITE MILK,SALADS ETC.TAGGED UNIT 'HELD FOR INSPECTION' DO NOT USE.INSTRUCTED MANAGER TO REPAIR COOLER,AMBIENT AIR TEMPERATURE MUST BE 40F AND BELOW.  CRITICAL VIOLATION:7-38-005(A)"
1482301,KARAVITES REST INC (MCDONALD'S),11136,5130 N SHERIDAN RD,CHICAGO,IL,60640,41.976283055914,-87.6551477688298,2014-08-01,Pass w/ Conditions,3,"POTENTIALLY HAZARDOUS FOOD MEETS TEMPERATURE REQUIREMENT DURING STORAGE, PREPARATION DISPLAY AND SERVICE","POTENTIALLY HAZARDOUS FOOD AT IMPROPER TEMPERATURE: CHOCOLATE MILK AT TEMP OF 46.7F TO 47.8F; WHITE MILK AT TEMP OF 48.7F TO 49.SALADS AT TEMP OF 48F.PRODUCTS DISCARDED AND DENATURED.POUNDS 6 ,VALUE 41.50  CRITICAL VIOLATION:7-38-005(A)"
1482301,KARAVITES REST INC (MCDONALD'S),11136,5130 N SHERIDAN RD,CHICAGO,IL,60640,41.976283055914,-87.6551477688298,2014-08-01,Pass w/ Conditions,33,"FOOD AND NON-FOOD CONTACT EQUIPMENT UTENSILS CLEAN, FREE OF ABRASIVE DETERGENTS",FOOD DEBRIS INSIDE THE TWO DOOR REACH-IN FREEZER.INSTRUCTED TO CLEAN.
1482366,KARAVITES REST INC (MCDONALD'S),11136,5130 N SHERIDAN RD,CHICAGO,IL,60640,41.976283055914,-87.6551477688298,2014-09-05,Pass,33,"FOOD AND NON-FOOD CONTACT EQUIPMENT UTENSILS CLEAN, FREE OF ABRASIVE DETERGENTS",VIOLATION CORRECTED
1482519,MCDONALD'S,30231,4946 N MILWAUKEE AVE,CHICAGO,IL,60630,41.9706775856096,-87.7634289441801,2015-01-05,Pass,33,"FOOD AND NON-FOOD CONTACT EQUIPMENT UTENSILS CLEAN, FREE OF ABRASIVE DETERGENTS",OBSERVED BLACK SUBSTANCE INSIDE THE WASTE WATER TRAY OF THE SELF SERVE POP MACHINE IN DINING ROOM.INSTRUCTED TO CLEAN AND MAINTAIN
1490366,MCDONALD'S,1519152,6355 S DR MARTIN LUTHER KING JR DR,CHICAGO,IL,60637,41.7785971834236,-87.6154413879464,2014-07-08,Pass,33,"FOOD AND NON-FOOD CONTACT EQUIPMENT UTENSILS CLEAN, FREE OF ABRASIVE DETERGENTS","OBSERVED THE DRINK STATION COUNTER AROUND BLENDER NOT CLEAN, INSTRUCTED TO CLEAN AND SANITIZE."
1490366,MCDONALD'S,1519152,6355 S DR MARTIN LUTHER KING JR DR,CHICAGO,IL,60637,41.7785971834236,-87.6154413879464,2014-07-08,Pass,33,"FOOD AND NON-FOOD CONTACT EQUIPMENT UTENSILS CLEAN, FREE OF ABRASIVE DETERGENTS","OBSERVED THE INTERIOR OF THE FRYER DOORS NOT CLEAN GREASY, INSTRUCTED TO CLEAN.ALSO NEED TO CLEAN DRIP TRAYS IN THE JUICE MACHINE."
1490540,MCDONALD'S (MCDONALD'S (T1-B11)),2013206,11601 W TOUHY AVE,CHICAGO,IL,60666,42.0085364008687,-87.9144284392705,2014-07-14,Pass,33,"FOOD AND NON-FOOD CONTACT EQUIPMENT UTENSILS CLEAN, FREE OF ABRASIVE DETERGENTS","EXTERIOR BETWEEN COOKING EQUIPMENT, STORAGE SHELVES UNDER PREP COUNTER AND INTERIOR PARTS OF ICE MACHINE NOT CLEAN. INSTRUCTED TO DETAIL CLEAN AND SANITIZE."
1490729,MCDONALD'S (MCDONALD'S (T1-C10)),2013208,11601 W TOUHY AVE,CHICAGO,IL,60666,42.0085364008687,-87.9144284392705,2014-07-18,Pass,33,"FOOD AND NON-FOOD CONTACT EQUIPMENT UTENSILS CLEAN, FREE OF ABRASIVE DETERGENTS",STORAGE SHELVES UNDER PREP COUNTER AND EXTERIOR OF COOKING EQUIPMENT NOT CLEAN. INSTRUCTED TO DETAIL CLEAN AND SANITIZE.
1491000,MCDONALD'S,1332927,2438 W CERMAK RD,CHICAGO,IL,60608,41.8521245314486,-87.6872821649016,2014-07-28,Pass,33,"FOOD AND NON-FOOD CONTACT EQUIPMENT UTENSILS CLEAN, FREE OF ABRASIVE DETERGENTS",CORRECTED.
1491056,MCDONALD'S RESTAURANT (MCDONALD'S),1477366,2707 N MILWAUKEE AVE,CHICAGO,IL,60647,41.9304965318765,-87.7095113244665,2014-07-29,Pass w/ Conditions,33,"FOOD AND NON-FOOD CONTACT EQUIPMENT UTENSILS CLEAN, FREE OF ABRASIVE DETERGENTS","FOUND LARGE ICE MACHINE WITH SLIGHT DIRT ACCUMULATION ON UPPER INTERIOR PANEL. INSTRUCTED TO CLEAN, SANITIZE, AND MAINTAIN."
1491091,MCDONALD'S,2308020,2425 E 79TH ST,CHICAGO,IL,60649,41.7516335989759,-87.5651606509335,2014-07-28,Pass w/ Conditions,3,"POTENTIALLY HAZARDOUS FOOD MEETS TEMPERATURE REQUIREMENT DURING STORAGE, PREPARATION DISPLAY AND SERVICE","MILK-45.1F, EGGS-45.3F-INSTRUCTED TO REMOVE FROM SALE ALL PRODUCTS FOUND AT IMPROPER TEMPERATURES. CRITICAL VIOLATION 7-38-005(A)."
1491109,MCDONALD'S RESTAURANT (MCDONALD'S),1477366,2707 N MILWAUKEE AVE,CHICAGO,IL,60647,41.9304965318765,-87.7095113244665,2014-07-30,Pass,33,"FOOD AND NON-FOOD CONTACT EQUIPMENT UTENSILS CLEAN, FREE OF ABRASIVE DETERGENTS",VIOLATION CORRECTED.
1491151,MCDONALD'S,1678527,5700 S CICERO AVE,CHICAGO,IL,60638,41.7893293232654,-87.7416456441964,2014-07-31,Pass w/ Conditions,11,"ADEQUATE NUMBER, CONVENIENT, ACCESSIBLE, DESIGNED, AND MAINTAINED",FOUND EXPOSED HAND SINK BY FRONT PREP AREA NOT ACCESSIBLE. THERE WERE TWO MOP BUCKETS BLOCKING ACCESS TO SINK. INSTRUCTED TO ALWAYS HAVE SINK ACCESSIBLE. CRITICAL VIOLATION 7-38-030
1493320,MCDONALD'S,1578392,119 N WABASH AVE,CHICAGO,IL,60602,41.8837168512818,-87.6260862245146,2014-08-06,Pass w/ Conditions,2,FACILITIES TO MAINTAIN PROPER TEMPERATURE,"FACILITY NOT MAINTAINING PROPER COOLING TEMPERATURE, FOUND WALK-IN COOLER AIR TEMP AT 60.2F, COOLER IS USED FOR POTENTIALLY HAZARDOUS FOODS STORAGE. INSTRUCTED MGR TO KEEP ALL COOLERS TEMPERATURE AT 40F OR LOWER. CRITICAL CITATION ISSUED 7-38-005(A) COOLER IS TAGGED NOT ALLOWED TO USE."
1493320,MCDONALD'S,1578392,119 N WABASH AVE,CHICAGO,IL,60602,41.8837168512818,-87.6260862245146,2014-08-06,Pass w/ Conditions,3,"POTENTIALLY HAZARDOUS FOOD MEETS TEMPERATURE REQUIREMENT DURING STORAGE, PREPARATION DISPLAY AND SERVICE","POTENTIALLY HAZARDOUS FOODS STORED IN WALK-IN COOLER AT IMPROPER TEMPERATURE, 15 LBS OF LIQUID EGGS AT 52.4, 40LBS OF DAIRY ICE CREAM MIX AT 48.7, 2 LBS DELI MEAT ( HAM ) AT 48.7, 24 LBS OF MILK/CHOCOLATE MILK AT 53.7F, 30 LBS OF WHOLE SHELL EGGS AT 50.3, 20 LB OF YOGURT AT 49.5F INSTRUCTED MGR TO STORE SUCH FOOD ITEMS AT 40F OR LOWER. CRITICAL CITATION ISSUED 7-38-005(A) FOOD ITEMS DISCARDED VALUED AT $350."
1493449,MCDONALD'S,1679820,4546 N KEDZIE AVE,CHICAGO,IL,60625,41.9643875286351,-87.708492478441,2014-08-08,Pass,33,"FOOD AND NON-FOOD CONTACT EQUIPMENT UTENSILS CLEAN, FREE OF ABRASIVE DETERGENTS","INTERIOR ICE MACHINE PARTS NOT CLEAN. INSTRUCTED TO DETAIL CLEAN AND SANITIZE FREQUENTLY.  "
1493507,MCDONALD'S (MCDONALD'S (T5/ARRIVAL)),2016729,11601 W TOUHY AVE,CHICAGO,IL,60666,42.0085364008687,-87.9144284392705,2014-08-12,Pass,33,"FOOD AND NON-FOOD CONTACT EQUIPMENT UTENSILS CLEAN, FREE OF ABRASIVE DETERGENTS",STORAGE SHELVES UNDER EQUIPMENT NOT CLEAN. INSTRUCTED TO DETAIL CLEAN AND SANITIZE ALL FOOD CONTACT SURAFCES.
1493555,MCDONALD'S RESTAURANT (MCDONALD'S RESTAURANT (T3 H9)),51206,11601 W TOUHY AVE,CHICAGO,IL,60666,42.0085364008687,-87.9144284392705,2014-08-13,Pass,33,"FOOD AND NON-FOOD CONTACT EQUIPMENT UTENSILS CLEAN, FREE OF ABRASIVE DETERGENTS",STORAGE SHELVES AND ALONG SIDE OF COOKING EQUIPMENT NOT CLEAN. INSTRUCTED TO DETAIL CLEAN AND SANITIZE.
1493602,MCDONALD'S,65404,5253 S PULASKI RD,CHICAGO,IL,60632,41.7971097354294,-87.7231243505289,2014-08-14,Pass,33,"FOOD AND NON-FOOD CONTACT EQUIPMENT UTENSILS CLEAN, FREE OF ABRASIVE DETERGENTS","INTERIOR OF FRYERS WITH HEAVY GREASE ACCUMULATION. CLEAN INTERIOR OF FRYERS AND MAINTAIN IN A SANITARY CONDITION.  "
1493676,MCDONALD'S RESTAURANT,2349670,2608 W ADDISON ST,CHICAGO,IL,60618,41.9468233995587,-87.693532642598,2014-08-15,Pass,11,"ADEQUATE NUMBER, CONVENIENT, ACCESSIBLE, DESIGNED, AND MAINTAINED","FOOD PREP AREAS REVISED, PER SUPERVISOR TS,"
1493680,MCDONALD'S,1519152,6355 S DR MARTIN LUTHER KING JR DR,CHICAGO,IL,60637,41.7785971834236,-87.6154413879464,2014-08-15,Pass,33,"FOOD AND NON-FOOD CONTACT EQUIPMENT UTENSILS CLEAN, FREE OF ABRASIVE DETERGENTS","OBSERVED THE BEVERAGE STATION IN THE DRIVE THRU NOT CLEAN, INSTRUCTED TO CLEAN."
1493876,MCDONALD'S (MCDONALD'S (T3- L4)),2016727,11601 W TOUHY AVE,CHICAGO,IL,60666,42.0085364008687,-87.9144284392705,2014-08-21,Pass,33,"FOOD AND NON-FOOD CONTACT EQUIPMENT UTENSILS CLEAN, FREE OF ABRASIVE DETERGENTS","INTERIOR ICE MACHINE , STORAGE SHELVES AND CABINETS NOT CLEAN. INSTRUCTED TO DETAIL CLEAN AND SANITIZE."
1493926,MCDONALD'S,2328103,600 N CLARK ST,CHICAGO,IL,60654,41.8924640329927,-87.631294885907,2014-08-22,Pass w/ Conditions,33,"FOOD AND NON-FOOD CONTACT EQUIPMENT UTENSILS CLEAN, FREE OF ABRASIVE DETERGENTS",CORRECTED
1494050,MCDONALD'S CORPORATION (MCDONALD'S (T3 HK FOOD COURT)),1140128,11601 W TOUHY AVE,CHICAGO,IL,60666,42.0085364008687,-87.9144284392705,2014-08-26,Pass,33,"FOOD AND NON-FOOD CONTACT EQUIPMENT UTENSILS CLEAN, FREE OF ABRASIVE DETERGENTS",SHELVES UNDER PREP COUNTER NOT CLEAN. INSTRUCTED TO DETAIL CLEAN DAILY AND SANITIZE ALL FOOD CONTACT SURFACES.
1496256,MCDONALD'S,1302136,70 E GARFIELD BLVD,CHICAGO,IL,60615,41.7947940242651,-87.6229151035504,2014-09-03,Pass w/ Conditions,2,FACILITIES TO MAINTAIN PROPER TEMPERATURE,"FOUND THE TWO DOOR SALAD COOLER AT 81.0F, A ONE DOOR PREP COOLER AT SALAD STATION AT 73.4F AND A TWO DOOR FREEZER AT 43.5F.   INSTRUCTED THAT REFRIGERATION UNITS MUST BE ABLE TO MAINTAIN PRODUCT AT 40F OR BELOW AND FREEZERS MUST HOLD PRODUCTS AT 0F OR BELOW.  CRITICAL VIOLATION 7-38-005(A) ISSUED."
1496256,MCDONALD'S,1302136,70 E GARFIELD BLVD,CHICAGO,IL,60615,41.7947940242651,-87.6229151035504,2014-09-03,Pass w/ Conditions,3,"POTENTIALLY HAZARDOUS FOOD MEETS TEMPERATURE REQUIREMENT DURING STORAGE, PREPARATION DISPLAY AND SERVICE","FOUND 30 CONTAINERS OF YOGURT IN THE SALAD COOLER MENTIONED ABOVE AT 76.0F.  FOUND 3 LBS ONIONS AND 8 LBS OF LETTUCE IN ONE DOOR PREP COOLER MENTIONED ABOVE, SAUSAGE AND MCGRIDDLE BUNS IN THE TWO DOOR FREEZER MENTIONED ABOVE.  THE FROZEN ITEMS WERE STILL COLD ENOUGH TO SAVAGE AT 38F; INSTRUCTED TO PLACE IN THE WALK-IN COOLER AND DO NOT REFREEZE.  ALL OTHER ITEMS WERE DISGARDED BY THE MANAGER WITH A WEIGHT OF 38 LBS AND A VALUE OF $40.00  .  CRITICAL VIOLATION 7-38-005(A) ISSUED."
1496256,MCDONALD'S,1302136,70 E GARFIELD BLVD,CHICAGO,IL,60615,41.7947940242651,-87.6229151035504,2014-09-03,Pass w/ Conditions,33,"FOOD AND NON-FOOD CONTACT EQUIPMENT UTENSILS CLEAN, FREE OF ABRASIVE DETERGENTS","MUST CLEAN AND MAINTAIN THE FOLLOWING: EXTERIOR SURFACES OF THE COOKING EQUIPMENT, INTERIOR BOTTOM OF FRYERS TO REMOVE GREASE, INTERIOR BOTTOM PANEL OF ICE MACHINE, INTERIORS OF REFRIGERATION UNITS, FRONT COUNTERS UNDER ALL EQUIPMENT IN FRONT SERVING AND BEVERAGE STATIONS."
1496453,MCDONALD'S #11290,33144,7601 S CICERO AVE,CHICAGO,IL,60652,41.7546601243937,-87.7413847586052,2014-09-08,Pass w/ Conditions,2,FACILITIES TO MAINTAIN PROPER TEMPERATURE,FOUND THE PREP REACH IN COOLER NOT ABLE TO MAINTAIN THE REQUIRED TEMPERATURE (40F OR LOWER). INSTRUCTED TO HAVE UNIT SERVICED SO THAT IT MAINTAINS THE PROPER TEMPERATURE. CRITICAL VIOLATION 7-38-005 (A)
1496453,MCDONALD'S #11290,33144,7601 S CICERO AVE,CHICAGO,IL,60652,41.7546601243937,-87.7413847586052,2014-09-08,Pass w/ Conditions,3,"POTENTIALLY HAZARDOUS FOOD MEETS TEMPERATURE REQUIREMENT DURING STORAGE, PREPARATION DISPLAY AND SERVICE","FOUND POTENTIALLY HAZARDOUS FOODS STORED IN THE ABOVE COOLER AT IMPROPER TEMPERATURES. LIQUID EGGS (50.6F), EGG FOLD (53.1F), RAW EGGS (51.5F), CANADIAN HAM (52.5F), TARTAR SAUCE (53.4F), MAYONNAISE SAUCE (52.4F), COOKED ONIONS (56.4F) AND BURRITO MIX (51.1F). INSTRUCTED TO KEEP COLD FOODS AT 40F OR LOWER. CRITICAL VIOLATION 7-38-005(A)"
1496453,MCDONALD'S #11290,33144,7601 S CICERO AVE,CHICAGO,IL,60652,41.7546601243937,-87.7413847586052,2014-09-08,Pass w/ Conditions,33,"FOOD AND NON-FOOD CONTACT EQUIPMENT UTENSILS CLEAN, FREE OF ABRASIVE DETERGENTS",FOUND THE INTERIOR OF THE COOKING EQUIPMENT AND THE STORAGE RACKS INSIDE THE COOLERS IN NEED OF CLEANING. INSTRUCTED TO DETAIL CLEAN AND MAINTAIN ALL.
1496646,MCDONALD'S #4305 (MCDONALD'S),1922105,4844 N LINCOLN AVE,CHICAGO,IL,60625,41.9697537205744,-87.6894034367043,2014-09-12,Pass,33,"FOOD AND NON-FOOD CONTACT EQUIPMENT UTENSILS CLEAN, FREE OF ABRASIVE DETERGENTS",VIOLATION #33 NOW CORRECTED.
1496685,MCDONALD'S,1474116,1443 E 87TH ST,CHICAGO,IL,60619,41.7367599255433,-87.588841701402,2014-09-15,Pass w/ Conditions,33,"FOOD AND NON-FOOD CONTACT EQUIPMENT UTENSILS CLEAN, FREE OF ABRASIVE DETERGENTS","CLEAN INTERIOR BOTTOM COMPARTMENT OF DEEP FRYERS,HAS GREASE BUILD-UP INSIDE COMPARTMENTS,INSTRUCTED TO CLEAN AND MAINTAIN EQUIPMENT  "
1497247,MCDONALD'S #6491 (MCDONALD'S),2009449,36 W RANDOLPH ST,CHICAGO,IL,60601,41.8845908469767,-87.6292360117108,2014-09-29,Pass,33,"FOOD AND NON-FOOD CONTACT EQUIPMENT UTENSILS CLEAN, FREE OF ABRASIVE DETERGENTS","DUST BUILD UP AT WALK-IN COOLER INSULATION LINES, INSTRUCTED TO CLEAN AND MAINTAIN."
1497473,MCDONALD'S,1332921,2005 W CHICAGO AVE,CHICAGO,IL,60622,41.8957965124416,-87.6773227997198,2014-10-02,Pass w/ Conditions,2,FACILITIES TO MAINTAIN PROPER TEMPERATURE,"REACH-IN COOLER IN DRIVE THRU AREA NOT MAINTAINING PROPER TEMPERATURE 52.1F, INSTRUCTED MANAGER TO REPAIR. REACH-IN COOLER MUST MAINTAIN 40F OR BELOW. COOLER IS TAGGED HELD FOR INSPECTION AND MUST NOT BE USED UNTIL REINSPECTED BY CHICAGO DEPARTMENT OF HEALTH. CRITICAL VIOLATION 7-38-005A CITATION ISSUED."
1497473,MCDONALD'S,1332921,2005 W CHICAGO AVE,CHICAGO,IL,60622,41.8957965124416,-87.6773227997198,2014-10-02,Pass w/ Conditions,3,"POTENTIALLY HAZARDOUS FOOD MEETS TEMPERATURE REQUIREMENT DURING STORAGE, PREPARATION DISPLAY AND SERVICE","OBSERVED MILK DISPLAYED FOR SALE AND STORED AT IMPROPER TEMPERATURE 53.7-54F IN REACH-IN COOLER IN DRIVE THRU AREA. INSTRUCTED MANAGER TO DISCARD APPROXIMATELY 30 HALF PINTS OF MILK. MILK MUST MAINTAIN 40F OR BELOW DURING STORAGE, DISPLAY, AND SERVICE. CRITICAL VIOLATION 7-38-005B1 CITATION ISSUED."
1497473,MCDONALD'S,1332921,2005 W CHICAGO AVE,CHICAGO,IL,60622,41.8957965124416,-87.6773227997198,2014-10-02,Pass w/ Conditions,33,"FOOD AND NON-FOOD CONTACT EQUIPMENT UTENSILS CLEAN, FREE OF ABRASIVE DETERGENTS","CLEAN INTERIOR AND EXTERIOR OF ICE DISPENSER ON SELF SERVICE POP MACHINE IN DINING AREA, MCCAFE, CREAMER, AND JUICE BEVERAGE MACHINE NOZZLES AND SPIGOTS BEHIND COUNTER, PREP COOLERS AND FREEZERS."
1497490,MCDONALD'S,2031962,1951 E 95TH ST,CHICAGO,IL,60617,41.7223544482932,-87.5757780641475,2014-10-03,Pass,33,"FOOD AND NON-FOOD CONTACT EQUIPMENT UTENSILS CLEAN, FREE OF ABRASIVE DETERGENTS","CLEAN THE FOLLOWING: CABINET INTERIORS OF ALL DEEP FRYERS, SIDES OF ALL COOKING EQUIPMENT IN FOOD PREP AREA, FILTERS AND HOOD ABOVE COOKING EQUIPMENT, COUNTERS AND SHELVES IN FRONT DRIVE-THRU AREA, AND TABLE IN BREAK ROOM AREA.  "
1497562,MCDONALD'S,1969968,23 S CLARK ST,CHICAGO,IL,60603,41.8813862844238,-87.6307195439334,2014-10-07,Pass,33,"FOOD AND NON-FOOD CONTACT EQUIPMENT UTENSILS CLEAN, FREE OF ABRASIVE DETERGENTS","BOTTOM SHELF OF REACH-IN FREEZER NOT CLEAN, RUBBER GASKETS NOT CLEAN, INSTRUCTED TO CLEAN AND MAINTAIN."
1497720,MCDONALD'S (MCDONALD'S EXPRESS),2350042,3020-3022 S HALSTED ST,CHICAGO,IL,60608,41.8392068322871,-87.6464535456406,2014-10-09,Pass,33,"FOOD AND NON-FOOD CONTACT EQUIPMENT UTENSILS CLEAN, FREE OF ABRASIVE DETERGENTS","GREASE BUILD-UP ON HOOD/FILTERS ABOVE FRYERS,KNOZZLES AT THE FOUNTAIN DRINK STATION (CUSTOMER AREA) IN NEED FOR CLEANING AND MAINTAIN."
1497930,MCDONALD'S,1985411,300 N WELLS ST,CHICAGO,IL,60654,41.8875559103703,-87.6341176575025,2014-10-17,Pass,33,"FOOD AND NON-FOOD CONTACT EQUIPMENT UTENSILS CLEAN, FREE OF ABRASIVE DETERGENTS","NOTED A SLIGHT DARK DISCOLORATION INSIDE THE UPPER COMPARTMENT OF ICE MACHINE. INSTRUCTED TO CLEAN,SANITIZE AND MAINTAIN."
1498132,MCDONALD'S,1302136,70 E GARFIELD BLVD,CHICAGO,IL,60615,41.7947940242651,-87.6229151035504,2014-10-23,Pass,33,"FOOD AND NON-FOOD CONTACT EQUIPMENT UTENSILS CLEAN, FREE OF ABRASIVE DETERGENTS",CORRECTED.
1501304,MCDONALD'S #11290,33144,7601 S CICERO AVE,CHICAGO,IL,60652,41.7546601243937,-87.7413847586052,2014-10-28,Pass w/ Conditions,33,"FOOD AND NON-FOOD CONTACT EQUIPMENT UTENSILS CLEAN, FREE OF ABRASIVE DETERGENTS","FOUND THE INTERIOR OF THE COOKING EQUIPMENT AND THE STORAGE RACKS INSIDE THE COOLERS IN NEED OF CLEANING. INSTRUCTED TO DETAIL CLEAN AND MAINTAIN ALL.  "
1501490,MCDONALD'S,1519152,6355 S DR MARTIN LUTHER KING JR DR,CHICAGO,IL,60637,41.7785971834236,-87.6154413879464,2014-11-05,Pass,33,"FOOD AND NON-FOOD CONTACT EQUIPMENT UTENSILS CLEAN, FREE OF ABRASIVE DETERGENTS",VIOLATION CORRECTED
1501527,MCDONALD'S RESTAURANT,1678414,6336 S ASHLAND AVE,CHICAGO,IL,60636,41.7783609760376,-87.6643368634279,2014-11-05,Pass,33,"FOOD AND NON-FOOD CONTACT EQUIPMENT UTENSILS CLEAN, FREE OF ABRASIVE DETERGENTS",THE MENS URINALS IN THE TOILET ROOM NOT CLEAN.  MUST CLEAN AND SANITIZE THEM.
1501689,MCDONALD'S,2031962,1951 E 95TH ST,CHICAGO,IL,60617,41.7223544482932,-87.5757780641475,2014-11-10,Pass,33,"FOOD AND NON-FOOD CONTACT EQUIPMENT UTENSILS CLEAN, FREE OF ABRASIVE DETERGENTS","CLEAN THE FOLLOWING: CABINET INTERIORS OF ALL DEEP FRYERS, SIDES OF ALL COOKING EQUIPMENT IN FOOD PREP AREA, FILTERS AND HOOD ABOVE COOKING EQUIPMENT, COUNTERS AND SHELVES IN FRONT DRIVE-THRU AREA, AND TABLE IN BREAK ROOM AREA.   "
1501872,MCDONALD'S,2002814,8415 S PULASKI RD,CHICAGO,IL,60652,41.7398605220475,-87.7214563026118,2014-11-17,Pass,11,"ADEQUATE NUMBER, CONVENIENT, ACCESSIBLE, DESIGNED, AND MAINTAINED",CORRECTED. EXPOSED HAND WASHING SINK IS FIXED.
1506266,MC DONALD'S #5697 (MCDONALD'S),2341074,3540 N HARLEM AVE,CHICAGO,IL,60634,41.9446635395432,-87.8071294830706,2014-11-14,Pass,33,"FOOD AND NON-FOOD CONTACT EQUIPMENT UTENSILS CLEAN, FREE OF ABRASIVE DETERGENTS","Non food contact surfaces of ice machine not clean, needs detailed cleaning(crevices), non food contact surfaces of walk in cooler shelving/racks not clean, need detailed cleaning(crevices).  bsmt storage shelving/racks not clean, need detailed cleaning(crevices)."
1506352,MCDONALD'S,2349545,3241 W PETERSON AVE,CHICAGO,IL,60659,41.9902548481319,-87.710763243534,2015-02-04,Pass,33,"FOOD AND NON-FOOD CONTACT EQUIPMENT UTENSILS CLEAN, FREE OF ABRASIVE DETERGENTS","Non food contact surfaces of walk in cooler shelving/racks not clean, need detailed cleaning(crevices), bsmt storage shelving not clean, need detailed cleaning."
1506381,MCDONALD'S RESTAURANT (MCDONALD'S),2384973,6900 N WESTERN AVE,CHICAGO,IL,60645,42.0068512375709,-87.6902606045278,2015-02-25,Pass,33,"FOOD AND NON-FOOD CONTACT EQUIPMENT UTENSILS CLEAN, FREE OF ABRASIVE DETERGENTS","Non food contact surfaces of walk in cooler shelving/racks not clean, need detailed cleaning(crevices).  Non food contact surfaces of ice machine not clean, need detailed cleaning(crevices).  Walk in freezer shelving/racks not clean, need cleaning(detailed).  "
1506383,MCDONALD'S RESTAURANT (MCDONALD'S),2384976,3122 W TOUHY AVE,CHICAGO,IL,60645,42.011998577874,-87.7077027456968,2015-02-25,Pass,33,"FOOD AND NON-FOOD CONTACT EQUIPMENT UTENSILS CLEAN, FREE OF ABRASIVE DETERGENTS","Non food contact surfaces of ice machine not clean, needs detailed cleaning(crevices)."
1506542,MCDONALD'S,2349545,3241 W PETERSON AVE,CHICAGO,IL,60659,41.9902548481319,-87.710763243534,2015-06-11,Pass,33,"FOOD AND NON-FOOD CONTACT EQUIPMENT UTENSILS CLEAN, FREE OF ABRASIVE DETERGENTS","Reach in cooler shelving, racks not clean, need cleaning(detailed), cooler door tracks not clean, need cleaning(crevices).  Prep table lower shelving, drawers not clean, need cleaning(detailed)."
1506714,MCDONALD'S RESTAURANT (MCDONALD'S),2384973,6900 N WESTERN AVE,CHICAGO,IL,60645,42.0068512375709,-87.6902606045278,2015-09-28,Pass,33,"FOOD AND NON-FOOD CONTACT EQUIPMENT UTENSILS CLEAN, FREE OF ABRASIVE DETERGENTS","Coffee station area by blender area not clean, need detailed cleaning(crevices).  Walk in cooler shelving/racks not clean, need cleaning(crevices).  Prep counter area not clean, need detailed cleaning)(crevices).  Rear storage area shelving/racks not clean, need detailed cleaning(crevices)."
1508212,MCDONALD'S,1943516,6560 S STONY ISLAND AVE,CHICAGO,IL,60637,41.7752200873081,-87.5864366257481,2014-11-13,Pass,33,"FOOD AND NON-FOOD CONTACT EQUIPMENT UTENSILS CLEAN, FREE OF ABRASIVE DETERGENTS","OBSERVED THE FRONT DRIP TRAY'S NOT CLEAN AT COFFEE STATION, ORANGE MACHINE, INSTRUCTED TO CLEAN. ALSO CLEAN AND SANITIZE COFFEE MACHINE IN DRIVE THRU ABOVE THE COFFEE MACHINE."
1512261,MCDONALD'S RESTAURANT,1678414,6336 S ASHLAND AVE,CHICAGO,IL,60636,41.7783609760376,-87.6643368634279,2014-11-24,Pass,33,"FOOD AND NON-FOOD CONTACT EQUIPMENT UTENSILS CLEAN, FREE OF ABRASIVE DETERGENTS",THE MENS URINALS IN THE TOILET ROOM NOT CLEAN. MUST CLEAN AND SANITIZE THEM.
1512580,MCDONALD'S,1519152,6355 S DR MARTIN LUTHER KING JR DR,CHICAGO,IL,60637,41.7785971834236,-87.6154413879464,2014-12-04,Pass,33,"FOOD AND NON-FOOD CONTACT EQUIPMENT UTENSILS CLEAN, FREE OF ABRASIVE DETERGENTS","OBSERVED THE SMOOTHIE MACHINE AND THE ORAGE JUICE DRIP TRAYS NOT CLEAN, INSTRUCTED TO CLEAN.ALSO CLEAN THE REAR PREP TABLE STORAGE SHELVES."
1512863,MCDONALD'S,1620828,1454 W 47TH ST,CHICAGO,IL,60609,41.8087493740108,-87.6623069600337,2014-12-11,Pass,33,"FOOD AND NON-FOOD CONTACT EQUIPMENT UTENSILS CLEAN, FREE OF ABRASIVE DETERGENTS","OBSERVED THE MC CAFE COOLER INTERIOR NOT CLEAN, ALSO THE DRIP TRAY UNDER THE MIXER, INSTRUCTED TO CLEAN."
1513148,MCDONALD'S #6310,33143,4704 S CICERO AVE,CHICAGO,IL,60638,41.8074171973865,-87.7432946955316,2014-12-17,Pass,33,"FOOD AND NON-FOOD CONTACT EQUIPMENT UTENSILS CLEAN, FREE OF ABRASIVE DETERGENTS",INSTRUCTED TO DETAIL CLEAN AND MAINTAIN THE INTERIOR OF THE DEEP FRYERS.
1515222,MCDONALD'S,1445833,740 E 47TH ST,CHICAGO,IL,60653,41.8096286978775,-87.607369737858,2014-12-18,Pass,33,"FOOD AND NON-FOOD CONTACT EQUIPMENT UTENSILS CLEAN, FREE OF ABRASIVE DETERGENTS",WIPE INTERIOR PANEL OF BOTH ICE MACHINES.
1515326,MCDONALD'S,65404,5253 S PULASKI RD,CHICAGO,IL,60632,41.7971097354294,-87.7231243505289,2014-12-22,Pass,33,"FOOD AND NON-FOOD CONTACT EQUIPMENT UTENSILS CLEAN, FREE OF ABRASIVE DETERGENTS",VIOLATION CORRECTED
1515438,MCDONALD'S,1765916,5733 S KEDZIE AVE,CHICAGO,IL,60629,41.788891434222,-87.7032795921656,2014-12-24,Pass,33,"FOOD AND NON-FOOD CONTACT EQUIPMENT UTENSILS CLEAN, FREE OF ABRASIVE DETERGENTS","THE FOLLOWING IN NEED OF CLEANING: THE HOOD,FILTERS,FRYERS THICK WITH GREASE BUILDUP,ALL DRINK DISPENSOR NOZZLES, SIDES OF ALL THE EQUIPMENT.   MUST CLEAN AND MAINTAIN."
1515597,MCDONALD'S,2163913,1378-84 W LAKE ST,CHICAGO,IL,60607,41.8855365865049,-87.6618227108202,2015-01-06,Pass w/ Conditions,33,"FOOD AND NON-FOOD CONTACT EQUIPMENT UTENSILS CLEAN, FREE OF ABRASIVE DETERGENTS",CLEAN WHITE PLASTIC PANEL INSIDE LARGE ICE MACHINE IN REAR(PINKISH RESIDUE OBSERVED.
1515844,MCDONALD'S,1445833,740 E 47TH ST,CHICAGO,IL,60653,41.8096286978775,-87.607369737858,2015-01-13,Pass,33,"FOOD AND NON-FOOD CONTACT EQUIPMENT UTENSILS CLEAN, FREE OF ABRASIVE DETERGENTS","INTERIOR SURFACES OF ICE MAKERS NOT CLEAN ALONG UPPER PANEL, INSTRUCTED TO CLEAN AND MAINTAIN."
1515874,MCDONALD'S,1519152,6355 S DR MARTIN LUTHER KING JR DR,CHICAGO,IL,60637,41.7785971834236,-87.6154413879464,2015-01-13,Pass,33,"FOOD AND NON-FOOD CONTACT EQUIPMENT UTENSILS CLEAN, FREE OF ABRASIVE DETERGENTS","OBSERVED THE SMOOTHIE MACHINE AND THE ORAGE JUICE DRIP TRAYS NOT CLEAN, INSTRUCTED TO CLEAN.ALSO CLEAN THE REAR PREP TABLE STORAGE SHELVES.  "
1515874,MCDONALD'S,1519152,6355 S DR MARTIN LUTHER KING JR DR,CHICAGO,IL,60637,41.7785971834236,-87.6154413879464,2015-01-13,Pass,33,"FOOD AND NON-FOOD CONTACT EQUIPMENT UTENSILS CLEAN, FREE OF ABRASIVE DETERGENTS",INSTRUCTED TO CLEAN AND MAINTAIN THE INTERIOR OF THE DEEP FRYERS.
1515999,MCDONALD'S,1045468,6737 S PULASKI RD,CHICAGO,IL,60629,41.7702902639118,-87.7224013240254,2015-01-16,Pass,33,"FOOD AND NON-FOOD CONTACT EQUIPMENT UTENSILS CLEAN, FREE OF ABRASIVE DETERGENTS","OBSERVED CONSTRUCTION DUST ON FOOD/NON FOOD CONTACT SURFACES,INSTRUCTED TO CLEAN AND SANITIZE."
1516486,MCDONALD'S,2391003,4704 S CICERO AVE,CHICAGO,IL,60638,41.8074171973865,-87.7432946955316,2015-09-04,Pass,11,"ADEQUATE NUMBER, CONVENIENT, ACCESSIBLE, DESIGNED, AND MAINTAINED",VIOLATION CORRECTED HAND SINK INSTALLED IN DISH AREA.
1516506,MCDONALD'S,61707,6720 W ARCHER AVE,CHICAGO,IL,60638,41.7922933994001,-87.7901127088606,2015-09-14,Pass,33,"FOOD AND NON-FOOD CONTACT EQUIPMENT UTENSILS CLEAN, FREE OF ABRASIVE DETERGENTS",VIOLATION CORRECTED.
1516644,MCDONALD'S,1765916,5733 S KEDZIE AVE,CHICAGO,IL,60629,41.788891434222,-87.7032795921656,2015-10-30,Pass,33,"FOOD AND NON-FOOD CONTACT EQUIPMENT UTENSILS CLEAN, FREE OF ABRASIVE DETERGENTS","OBSERVED THE FOLLOWING NOT CLEAN, REAR FREEZER INTERIOR, NEXT TO THE CHICKEN FRYERS, CLEAN FRONT CABINET UNDER THE KETCHUP DISPENSOR, CAFE DRIP TRAY,AND BLENDER AREA, AND FRONT MILK COOLER INTERIOR, INSTRUCTED TO CLEAN.."
1516645,MCDONALD'S #11290,33144,7601 S CICERO AVE,CHICAGO,IL,60652,41.7546601243937,-87.7413847586052,2015-11-03,Pass,33,"FOOD AND NON-FOOD CONTACT EQUIPMENT UTENSILS CLEAN, FREE OF ABRASIVE DETERGENTS","OBSERVED THE INTERIOR OF THE FREEZER WITH FOOD CRUMBS, INSTRUCTED TO CLEAN."
1516697,MCDONALD'S,2002814,8415 S PULASKI RD,CHICAGO,IL,60652,41.7398605220475,-87.7214563026118,2015-11-30,Pass,33,"FOOD AND NON-FOOD CONTACT EQUIPMENT UTENSILS CLEAN, FREE OF ABRASIVE DETERGENTS","OBSERVED FRONT DRIP TRAYS NOT CLEAN ORANGE JUICE, AND COFFEE PREP ATATION, INSTRUCTED TO CLEAN. ALSO CLEAN SYRUP PUMPS FRONT COFFEE SECTION."
1522512,MCDONALD'S,1490035,6900 S LAFAYETTE AVE,CHICAGO,IL,60621,41.769155335336,-87.6268126762725,2015-01-30,Pass w/ Conditions,33,"FOOD AND NON-FOOD CONTACT EQUIPMENT UTENSILS CLEAN, FREE OF ABRASIVE DETERGENTS",MUST CLEAN THE INTERIOR OF ALL REACH IN COOLERS TO REMOVE SPILLS AND CLEAN THE EXTERIOR OF ALL COOKING EQUIPMENT TO REMOVE GREASE.
1522589,MCDONALD'S CORPORATION,1243048,23 N WESTERN AVE,CHICAGO,IL,60612,41.8819144601214,-87.6863038518981,2015-02-03,Pass,33,"FOOD AND NON-FOOD CONTACT EQUIPMENT UTENSILS CLEAN, FREE OF ABRASIVE DETERGENTS",DETAIL CLEAN THE TOP OF THE GRILL AND THE INTERIOR OF THE 4 DOOR FOOD PREP COOLER.
1527292,MCDONALD'S RESTAURANT,2384975,3154 W FOSTER AVE,CHICAGO,IL,60625,41.975859694203,-87.7084649677299,2015-02-25,Pass,11,"ADEQUATE NUMBER, CONVENIENT, ACCESSIBLE, DESIGNED, AND MAINTAINED","EXPOSED HAND SINK INSTALLED AT FRONT PREP AREA, VIOLATION NOW CORRECTED AND ABATED,"
1527371,MCDONALD'S 26371 (MCDONALD'S),2304342,36 W 95TH ST,CHICAGO,IL,60628,41.7218087646306,-87.6252418946853,2015-02-27,Pass,33,"FOOD AND NON-FOOD CONTACT EQUIPMENT UTENSILS CLEAN, FREE OF ABRASIVE DETERGENTS",INSTRUCTED TO CLEAN AND MAINTAIN THE RUBBER GASKETS ON THE PREP REACH IN COOLERS.
1527548,MCDONALD'S,1490035,6900 S LAFAYETTE AVE,CHICAGO,IL,60621,41.769155335336,-87.6268126762725,2015-03-05,Pass,33,"FOOD AND NON-FOOD CONTACT EQUIPMENT UTENSILS CLEAN, FREE OF ABRASIVE DETERGENTS",MUST CLEAN THE INTERIOR OF ALL REACH IN COOLERS TO REMOVE SPILLS AND CLEAN THE EXTERIOR OF ALL COOKING EQUIPMENT TO REMOVE GREASE.
1527594,KARAVITES REST INC (MCDONALD'S),11136,5130 N SHERIDAN RD,CHICAGO,IL,60640,41.976283055914,-87.6551477688298,2015-03-06,Pass w/ Conditions,33,"FOOD AND NON-FOOD CONTACT EQUIPMENT UTENSILS CLEAN, FREE OF ABRASIVE DETERGENTS",INSTRUCTED TO DETAIL CLEAN INTERIOR SURFACE OF THE 2-DOOR FREEZER TO REMOVE FOOD DEBRIS BUILDUP.
1527793,MCDONALD'S RESTAURANT,1193659,5015 W MADISON ST,CHICAGO,IL,60644,41.8803177115273,-87.750746355478,2015-03-12,Pass,33,"FOOD AND NON-FOOD CONTACT EQUIPMENT UTENSILS CLEAN, FREE OF ABRASIVE DETERGENTS",CORRECTED.
1528006,MCDONALD'S RESTAURANT,1678414,6336 S ASHLAND AVE,CHICAGO,IL,60636,41.7783609760376,-87.6643368634279,2015-03-19,Pass,33,"FOOD AND NON-FOOD CONTACT EQUIPMENT UTENSILS CLEAN, FREE OF ABRASIVE DETERGENTS","OBSERVED THE FRAPPE INTERIOR OF COOLER AND WHIP CREAM DOOR NOT CLEAN, AND THE EXTERIOR OF THE FRONT FRYERS, INSTRUCTED TO CLEAN.OBSERVED THE TOP OF THE FRAPPE MACHINE, ICE CREAM SYRUP CONTAINERS NOT CLEAN, INSTRUCTED TO CLEAN/ SANITIZE."
1532421,MCDONALD'S,1679682,11421 S HALSTED ST,CHICAGO,IL,60628,41.6862492664438,-87.6420421730029,2015-03-30,Pass,33,"FOOD AND NON-FOOD CONTACT EQUIPMENT UTENSILS CLEAN, FREE OF ABRASIVE DETERGENTS",INSTRUCTED TO CLEAN AND MAINTAIN THE INTERIOR OF THE DEEP FRYERS.
1532468,MCDONALD'S,1490035,6900 S LAFAYETTE AVE,CHICAGO,IL,60621,41.769155335336,-87.6268126762725,2015-03-31,Pass,33,"FOOD AND NON-FOOD CONTACT EQUIPMENT UTENSILS CLEAN, FREE OF ABRASIVE DETERGENTS","MUST DETAIL CLEAN AND SANITIZE ALL EQUIPMENT INCLUDING CORDS IN THE DRIVE THRU: COUNTER TOPS,SHELVING,COOLERS AND EXTERIOR OF ALL COOKING EQUIPMENT TO REMOVE GREASE AND DEBRIS."
1532892,MCDONALD'S,2031962,1951 E 95TH ST,CHICAGO,IL,60617,41.7223544482932,-87.5757780641475,2015-04-14,Pass,33,"FOOD AND NON-FOOD CONTACT EQUIPMENT UTENSILS CLEAN, FREE OF ABRASIVE DETERGENTS","CLEAN INSIDE THE TRAY AT THE SOFT SERVE MACHINE,INSTRUCTED TO CLEAN AND MAINTA8N EQUIPMENT"
1533041,MCDONALD'S,1170058,1657 W 95TH ST,CHICAGO,IL,60643,41.7210731421679,-87.6648983733961,2015-04-17,Pass,33,"FOOD AND NON-FOOD CONTACT EQUIPMENT UTENSILS CLEAN, FREE OF ABRASIVE DETERGENTS",INSTRUCTED TO CLEAN AND MAINTAIN THE INTERIOR OF THE DEEP FRYERS.
1533156,MCDONALD'S,33706,3200 W ROOSEVELT RD,CHICAGO,IL,60624,41.8665138881923,-87.7057335990255,2015-04-21,Pass,33,"FOOD AND NON-FOOD CONTACT EQUIPMENT UTENSILS CLEAN, FREE OF ABRASIVE DETERGENTS","DETAIL CLEAN THE FOLLOWING ITEMS: COOLER DOORS, INTERIOR OF PREP COOLERS, PREP TABLES AND SHELVES, FRY HOPPER, 1 COMPARTMENT PREP SINK, CUP DISPENSERS, COFFEE MACHINES, SHAKE MACHINE, FOOD STORAGE CONTAINERS INCLUDING SYRUP, STORAGE TRAYS FOR SYRUP CONTAINERS, SUGAR SPOON WITH ENCRUSTED SUGAR, ICE BINS AND INTERIOR OF ICE MACHINE, MCFLURRY MACHINE, COFFEE POTS, BEVERAGE LINES."
1533162,MCDONALD'S,1490035,6900 S LAFAYETTE AVE,CHICAGO,IL,60621,41.769155335336,-87.6268126762725,2015-04-22,Pass,33,"FOOD AND NON-FOOD CONTACT EQUIPMENT UTENSILS CLEAN, FREE OF ABRASIVE DETERGENTS","MUST DETAIL CLEAN AND SANITIZE ALL EQUIPMENT INCLUDING CORDS IN THE DRIVE THRU: COUNTER TOPS,SHELVING,COOLERS AND EXTERIOR OF ALL COOKING EQUIPMENT TO REMOVE GREASE AND DEBRIS.  "
1533239,MCDONALD'S,1332928,1664 S BLUE ISLAND AVE,CHICAGO,IL,60608,41.858128211052,-87.6611125635149,2015-11-05,Pass w/ Conditions,12,"HAND WASHING FACILITIES: WITH SOAP AND SANITARY HAND DRYING DEVICES, CONVENIENT AND ACCESSIBLE TO FOOD PREP AREA",OBSERVED NO PAPER TOWELS OR SANITARY HAND DRYING DEVICES AT EXPOSED SINKS IN FRONT AND REAR PREP AREA. INSTRUCTED MANAGER TO PROVIDE PAPER TOWELS/SANITARY HAND DRYING DEVICES AT ALL EXPOSED SINKS FOR PROPER HAND DRYING. CRITICAL VIOLATION 7-38-030
1533239,MCDONALD'S,1332928,1664 S BLUE ISLAND AVE,CHICAGO,IL,60608,41.858128211052,-87.6611125635149,2015-11-05,Pass w/ Conditions,33,"FOOD AND NON-FOOD CONTACT EQUIPMENT UTENSILS CLEAN, FREE OF ABRASIVE DETERGENTS","CLEAN INTERIOR AND EXTERIOR OF ALL BEVERAGE MACHINES, MCCAFE, ORANGE JUICE, CREAMER, ETC."
1537695,MCDONALD'S,2204169,207 E 35TH ST,CHICAGO,IL,60616,41.8309527893036,-87.6214491630074,2015-05-06,Pass w/ Conditions,33,"FOOD AND NON-FOOD CONTACT EQUIPMENT UTENSILS CLEAN, FREE OF ABRASIVE DETERGENTS","UPPER  INTERIOR PANNEL OF ICE MAKER NOT CLEAN, INSTRUCTED TO CLEAN AND MAINTAIN."
1537732,MCDONALD'S (MCDONALDS (T3 K9)),64032,11601 W TOUHY AVE,CHICAGO,IL,60666,42.0085364008687,-87.9144284392705,2015-05-06,Pass,33,"FOOD AND NON-FOOD CONTACT EQUIPMENT UTENSILS CLEAN, FREE OF ABRASIVE DETERGENTS","INSTRUCTED TO DETAIL CLEAN THE FOLLOWING: FAN COVERS/SHELVINGS INSIDE THE WALK-IN-COOLER,HOOD/FILTERS ABOVE THE COOKING EQUIPMENTS,KNOZZLES AT FOUNTAIN DRINK STATION AND MAINTAIN.  "
1537861,MCDONALD'S,1332913,2609 S KEDZIE AVE,CHICAGO,IL,60623,41.844202240983,-87.7048869943916,2015-05-11,Pass,33,"FOOD AND NON-FOOD CONTACT EQUIPMENT UTENSILS CLEAN, FREE OF ABRASIVE DETERGENTS",CORRECTED FROM DEC. 2014
1538094,MCDONALD'S,1680019,3855 W LAWRENCE AVE,CHICAGO,IL,60625,41.9681612546391,-87.7253770419993,2015-05-18,Pass,33,"FOOD AND NON-FOOD CONTACT EQUIPMENT UTENSILS CLEAN, FREE OF ABRASIVE DETERGENTS","INTERIOR OF PREP COOLER NOT CLEAN AND INTERIOR PANEL OF ICE MACHINE NOT CLEAN INSTRUCTED TO CLEAN DAILY,"
1547247,MCDONALD'S #4308 (MCDONALD'S),1904304,3867 S ARCHER AVE BLDG,CHICAGO,IL,60632,41.823158345079,-87.6892366472357,2015-05-22,Pass,33,"FOOD AND NON-FOOD CONTACT EQUIPMENT UTENSILS CLEAN, FREE OF ABRASIVE DETERGENTS",INTERIOR BOTTOM OF SALAD COOLER AND TOP EXTERIOR OF SOFT SERVE MACHINE NOT CLEAN. CLEAN SAME AND MAINTAIN.
1547389,MCDONALD'S,1678527,5700 S CICERO AVE,CHICAGO,IL,60638,41.7893293232654,-87.7416456441964,2015-08-14,Pass,33,"FOOD AND NON-FOOD CONTACT EQUIPMENT UTENSILS CLEAN, FREE OF ABRASIVE DETERGENTS","DIPPERWELL AND INTERIOR BOTTOM OF FREEZER NOT CLEAN, DEBRIS. CLEAN SAME AND MAINTAIN. DETAIL AROUND FAUCET HANDLES OF EXPOSED HANDSINKS."
1547462,MCDONALD'S,1874347,6515 S WESTERN AVE,CHICAGO,IL,60636,41.7751165659088,-87.6833858388708,2015-09-21,Pass w/ Conditions,1,"SOURCE SOUND CONDITION, NO SPOILAGE, FOODS PROPERLY LABELED, SHELLFISH TAGS IN PLACE","UNWHOLESOME, UNSOUND FOOD PRODUCT NOTED ON SITE.  OBSERVED TRAY OF  BUNS WITH GREEN MOLD (BUNS DATED 9/15/15) IN REAR STORAGE AREA ON ROLLING CART WHERE ALL BUNS ARE STORED. ALL PRODUCT DISPOSED OF AND DENATURED AT THIS TIME. APPROX 5LBS $20 VALUE. CITAITON ISSUED. 7-38-005B CRITICAL."
1547462,MCDONALD'S,1874347,6515 S WESTERN AVE,CHICAGO,IL,60636,41.7751165659088,-87.6833858388708,2015-09-21,Pass w/ Conditions,33,"FOOD AND NON-FOOD CONTACT EQUIPMENT UTENSILS CLEAN, FREE OF ABRASIVE DETERGENTS",COFFEE BEVERAGE STATION NOT CLEAN. CLEAN SAME.
1547515,MCDONALD'S,1874347,6515 S WESTERN AVE,CHICAGO,IL,60636,41.7751165659088,-87.6833858388708,2015-10-16,Pass,33,"FOOD AND NON-FOOD CONTACT EQUIPMENT UTENSILS CLEAN, FREE OF ABRASIVE DETERGENTS",CORRECTED.
1557250,MCDONALD'S,2428106,29 E 87TH ST,CHICAGO,IL,60619,41.7362554617903,-87.6229175082059,2015-10-01,Pass,33,"FOOD AND NON-FOOD CONTACT EQUIPMENT UTENSILS CLEAN, FREE OF ABRASIVE DETERGENTS","OBSERVED ICE BUILD UP IN WALKIN FREEZER, INSTRUCTED TO DEFROST, SANITIZE AND MAINTAIN."
1566508,MCDONALD'S,33706,3200 W ROOSEVELT RD,CHICAGO,IL,60624,41.8665138881923,-87.7057335990255,2015-08-20,Pass,33,"FOOD AND NON-FOOD CONTACT EQUIPMENT UTENSILS CLEAN, FREE OF ABRASIVE DETERGENTS",CORRECTED.
1567100,MCDONALD'S,61707,6720 W ARCHER AVE,CHICAGO,IL,60638,41.7922933994001,-87.7901127088606,2015-09-03,Pass,33,"FOOD AND NON-FOOD CONTACT EQUIPMENT UTENSILS CLEAN, FREE OF ABRASIVE DETERGENTS","OBSERVED THE FRONT CAF???/DRIVE THRU AREA COUNTER DRIP TRAY'S NOT CLEAN, INSTRUCTED TO CLEAN. ALSO CLEAN  INTERIOR OF THE 2 DOOR FREEZER,AND BISCUIT FREEZER."
1575832,MCDONALD'S RESTAURANT (MCDONALD'S RESTAURANT (T3 H9)),51206,11601 W TOUHY AVE,CHICAGO,IL,60666,42.0085364008687,-87.9144284392705,2015-09-21,Pass,33,"FOOD AND NON-FOOD CONTACT EQUIPMENT UTENSILS CLEAN, FREE OF ABRASIVE DETERGENTS",STORAGE SHELVES UNDER PREP COUNTER NOT CLEAN. INSTRUCTED TO DETAIL CLEAN AND SANITIZE ALL FOOD CONTACT SURFACES.
1575838,MCDONALD'S,1490035,6900 S LAFAYETTE AVE,CHICAGO,IL,60621,41.769155335336,-87.6268126762725,2015-09-21,Pass,33,"FOOD AND NON-FOOD CONTACT EQUIPMENT UTENSILS CLEAN, FREE OF ABRASIVE DETERGENTS",CORRECTED
1575864,MCDONALD'S,2163913,1378-84 W LAKE ST,CHICAGO,IL,60607,41.8855365865049,-87.6618227108202,2015-09-21,Pass w/ Conditions,33,"FOOD AND NON-FOOD CONTACT EQUIPMENT UTENSILS CLEAN, FREE OF ABRASIVE DETERGENTS",ABATED.
1575998,MCDONALD'S,1474116,1443 E 87TH ST,CHICAGO,IL,60619,41.7367599255433,-87.588841701402,2015-09-23,Pass,33,"FOOD AND NON-FOOD CONTACT EQUIPMENT UTENSILS CLEAN, FREE OF ABRASIVE DETERGENTS","OBSERVED DIRT AND DEBRIS IN THE FOLLOWING FOOD AND NON FOOD CONTACT EQUIPMENT; INTERIOR OF WALK-IN FREEZER/COOLER, BEHIND AND UNDER THE FRYER AND GRILL, INTERIOR OF THE SALAD PREP COOLER, BEHIND THE JUICE MACHINE NEAR THE DRIVE THRU WINDOW, INTERIOR OF THE SHAKE MACHINE, UNDER THE 3 COMP SINK, AROUND WASHING MACHINE, IN AND AROUND THE MOP SINK. MAINTAIN SAME."
1578333,MCDONALD'S,1984911,4320 N CICERO AVE,CHICAGO,IL,60641,41.9595750994431,-87.7476456870793,2015-09-30,Pass,33,"FOOD AND NON-FOOD CONTACT EQUIPMENT UTENSILS CLEAN, FREE OF ABRASIVE DETERGENTS",INTERIOR ICE MACHINE UPPER WATER RESERVOIR DIRTY MUST CLEAN.
1578532,MCDONALD'S,1679006,5153 W CHICAGO AVE,CHICAGO,IL,60651,41.8948336616181,-87.7553010646592,2015-10-05,Pass w/ Conditions,33,"FOOD AND NON-FOOD CONTACT EQUIPMENT UTENSILS CLEAN, FREE OF ABRASIVE DETERGENTS","MUST CLEAN AND MAINTAIN THE FOLLOWING: INTERIOR BOTTOMS OF ALL FRYERS, EXTERIOR SURFACES OF GRILL AND INTERIORS OF REACH IN COOLERS."
1578580,MCDONALD'S,1680019,3855 W LAWRENCE AVE,CHICAGO,IL,60625,41.9681612546391,-87.7253770419993,2015-10-06,Pass,33,"FOOD AND NON-FOOD CONTACT EQUIPMENT UTENSILS CLEAN, FREE OF ABRASIVE DETERGENTS",CORRECTED
1578587,MCDONALD'S (MCDONALD'S EXPRESS),2350042,3020-3022 S HALSTED ST,CHICAGO,IL,60608,41.8392068322871,-87.6464535456406,2015-10-06,Pass,33,"FOOD AND NON-FOOD CONTACT EQUIPMENT UTENSILS CLEAN, FREE OF ABRASIVE DETERGENTS","CLEAN INTERIOR AND EXTERIOR OF ALL BEVERAGE MACHINES, JUICE, MCCAFE, CREAMER, ETC."
1583272,MCDONALD'S,1490035,6900 S LAFAYETTE AVE,CHICAGO,IL,60621,41.769155335336,-87.6268126762725,2015-10-21,Pass,33,"FOOD AND NON-FOOD CONTACT EQUIPMENT UTENSILS CLEAN, FREE OF ABRASIVE DETERGENTS","NOTED COUNTER TOPS AND STORAGE COUNTER VERY DIRTY. MUST DETAIL AND SANITIZE AREA TO PREVENT BREEDING PLACE FOR PESTS. MUST DETAIL CLEAN THE EXTERIOR AND INTERIOR OF ALL COOLERS, JUICE,POP AND SMOOTH MACHINE AT THE FRONT COUNTER TO REMOVE SPILLS AND DEBRIS."
1583346,MCDONALDS 812 (MCDONALD'S),2304340,7601 S VINCENNES AVE,CHICAGO,IL,60620,41.7562118830204,-87.6321305421237,2015-10-22,Pass,33,"FOOD AND NON-FOOD CONTACT EQUIPMENT UTENSILS CLEAN, FREE OF ABRASIVE DETERGENTS",NOTED THE TOP AND THE INTERIOR OF THE SMALL REACH IN COOLER DIRTY. MUST CLEAN TO REMOVE SPILLS AND DEBRIS. ALSO MUST CLEAN THE EXTERIOR OR EQUIPMENT IN THE PREP AREA TO REMOVE DEBRIS.
1583848,MCDONALD'S RESTAURANTS (MCDONALD'S),2423993,8321 S ASHLAND AVE,CHICAGO,IL,60620,41.7424208244385,-87.6630911433338,2015-11-04,Pass,33,"FOOD AND NON-FOOD CONTACT EQUIPMENT UTENSILS CLEAN, FREE OF ABRASIVE DETERGENTS",CORRECTED
1584016,MCDONALD'S RESTAURANTS,1884173,144 S WABASH AVE,CHICAGO,IL,60603,41.8797188963466,-87.6262811454758,2015-11-06,Pass,33,"FOOD AND NON-FOOD CONTACT EQUIPMENT UTENSILS CLEAN, FREE OF ABRASIVE DETERGENTS",VIOLATION CORRECTED
1584111,MCDONALD'S RESTAURANT,1225984,6125 N MILWAUKEE AVE,CHICAGO,IL,60646,41.9928754427605,-87.7835214845884,2015-11-09,Pass,33,"FOOD AND NON-FOOD CONTACT EQUIPMENT UTENSILS CLEAN, FREE OF ABRASIVE DETERGENTS","FRONT STORAGE CABINETS UNDER SODA MACHINE, SODA NOZZLES AND STORAGE SHELF IN REAR NEXT TO SYRUP NOT CLEAN. INSTRUCTED TO DETAIL CLEAN AND SANITIZE ALL FOOD CONTACT SURFACE AREA."
1588229,MCDONALD'S 26371 (MCDONALD'S),2304342,36 W 95TH ST,CHICAGO,IL,60628,41.7218087646306,-87.6252418946853,2015-11-12,Pass,33,"FOOD AND NON-FOOD CONTACT EQUIPMENT UTENSILS CLEAN, FREE OF ABRASIVE DETERGENTS",CORRECTED.
1588621,CANADY ENTERPRISES CORP X (MCDONALD'S),2432672,500 W MADISON ST,CHICAGO,IL,60661,41.8819943382051,-87.6397586848809,2015-11-19,Pass,33,"FOOD AND NON-FOOD CONTACT EQUIPMENT UTENSILS CLEAN, FREE OF ABRASIVE DETERGENTS","CLEAN THE FOLLOWING: SIDES OF ALL COOLERS, TABLES, & COUNTERS(MASSIVE FOOD AND DEBRIS BUILD-UP NOTED), CABINET INTERIORS UNDERNEATH DEEP FRYERS, OVER HEAD SPRAYER TO SOFT-SERVE MACHINE, EXTERIOR OF SOFT SERVE MACHINE, ALL COFFEE SODA DISPENSING MACHINES IN FRONT SERVICE. AREA  "
1588705,MCDONALD'S,2328103,600 N CLARK ST,CHICAGO,IL,60654,41.8924640329927,-87.631294885907,2015-11-20,Pass,33,"FOOD AND NON-FOOD CONTACT EQUIPMENT UTENSILS CLEAN, FREE OF ABRASIVE DETERGENTS",MUST CLEAN THE FAN GUARD OF THE REACH IN COOLER IN THE FRONT SERVING AREA AND MAINTAIN.
1588811,MCDONALD'S,1490035,6900 S LAFAYETTE AVE,CHICAGO,IL,60621,41.769155335336,-87.6268126762725,2015-11-24,Pass,33,"FOOD AND NON-FOOD CONTACT EQUIPMENT UTENSILS CLEAN, FREE OF ABRASIVE DETERGENTS","NOTED COUNTER TOPS AND STORAGE COUNTER VERY DIRTY. MUST DETAIL AND SANITIZE AREA TO PREVENT BREEDING PLACE FOR PESTS. MUST DETAIL CLEAN THE EXTERIOR AND INTERIOR OF ALL COOLERS, JUICE,POP AND SMOOTHIE MACHINE AT THE FRONT COUNTER TO REMOVE SPILLS AND DEBRIS."
1589088,MCDONALD'S,1969971,225 S CANAL ST,CHICAGO,IL,60606,41.8785312783536,-87.6394274596272,2015-12-02,Pass,33,"FOOD AND NON-FOOD CONTACT EQUIPMENT UTENSILS CLEAN, FREE OF ABRASIVE DETERGENTS",MUST CLEAN AND SANITIZE BOTH INNER LIDS OF THE LARGE ICE MACHINES IN THE REAR AREA TO REMOVE SLIGHT BUILD-UP.
1589148,MCDONALD'S,1679682,11421 S HALSTED ST,CHICAGO,IL,60628,41.6862492664438,-87.6420421730029,2015-12-02,Pass,11,"ADEQUATE NUMBER, CONVENIENT, ACCESSIBLE, DESIGNED, AND MAINTAINED",CORRECTED. REAR EXPOSED HAND SINK PROPERLY DRAINS.
1591635,MCDONALD'S,1490035,6900 S LAFAYETTE AVE,CHICAGO,IL,60621,41.769155335336,-87.6268126762725,2015-12-14,Pass,33,"FOOD AND NON-FOOD CONTACT EQUIPMENT UTENSILS CLEAN, FREE OF ABRASIVE DETERGENTS","NOTED COUNTER TOPS AND STORAGE COUNTER VERY DIRTY. MUST DETAIL AND SANITIZE AREA TO PREVENT BREEDING PLACE FOR PESTS. MUST DETAIL CLEAN THE EXTERIOR AND INTERIOR OF ALL COOLERS, JUICE,POP AND SMOOTHIE MACHINE AT THE FRONT COUNTER TO REMOVE SPILLS AND DEBRIS."
1591844,MCDONALD'S,1979615,7832 S WESTERN AVE,CHICAGO,IL,60620,41.7509316572994,-87.6830175318953,2015-12-17,Pass w/ Conditions,11,"ADEQUATE NUMBER, CONVENIENT, ACCESSIBLE, DESIGNED, AND MAINTAINED",OBSERVED THE REAR AND FRONT EXPOSED HAND SINKS IN POOR REPAIR: EXPOSED HAND SINKS ARE BEING CUT ON WITH THE WATER LEVER AT THE BOTTOM OF SINKS DUE TO THE KNOBS BEING BROKEN. ALSO THE REAR EXPOSED SINK HAS A LOOSE PIPE AT THE BOTTOM. MUST REPAIR AND MAINTAIN FOR PROPER HAND WASHING IN THE FOOD PREP AREAS. CITATION ISSUED #7-38-030.
1591844,MCDONALD'S,1979615,7832 S WESTERN AVE,CHICAGO,IL,60620,41.7509316572994,-87.6830175318953,2015-12-17,Pass w/ Conditions,33,"FOOD AND NON-FOOD CONTACT EQUIPMENT UTENSILS CLEAN, FREE OF ABRASIVE DETERGENTS",OBSERVED THE THE FRONT STATIONS VERY DIRTY. MUST DETAIL CLEAN TO REMOVE SPILLS AND DEBRIS. ALSO INTERIOR OF ALL PREP COOLER AND FREEZERS NEED DETAIL CLEAN TO REMOVE SPILLS AND DEBRIS.
1592201,MCDONALD'S RESTAURANT (MCDONALD'S RESTAURANT (T3 H9)),51206,11601 W TOUHY AVE,CHICAGO,IL,60666,42.0085364008687,-87.9144284392705,2015-12-30,Pass w/ Conditions,12,"HAND WASHING FACILITIES: WITH SOAP AND SANITARY HAND DRYING DEVICES, CONVENIENT AND ACCESSIBLE TO FOOD PREP AREA",Hand washing sink in the food prep area was blocked in with rolling bread carts and said sink had no hand paper towels.Instructed to make exposed hand sink accessible for hand washing and provide and maintain hand paper towels.Critical Violation 7-38-030.
1592263,MCDONALD'S RESTAURANT (MCDONALD'S),2411397,233 N MICHIGAN AVE,CHICAGO,IL,60601,41.8865673708869,-87.6243846705971,2016-01-13,Pass,33,"FOOD AND NON-FOOD CONTACT EQUIPMENT UTENSILS CLEAN, FREE OF ABRASIVE DETERGENTS","Walk in cooler shelving/racks in walk in cooler not clean, need detailed cleaning(crevices).  Prep table lower shelving not clean, need detailed cleaning(crevices).  rear kitchen storage shelving/racks not clean, need detailed cleaning(crevices), rear storage room(dry storage)shelving/racks not clean, need detailed cleaning(crevices)."
1609267,MCDONALD'S,1330168,3560 N CICERO AVE,CHICAGO,IL,60641,41.9460753312542,-87.74720858803,2016-01-05,Pass,33,"FOOD AND NON-FOOD CONTACT EQUIPMENT UTENSILS CLEAN, FREE OF ABRASIVE DETERGENTS","MUST CLEAN BOTTOM COMPARTMENTS OF FRYERS OF GREASE BUILD-UP,INSTRUCTED TO CLEAN AND MAINTAIN EQUIPMENT"
1609518,MCDONALD'S,1985417,10 E CHICAGO AVE,CHICAGO,IL,60611,41.896792874374,-87.6277875784165,2016-01-08,Pass w/ Conditions,11,"ADEQUATE NUMBER, CONVENIENT, ACCESSIBLE, DESIGNED, AND MAINTAINED",HAND WASHING SINKS IN THE FOOD PREP AREA HAVE NO HOT RUNNING WATER UNDER CITY PRESSURE TEMPERATURE RANGING FROM 55.1F-60.3F AT THIS TIME OF INSPECTION.  INSTRUCTED MANAGER THAT HAND WASHING FACILITIES MUST BE FUNCTIONING PROPERLY AT ALL TIMES FOR HAND WASHING.CRITICAL VIOLATION 7-38-030.
1609955,MCDONALD'S,1768770,600 E 115TH ST,CHICAGO,IL,60628,41.6855811783059,-87.6082071152992,2016-01-21,Pass w/ Conditions,2,FACILITIES TO MAINTAIN PROPER TEMPERATURE,OBSERVED THE BOTTOM COMPARTMENT OF THE SALAD PREP COOLER TO BE HOLDING IMPROPER TEMPERATURE OF 49 F. OBSERVED THE LOWER COOK LINE COOLER TO BE HOLDING AT IMPROPER TEMPERATURE OF 46 F. THESE COOLERS WERE IN USE AT TIME OF INSPECTION AND WERE TAGGED BY THE CDPH. CRITICAL CITATION ISSUED: 7-38-005(A).
1609955,MCDONALD'S,1768770,600 E 115TH ST,CHICAGO,IL,60628,41.6855811783059,-87.6082071152992,2016-01-21,Pass w/ Conditions,3,"POTENTIALLY HAZARDOUS FOOD MEETS TEMPERATURE REQUIREMENT DURING STORAGE, PREPARATION DISPLAY AND SERVICE","OBSERVED POTENTIALLY HAZARDOUS FOODS HELD AT IMPROPER TEMPERATURES IN THE LOWER LEVEL OF THE SALAD PREP COOLER (CHEESE, 46 F) AND IN THE LOWER COOK LINE COOLER (CHEESE, 49 F). APPROX. 5 LBS/$150 WORTH OF FOOD WAS DISCARDED. INSTRUCTED TO STORE ALL POTENTIALLY HAZARDOUS FOODS IN ALTERNATE COOLERS AT 40 F UNTIL THE COOLERS ARE REPAIRED. CRITICAL CITATION ISSUED: 7-38-005(A)"
1609955,MCDONALD'S,1768770,600 E 115TH ST,CHICAGO,IL,60628,41.6855811783059,-87.6082071152992,2016-01-21,Pass w/ Conditions,33,"FOOD AND NON-FOOD CONTACT EQUIPMENT UTENSILS CLEAN, FREE OF ABRASIVE DETERGENTS",DETAIL CLEAN THE DROP PLATE OF THE ICE MACHINE. DETAIL CLEAN THE FAN GUARDS INSIDE THE FRONT DISPLAY COOLER.
1621273,MCDONALD'S,1679682,11421 S HALSTED ST,CHICAGO,IL,60628,41.6862492664438,-87.6420421730029,2016-01-28,Pass,33,"FOOD AND NON-FOOD CONTACT EQUIPMENT UTENSILS CLEAN, FREE OF ABRASIVE DETERGENTS",CLEAN INTERIOR AND EXTERIOR OF ALL BEVERAGE MACHINES AND CREAMER DISPENSER.
1624217,MCDONALD'S RESTAURANT (MCDONALD'S),2411397,233 N MICHIGAN AVE,CHICAGO,IL,60601,41.8865673708869,-87.6243846705971,2016-01-26,Pass,33,"FOOD AND NON-FOOD CONTACT EQUIPMENT UTENSILS CLEAN, FREE OF ABRASIVE DETERGENTS","Above violation still remaining( Walk in cooler shelving/racks in walk in cooler not clean, need detailed cleaning(crevices). Prep table lower shelving not clean, need detailed cleaning(crevices). rear kitchen storage shelving/racks not clean, need detailed cleaning(crevices), rear storage room(dry storage)shelving/racks not clean, need detailed cleaning(crevices)."
1631488,MC DONALD'S #11559 (MCDONALD'S),2341198,2754 N NARRAGANSETT AVE,CHICAGO,IL,60639,41.930793798935,-87.7858301322383,2016-02-08,Pass,33,"FOOD AND NON-FOOD CONTACT EQUIPMENT UTENSILS CLEAN, FREE OF ABRASIVE DETERGENTS",OBSERVED THE FRONT BEVERAGE STATION DRIP TRAYS NOT CLEAN ie. MILK AND ORANGE JUICE. INSTRUCTED TO CLEAN.
1631821,MCDONALD'S,1302136,70 E GARFIELD BLVD,CHICAGO,IL,60615,41.7947940242651,-87.6229151035504,2016-02-18,Pass,33,"FOOD AND NON-FOOD CONTACT EQUIPMENT UTENSILS CLEAN, FREE OF ABRASIVE DETERGENTS","DETAIL CLEAN COOLERS, PREP SURFACES, SINKS, AND COOKING EQUIPMENT. MUST ALSO DETAIL CLEAN THE TOILETS AND SINKS IN THE WASHROOMS."
1631837,MCDONALD'S #6491 (MCDONALD'S),2009449,36 W RANDOLPH ST,CHICAGO,IL,60601,41.8845908469767,-87.6292360117108,2016-02-18,Pass,33,"FOOD AND NON-FOOD CONTACT EQUIPMENT UTENSILS CLEAN, FREE OF ABRASIVE DETERGENTS","Walk in cooler shelving/racks not clean, need detailed cleaning(crevices), reach in cooler shelving/racks not clean, need detailed cleaning."
1632218,MCDONALD'S,1679682,11421 S HALSTED ST,CHICAGO,IL,60628,41.6862492664438,-87.6420421730029,2016-02-25,Pass w/ Conditions,33,"FOOD AND NON-FOOD CONTACT EQUIPMENT UTENSILS CLEAN, FREE OF ABRASIVE DETERGENTS","CLEAN INTERIOR AND EXTERIOR SUFACES OF ALL BEVERAGE MACHINES AND CREAMER DISPENSER, COMPARTMENTS UNDER BEVERAGE MACHINES AND REACH-IN COOLERS.  CLEAN INTERIOR SURFACES AND EQUIPMENT INSIDE ICE MACHINE. CLEAN  INTERIOR AND EXTERIOR OF ALL FRYERS, FRYER CABINETS, GRILL, HOLDING UNITS(GREASE BUILDUP UP, FOOD DEBRIS)."
1632233,MCDONALD'S,1332927,2438 W CERMAK RD,CHICAGO,IL,60608,41.8521245314486,-87.6872821649016,2016-02-25,Pass,33,"FOOD AND NON-FOOD CONTACT EQUIPMENT UTENSILS CLEAN, FREE OF ABRASIVE DETERGENTS",CORRECTED.
1632502,MCDONALD'S,1332928,1664 S BLUE ISLAND AVE,CHICAGO,IL,60608,41.858128211052,-87.6611125635149,2016-03-02,Pass,33,"FOOD AND NON-FOOD CONTACT EQUIPMENT UTENSILS CLEAN, FREE OF ABRASIVE DETERGENTS",OBSERVED A SLITE BROWNISH BUILD UP IN THE ICE MACHINE LOCATED IN THE CUSTOMER DINING AREA. INSTRUCTED TO CLEAN AND MAINTAIN MANAGER CORRECTED DURING INSPECTION.
1632524,MCDONALD'S,2349545,3241 W PETERSON AVE,CHICAGO,IL,60659,41.9902548481319,-87.710763243534,2016-03-02,Pass w/ Conditions,33,"FOOD AND NON-FOOD CONTACT EQUIPMENT UTENSILS CLEAN, FREE OF ABRASIVE DETERGENTS",OBSERVED INTERIOR OF FRYERS WITH GREASE ACCUMULATION. CLEAN AND MAINTAIN
1632565,MCDONALD'S,1680019,3855 W LAWRENCE AVE,CHICAGO,IL,60625,41.9681612546391,-87.7253770419993,2016-03-03,Pass,33,"FOOD AND NON-FOOD CONTACT EQUIPMENT UTENSILS CLEAN, FREE OF ABRASIVE DETERGENTS",VIOLATION CORRECTED.
1633169,MCDONALD'S,61707,6720 W ARCHER AVE,CHICAGO,IL,60638,41.7922933994001,-87.7901127088606,2016-03-15,Pass,33,"FOOD AND NON-FOOD CONTACT EQUIPMENT UTENSILS CLEAN, FREE OF ABRASIVE DETERGENTS","INTERIOR OF REACH IN COOLERS IN NEED OF CLEANING TO REMOVE ALL FOOD SPILLS, INTERIOR OF ICE MACHINE IN NEED OF CLEANING, SIDE OF ALL COOKING EQUIPMENT IN NEED OF CLEANING TO REMOVE GREASE BUILD UP, AND ALL DRINK DISPENSORS IN NEED OF DETAIL CLEANING TO REMOVE BUULD UP.  MUST CLEAN AND MAINTAIN.  "
1657225,MCDONALD'S,1490035,6900 S LAFAYETTE AVE,CHICAGO,IL,60621,41.769155335336,-87.6268126762725,2016-02-17,Pass,33,"FOOD AND NON-FOOD CONTACT EQUIPMENT UTENSILS CLEAN, FREE OF ABRASIVE DETERGENTS",CLEAN/SANITIZE INTERIOR OF ALL REFRIGERATION UNITS.
1657238,MCDONALD'S,1490035,6900 S LAFAYETTE AVE,CHICAGO,IL,60621,41.769155335336,-87.6268126762725,2016-02-25,Pass,33,"FOOD AND NON-FOOD CONTACT EQUIPMENT UTENSILS CLEAN, FREE OF ABRASIVE DETERGENTS",CLEAN/SANITIZE INTERIOR OF ALL REFRIGERATION UNITS.
1689257,MCDONALD'S RESTAURANT (MCDONALD'S),2349672,119 N WABASH AVE,CHICAGO,IL,60602,41.8837168512818,-87.6260862245146,2016-03-11,Pass,33,"FOOD AND NON-FOOD CONTACT EQUIPMENT UTENSILS CLEAN, FREE OF ABRASIVE DETERGENTS","Non food contact surfaces of ice machine not clean, need detailed cleaning(crevices).  Walk in cooler shelving/racks not clean, need detailed cleaning(crevices).  Cooler shelving/racks of reach in cooler not clean, need cleaning(detailed)."
1721241,MCDONALD'S,1093571,3615 W IRVING PARK RD,CHICAGO,IL,60618,41.9536466519158,-87.7184849050502,2016-04-20,Pass,33,"FOOD AND NON-FOOD CONTACT EQUIPMENT UTENSILS CLEAN, FREE OF ABRASIVE DETERGENTS","MUST CLEAN AND SANITIZE INTERIOR PANEL OF THE ICE MACHINE AND MAINTAIN. FOUND SLIGHT BUILD-UP AT THE BOTTOM EDGE OF PANEL.  "
1734566,MCDONALD'S #4305 (MCDONALD'S),1922105,4844 N LINCOLN AVE,CHICAGO,IL,60625,41.9697537205744,-87.6894034367043,2016-03-22,Pass,33,"FOOD AND NON-FOOD CONTACT EQUIPMENT UTENSILS CLEAN, FREE OF ABRASIVE DETERGENTS",OBSERVED SLIGHT DIRT ACCUMULATION ON THE UPPER PORTION OF THE ICE MACHINE. INSTRUCTED FACILITY TO CLEAN SANITIZE AND MAINTAIN.
1734995,MCDONALD'S,2328103,600 N CLARK ST,CHICAGO,IL,60654,41.8924640329927,-87.631294885907,2016-03-29,Pass w/ Conditions,2,FACILITIES TO MAINTAIN PROPER TEMPERATURE,"DAIRY WALK IN COOLER NOT MAINTAINED, AMBIENT AIR TEMPERATURE AT 48.6 F ALSO MCCAFE REACH IN COOLER NOT MAINTAINED, AMBIENT AIR TEMPERATURE AT 47.0 F. FOUND MILK, YOGURT, ETC. HELD INSIDE SAID COOLERS. INSTRUCTED MANAGER COOLERS AMBIENT AIR TEMPERATURE MUST BE 40 F OR BELOW IF POTENTIALLY HAZARDOUS FOODS ARE HELD INSIDE. CRITICAL VIOLATION 7-38-005(A). CITATION ISSUED."
1734995,MCDONALD'S,2328103,600 N CLARK ST,CHICAGO,IL,60654,41.8924640329927,-87.631294885907,2016-03-29,Pass w/ Conditions,3,"POTENTIALLY HAZARDOUS FOOD MEETS TEMPERATURE REQUIREMENT DURING STORAGE, PREPARATION DISPLAY AND SERVICE","FOUND THE FOLLOWING POTENTIALLY HAZARDOUS FOODS HELD AT IMPROPER TEMPERATURES- MILK AT 48.0 F, CHEESE AT 50.0 F, VANILLA MIX AT 47.0 F, YOGURT AT 47.1 F, WHIPPED CREAM AT 47.0 F. INSTRUCTED MANAGER POTENTIALLY HAZARDOUS FOODS HELD COLD MUST BE 40 F OR BELOW. ALL OUT OF TEMPERATURE POTENTIALLY HAZARDOUS FOODS VOLUNTARILLY DISCARDED AT THIS TIME. CRITICAL VIOLATION 7-38-005(A). CITATION ISSUED."
1734995,MCDONALD'S,2328103,600 N CLARK ST,CHICAGO,IL,60654,41.8924640329927,-87.631294885907,2016-03-29,Pass w/ Conditions,33,"FOOD AND NON-FOOD CONTACT EQUIPMENT UTENSILS CLEAN, FREE OF ABRASIVE DETERGENTS",OBSERVED SLIGHT CALCIUM BUILD UP INSIDE ICE MACHINE. MUST CLEAN INTERIOR OF ICE MACHINE.
1746283,MCDONALD'S,1490035,6900 S LAFAYETTE AVE,CHICAGO,IL,60621,41.769155335336,-87.6268126762725,2016-06-15,Pass,33,"FOOD AND NON-FOOD CONTACT EQUIPMENT UTENSILS CLEAN, FREE OF ABRASIVE DETERGENTS",VIOLATION CORRECTED.
1751265,MCDONALD'S,1943516,6560 S STONY ISLAND AVE,CHICAGO,IL,60637,41.7752200873081,-87.5864366257481,2016-04-01,Pass,33,"FOOD AND NON-FOOD CONTACT EQUIPMENT UTENSILS CLEAN, FREE OF ABRASIVE DETERGENTS","MUST DETAIL CLEAN THE INTERIOR AND EXTERIOR OF FRYERS AND ALL OTHER COOKING EQUIPMENT,PREP SURFACES,REFRIGERATION UNITS AND COUNTERS.    MUST ALSO DETAIL CLEAN THE INTERIOR TOP PANEL OF THE ICE MACHINE AND THE TOILETS IN THE WOMEN'S WASHROOM."
1751471,MCDONALD'S,1445833,740 E 47TH ST,CHICAGO,IL,60653,41.8096286978775,-87.607369737858,2016-04-06,Pass,33,"FOOD AND NON-FOOD CONTACT EQUIPMENT UTENSILS CLEAN, FREE OF ABRASIVE DETERGENTS",SOME GREASE OBSERVED AT THE BOTTOM OF FRYERS; CLEAN AND MAINTAIN FRYERS.  CLEAN EXTERIOR SURFACES OF OTHER COOKING EQUIPMENT.
1751589,MCDONALD'S RESTAURANT (MCDONALD'S),12886,9211 S COMMERCIAL AVE,CHICAGO,IL,60617,41.7278801912133,-87.5510612280602,2016-04-07,Pass,33,"FOOD AND NON-FOOD CONTACT EQUIPMENT UTENSILS CLEAN, FREE OF ABRASIVE DETERGENTS",MUST CLEAN THE INTERIOR SIDES OF THE ICE MACHINE.
1751621,MCDONALD'S,1679682,11421 S HALSTED ST,CHICAGO,IL,60628,41.6862492664438,-87.6420421730029,2016-04-08,Pass,33,"FOOD AND NON-FOOD CONTACT EQUIPMENT UTENSILS CLEAN, FREE OF ABRASIVE DETERGENTS","CLEAN INTERIOR AND EXTERIOR SURFACES OF ALL BEVERAGE MACHINES AND CREAMER DISPENSER, COMPARTMENTS UNDER BEVERAGE MACHINES AND REACH-IN COOLERS. CLEAN INTERIOR SURFACES AND EQUIPMENT INSIDE ICE MACHINE. CLEAN INTERIOR AND EXTERIOR OF ALL FRYERS, FRYER CABINETS, GRILL, HOLDING UNITS(GREASE BUILDUP UP, FOOD DEBRIS).  "
1752072,KARAVITES REST INC (MCDONALD'S),11136,5130 N SHERIDAN RD,CHICAGO,IL,60640,41.976283055914,-87.6551477688298,2016-04-18,Pass,33,"FOOD AND NON-FOOD CONTACT EQUIPMENT UTENSILS CLEAN, FREE OF ABRASIVE DETERGENTS",CORRECTED.
1763598,MCDONALD'S,2328103,600 N CLARK ST,CHICAGO,IL,60654,41.8924640329927,-87.631294885907,2016-04-26,Pass,2,FACILITIES TO MAINTAIN PROPER TEMPERATURE,"CORRECTED, DAIRY WALK IN COOLER AMBIENT AIR TEMPERATURE AT 37.2 F AND MCCAFE REACH IN COOLER REPLACED WITH AMBIENT AIR TEMPERATURE AT 33.0 F."
1763598,MCDONALD'S,2328103,600 N CLARK ST,CHICAGO,IL,60654,41.8924640329927,-87.631294885907,2016-04-26,Pass,33,"FOOD AND NON-FOOD CONTACT EQUIPMENT UTENSILS CLEAN, FREE OF ABRASIVE DETERGENTS",CORRECTED
1763843,MCDONALD'S,2308020,2425 E 79TH ST,CHICAGO,IL,60649,41.7516335989759,-87.5651606509335,2016-04-28,Pass,33,"FOOD AND NON-FOOD CONTACT EQUIPMENT UTENSILS CLEAN, FREE OF ABRASIVE DETERGENTS","MUST CLEAN THE INTERIOR OF PREP COOLER AND WALK IN FREEZER TO REMOVE ICE BUILD UP.  "
1763864,MCDONALD'S,61707,6720 W ARCHER AVE,CHICAGO,IL,60638,41.7922933994001,-87.7901127088606,2016-04-29,Pass,33,"FOOD AND NON-FOOD CONTACT EQUIPMENT UTENSILS CLEAN, FREE OF ABRASIVE DETERGENTS","INTERIOR OF REACH IN COOLERS IN NEED OF CLEANING TO REMOVE ALL FOOD SPILLS, INTERIOR OF ICE MACHINE IN NEED OF CLEANING, SIDE OF ALL COOKING EQUIPMENT IN NEED OF CLEANING TO REMOVE GREASE BUILD UP, AND ALL DRINK DISPENSORS IN NEED OF DETAIL CLEANING TO REMOVE BUULD UP. MUST CLEAN AND MAINTAIN"
1770850,MCDONALD'S,1678527,5700 S CICERO AVE,CHICAGO,IL,60638,41.7893293232654,-87.7416456441964,2016-05-16,Pass,33,"FOOD AND NON-FOOD CONTACT EQUIPMENT UTENSILS CLEAN, FREE OF ABRASIVE DETERGENTS","CLEAN INTERIOR OF REACH IN COOLERS AND RUBBER GASKETS TO REMOVE ALL BUILD UP OF FOOD SPILLS.  MUST CLEAN AND MAINTAIN AT ALL TIMES.  "
1931342,MCDONALD'S,1445833,740 E 47TH ST,CHICAGO,IL,60653,41.8096286978775,-87.607369737858,2016-05-20,Pass,33,"FOOD AND NON-FOOD CONTACT EQUIPMENT UTENSILS CLEAN, FREE OF ABRASIVE DETERGENTS",SOME GREASE OBSERVED AT THE BOTTOM OF FRYERS; CLEAN AND MAINTAIN FRYERS. CLEAN EXTERIOR SURFACES OF OTHER COOKING EQUIPMENT.
1931971,MCDONALD'S,61707,6720 W ARCHER AVE,CHICAGO,IL,60638,41.7922933994001,-87.7901127088606,2016-06-01,Pass,33,"FOOD AND NON-FOOD CONTACT EQUIPMENT UTENSILS CLEAN, FREE OF ABRASIVE DETERGENTS","INTERIOR OF REACH IN COOLERS IN NEED OF CLEANING TO REMOVE ALL FOOD SPILLS, INTERIOR OF ICE MACHINE IN NEED OF CLEANING, SIDE OF ALL COOKING EQUIPMENT IN NEED OF CLEANING TO REMOVE GREASE BUILD UP, AND ALL DRINK DISPENSORS IN NEED OF DETAIL CLEANING TO REMOVE BUULD UP. MUST CLEAN AND MAINTAIN  "
1932040,MCDONALD'S,1678525,5700 S CICERO AVE,CHICAGO,IL,60638,41.7893293232654,-87.7416456441964,2016-06-02,Pass,8,"SANITIZING RINSE FOR EQUIPMENT AND UTENSILS:  CLEAN, PROPER TEMPERATURE, CONCENTRATION, EXPOSURE TIME","CORRECTED  "
1932040,MCDONALD'S,1678525,5700 S CICERO AVE,CHICAGO,IL,60638,41.7893293232654,-87.7416456441964,2016-06-02,Pass,33,"FOOD AND NON-FOOD CONTACT EQUIPMENT UTENSILS CLEAN, FREE OF ABRASIVE DETERGENTS","ALL DRINK DISPENSOR NOZZLES IN NEED OF CLEANING TO REMOVE ALL BUILD UP. MUST CLEAN AND MAINTAIN AT ALL TIMES.   "
1932192,MCDONALD'S RESTAURANT,1678414,6336 S ASHLAND AVE,CHICAGO,IL,60636,41.7783609760376,-87.6643368634279,2016-06-07,Pass,11,"ADEQUATE NUMBER, CONVENIENT, ACCESSIBLE, DESIGNED, AND MAINTAINED",TEMPERED WATER PROVIDED TO THE EXPOSED HANDWASHING SINKS.
1932192,MCDONALD'S RESTAURANT,1678414,6336 S ASHLAND AVE,CHICAGO,IL,60636,41.7783609760376,-87.6643368634279,2016-06-07,Pass,33,"FOOD AND NON-FOOD CONTACT EQUIPMENT UTENSILS CLEAN, FREE OF ABRASIVE DETERGENTS",CORRECTED.
1932248,MCDONALD'S,2428106,29 E 87TH ST,CHICAGO,IL,60619,41.7362554617903,-87.6229175082059,2016-06-07,Pass w/ Conditions,12,"HAND WASHING FACILITIES: WITH SOAP AND SANITARY HAND DRYING DEVICES, CONVENIENT AND ACCESSIBLE TO FOOD PREP AREA",OBSERVED THE REAR EXPOSED HAND WASHING SINK INSIDE OF THE PREP AREA MANUALLY SHUT OFF WITH NO HAND SOAP. INSTRUCTED TO PROVIDE ACCESSIBLE EXPOSED HAND WASHING SINKS WITH HAND SOAP AND PAPER TOWELS AT ALL TIMES. CRITICAL VIOLATION 7-38-030
1932578,MCDONALD'S,1984911,4320 N CICERO AVE,CHICAGO,IL,60641,41.9595750994431,-87.7476456870793,2016-06-10,Pass w/ Conditions,2,FACILITIES TO MAINTAIN PROPER TEMPERATURE,Walk in cooler unable to maintain proper temperature. Air temperature 59.1F. All potentially hazardous foods removed from walk-in cooler. Instructed must always keep walk in cooler temperature at 40F or less. Facility has several other coolers available. Walk in cooler tagged and held for inspection. Must not use cooler until tag removed. Critical violation 7-38-005(A).
1932578,MCDONALD'S,1984911,4320 N CICERO AVE,CHICAGO,IL,60641,41.9595750994431,-87.7476456870793,2016-06-10,Pass w/ Conditions,3,"POTENTIALLY HAZARDOUS FOOD MEETS TEMPERATURE REQUIREMENT DURING STORAGE, PREPARATION DISPLAY AND SERVICE",Found the following potentially hazardous foods at improper temperatures in the walk in cooler: 12lbs of shredded cheese @ 51.4f-56.2f (valued at $60); 15lbs of sliced white cheddar cheese @ 48.7f-50.8f ($50); 2lbs of gogurt @ 52.1f-55.5f ($20); 3lbs of sliced apples @60f ($18); 7lbs of liquid eggs @ 47.2f-49.1f ($41); 6lbs of liquid egg whites @ 49.5f-51.6f ($30); 23lbs of vanilla yogurt @ 47.7f-50.5f ($56); 30lbs of sliced tomatoes @ 48.0f-53.4f ($37); 20lbs of eggs @ 48.7f-58.5f ($50);and 6lbs of shredded and leaf lettuce @ 48.0f-57.2f ($59). Operator voluntarily discarded denatured foods. Instructed all cold foods must be kept at 40F of less at all times. Critical violation 7-38-005(a).
1932578,MCDONALD'S,1984911,4320 N CICERO AVE,CHICAGO,IL,60641,41.9595750994431,-87.7476456870793,2016-06-10,Pass w/ Conditions,33,"FOOD AND NON-FOOD CONTACT EQUIPMENT UTENSILS CLEAN, FREE OF ABRASIVE DETERGENTS",Found small amount of orange mold like substance on lower and upper interior of ice machine. Must clean and maintain.
1933088,"MCDONALD'S REST. OF ILLINOIS, INC",1332910,2317 N CICERO AVE,CHICAGO,IL,60639,41.9229310425538,-87.7461194779431,2016-06-20,Pass,33,"FOOD AND NON-FOOD CONTACT EQUIPMENT UTENSILS CLEAN, FREE OF ABRASIVE DETERGENTS","OBSERVED THE REAR 2 DOOR FREEZER WITH EXCESSIVE ICE, INSRUCTED TO DEFROST, AND CLEAN. ALSO CLEAN FRONT COFFEE STATION, MILK DRIP TRAY,AND EXTERIOR OF ALL EQUIPMENT."
1933221,MCDONALD'S #6491 (MCDONALD'S),2009449,36 W RANDOLPH ST,CHICAGO,IL,60601,41.8845908469767,-87.6292360117108,2016-08-05,Pass,33,"FOOD AND NON-FOOD CONTACT EQUIPMENT UTENSILS CLEAN, FREE OF ABRASIVE DETERGENTS","Non food contact surfaces of cooking equipment, hot holding unit for hamburgers not clean(exterior surfaces), need detailed cleaning(crevices)."
1933232,MCDONALD'S,2328106,203 N LA SALLE ST,CHICAGO,IL,60601,41.885822047853,-87.6323037350857,2016-08-15,Pass,33,"FOOD AND NON-FOOD CONTACT EQUIPMENT UTENSILS CLEAN, FREE OF ABRASIVE DETERGENTS","Cooler shelving/racks of reach in freezer(1s floor), not clean, had excess food/debris build up, needs detailed cleaning(crevices).  Walk in cooler shelving/racks, and storage shelving/racks in 2nd floor, not clean, need detailed cleaning(crevices)."
1937334,MCDONALD'S RESTAURANT,1193659,5015 W MADISON ST,CHICAGO,IL,60644,41.8803177115273,-87.750746355478,2016-06-23,Pass,33,"FOOD AND NON-FOOD CONTACT EQUIPMENT UTENSILS CLEAN, FREE OF ABRASIVE DETERGENTS","INTERIOR OF FREEZER SHELVES NOT CLEAN, REAR DISH AREA, INSTRUCTED TO CLEAN DAILY,"
1937668,MCDONALD'S,1445833,740 E 47TH ST,CHICAGO,IL,60653,41.8096286978775,-87.607369737858,2016-06-28,Pass,33,"FOOD AND NON-FOOD CONTACT EQUIPMENT UTENSILS CLEAN, FREE OF ABRASIVE DETERGENTS",CORRECTED.
1946354,MCDONALD'S,2428107,1443 E 87TH ST,CHICAGO,IL,60619,41.7367599255433,-87.588841701402,2016-07-12,Pass,11,"ADEQUATE NUMBER, CONVENIENT, ACCESSIBLE, DESIGNED, AND MAINTAINED",VIOLATION CORRECTED
1946354,MCDONALD'S,2428107,1443 E 87TH ST,CHICAGO,IL,60619,41.7367599255433,-87.588841701402,2016-07-12,Pass,33,"FOOD AND NON-FOOD CONTACT EQUIPMENT UTENSILS CLEAN, FREE OF ABRASIVE DETERGENTS",VIOLATION CORRECTED
1946987,MCDONALD'S RESTAURANT (MCDONALD'S),2384973,6900 N WESTERN AVE,CHICAGO,IL,60645,42.0068512375709,-87.6902606045278,2016-07-22,Pass,33,"FOOD AND NON-FOOD CONTACT EQUIPMENT UTENSILS CLEAN, FREE OF ABRASIVE DETERGENTS",VIOLTION CORRECTED
1948575,MCDONALD'S,2397974,23 N WESTERN AVE,CHICAGO,IL,60612,41.8819144601214,-87.6863038518981,2016-08-02,Pass w/ Conditions,11,"ADEQUATE NUMBER, CONVENIENT, ACCESSIBLE, DESIGNED, AND MAINTAINED",CORRECTED. EXPOSED HAND WASHING SINK WATER PRESSURE WAS INCREASED.
1948921,MCDONALD'S,1840645,6740 N CLARK ST,CHICAGO,IL,60626,42.0046926406108,-87.6730356868885,2016-08-08,Pass,33,"FOOD AND NON-FOOD CONTACT EQUIPMENT UTENSILS CLEAN, FREE OF ABRASIVE DETERGENTS",OBSERVED THE FOLLOWING FOOD AND NON FOOD CONTACT EQUIPMENT IN NEED OF CLEANING OR REPAIR; CONTACT SURFACES AROUND THE BEVERAGE STATION AND DRIVE THRU STATION. EXCESSIVE ICE ACCUMULATION ON THE ON THE FREEZER CURTAINS IN THE WALK IN FREEZER. INSTRUCTED TO DETAIL OR REPAIR AND MAINTAIN.
1950295,MCDONALD'S 26371 (MCDONALD'S),2304342,36 W 95TH ST,CHICAGO,IL,60628,41.7218087646306,-87.6252418946853,2016-08-12,Pass,33,"FOOD AND NON-FOOD CONTACT EQUIPMENT UTENSILS CLEAN, FREE OF ABRASIVE DETERGENTS","CLEAN INTERIOR AND EXTERIOR OF POP, JUICE, MCCAFE, AND CREAMER MACHINES.  "
1950302,MCDONALD'S,1302136,70 E GARFIELD BLVD,CHICAGO,IL,60615,41.7947940242651,-87.6229151035504,2016-08-12,Pass,11,"ADEQUATE NUMBER, CONVENIENT, ACCESSIBLE, DESIGNED, AND MAINTAINED",VIOLATION CORRECTED.
1950302,MCDONALD'S,1302136,70 E GARFIELD BLVD,CHICAGO,IL,60615,41.7947940242651,-87.6229151035504,2016-08-12,Pass,33,"FOOD AND NON-FOOD CONTACT EQUIPMENT UTENSILS CLEAN, FREE OF ABRASIVE DETERGENTS",VIOLATION CORRECTED.
1950407,MCDONALD'S,61707,6720 W ARCHER AVE,CHICAGO,IL,60638,41.7922933994001,-87.7901127088606,2016-08-15,Pass,33,"FOOD AND NON-FOOD CONTACT EQUIPMENT UTENSILS CLEAN, FREE OF ABRASIVE DETERGENTS","THE FOLLOWING IN NEED OF CLEANING: SODA DISPENSOR NOZZLES, DRIP TRAYS, LID HOLDER, INTERIOR AND EXTERIOR OF STORAGE CABINETS, KETCHUP DISPENSOR, AND ALL DRINK DISPENSORS TO REMOVE ALL BUILD UP. MUST CLEAN AND MAINTAIN CLEAN AT ALL TIMES."
1950468,MCDONALD'S,43276,700 E GRAND AVE,CHICAGO,IL,60611,41.8922491634001,-87.6095180487934,2016-08-16,Pass w/ Conditions,12,"HAND WASHING FACILITIES: WITH SOAP AND SANITARY HAND DRYING DEVICES, CONVENIENT AND ACCESSIBLE TO FOOD PREP AREA",FOUND NO PAPER TOWELS AT ALL 3 EXPOSED HAND SINKS IN THE PREPARATION AREAS. EXPOSED HAND SINKS MUST CONTAIN SOAP AND PAPER TOWELS WITH HOT/COLD RUNNING WATER UNDER CITY PRESSURE AT ALL TIMES. PAPER TOWELS WERE PROVIDED AFTER INSPECTION PER MANANGER REQUEST. CRITICAL VIOLATION 7-38-030
1950468,MCDONALD'S,43276,700 E GRAND AVE,CHICAGO,IL,60611,41.8922491634001,-87.6095180487934,2016-08-16,Pass w/ Conditions,33,"FOOD AND NON-FOOD CONTACT EQUIPMENT UTENSILS CLEAN, FREE OF ABRASIVE DETERGENTS",OBSERVED FOOD DEBRIS BUILDUP ON THE INTERIOR SURFACE OF THE 4 DOOR REACH-IN REFRIGERATOR. INSTRUCTED TO DETAIL CLEAN AND MAINTAIN.
1950620,MCDONALD'S RESTAURANT (MCDONALD'S),2384976,3122 W TOUHY AVE,CHICAGO,IL,60645,42.011998577874,-87.7077027456968,2016-08-17,Pass,33,"FOOD AND NON-FOOD CONTACT EQUIPMENT UTENSILS CLEAN, FREE OF ABRASIVE DETERGENTS","OBSERVED THE INTERIOR OF WALK IN FREEZER WITH EXCESSIVE ICE ACCUMULATION AROUND THE DOOR AND ON THE WALL. ALSO, THE INTERIOR OF ONE OF THE MICROWAVES IS DAMAGED, LOCATED IN THE PREP AREA. INSTRUCTED TO DEFROST, DETAIL CLEAN, REPAIR MICROWAVE AND MAINTAIN."
1950834,MCDONALD'S,1969969,29 N WACKER DR,CHICAGO,IL,60606,41.8827003545899,-87.6366375599773,2016-08-19,Pass,33,"FOOD AND NON-FOOD CONTACT EQUIPMENT UTENSILS CLEAN, FREE OF ABRASIVE DETERGENTS","INTERIOR NOZEL OF ICE MACHINE NOT CLEAN,SLIGHT BUILD-UP.MUST CLEAN"
1951109,MCDONALD'S,1970361,9542 S HALSTED ST,CHICAGO,IL,60628,41.7202240990589,-87.6433279836791,2016-08-24,Pass,33,"FOOD AND NON-FOOD CONTACT EQUIPMENT UTENSILS CLEAN, FREE OF ABRASIVE DETERGENTS","CLEAN INTERIOR AND EXTERIOR OF ALL BEVERAGE MACHINES, ICE MACHINE, AND MCCAFE COOLER GASKETS."
1951297,MCDONALD'S RESTAURANT (MCDONALD'S),2349672,119 N WABASH AVE,CHICAGO,IL,60602,41.8837168512818,-87.6260862245146,2016-10-28,Pass,33,"FOOD AND NON-FOOD CONTACT EQUIPMENT UTENSILS CLEAN, FREE OF ABRASIVE DETERGENTS","Non food contact surfaces of coffee, frappe station not clean, had excess food debris, need detailed cleaning(crevices)."
1953536,MCDONALD'S,1045468,6737 S PULASKI RD,CHICAGO,IL,60629,41.7702902639118,-87.7224013240254,2016-08-31,Pass,33,"FOOD AND NON-FOOD CONTACT EQUIPMENT UTENSILS CLEAN, FREE OF ABRASIVE DETERGENTS","INTERIOR OF REACH IN COOLERS IN OF CLEANING.  MUST CLEAN TO REMOVE ALL FOOD SPILLS. ALL DRINK DISPENSORS IN NEED OF DETAIL CLEANING TO REMOVE ALL BUILD UP. CLEAN AND MAINTAIN. "
1953579,MCDONALD'S #490,81721,10320 S KEDZIE AVE,CHICAGO,IL,60655,41.7055202965588,-87.7014580422018,2016-08-31,Pass w/ Conditions,11,"ADEQUATE NUMBER, CONVENIENT, ACCESSIBLE, DESIGNED, AND MAINTAINED",OBSERVED NO HOT OR TEMPERED RUNNING WATER AT EXPOSED HAND SINKS AND WASHBOWLS. INSTRUCTED MANAGER TO PROVIDE HOT OR TEMPERED WATER AT HAND SINKS FOR PROPER HAND WASHING. CRITICAL VIOLATION 7-38-030
1953579,MCDONALD'S #490,81721,10320 S KEDZIE AVE,CHICAGO,IL,60655,41.7055202965588,-87.7014580422018,2016-08-31,Pass w/ Conditions,33,"FOOD AND NON-FOOD CONTACT EQUIPMENT UTENSILS CLEAN, FREE OF ABRASIVE DETERGENTS",CLEAN INTERIOR AND EXTERIOR OF ALL COOLER DOOR GASKETS AND BEVERAGE MACHINES.
1954089,MCDONALD'S (MCDONALD'S (T1-B11)),2013206,11601 W TOUHY AVE,CHICAGO,IL,60666,42.0085364008687,-87.9144284392705,2016-09-09,Pass,33,"FOOD AND NON-FOOD CONTACT EQUIPMENT UTENSILS CLEAN, FREE OF ABRASIVE DETERGENTS",CLEAN IN DETAIL AND SANITIZE ALL COOKING EQUIPMENT AND SIDES OF THE SODA CART AND MAINTAIN.
1960711,MCDONALD'S (MCDONALD'S (T1-C10)),2013208,11601 W TOUHY AVE,CHICAGO,IL,60666,42.0085364008687,-87.9144284392705,2016-09-19,Pass,33,"FOOD AND NON-FOOD CONTACT EQUIPMENT UTENSILS CLEAN, FREE OF ABRASIVE DETERGENTS",CORRECTED
1960932,MCDONALD'S (MCDONALD'S (T3- L4)),2016727,11601 W TOUHY AVE,CHICAGO,IL,60666,42.0085364008687,-87.9144284392705,2016-08-29,Pass,33,"FOOD AND NON-FOOD CONTACT EQUIPMENT UTENSILS CLEAN, FREE OF ABRASIVE DETERGENTS","INSTRUCTED TO DETAIL CLEAN AND MAINTAIN THE FOLLOWING: INTERIOR AND EXTERIOR SURFACES OF FOOD EQUIPMENT (BEVERAGE DISPENSER, TAYLOR MACHINE, MC FLURRY MACHINE, CUP HOLDERS, COUNTERSHELVES, PREP AND STORAGE SHELVES, SIDES OF COOKING EQUIPMENT"
1961011,MCDONALD'S,1969971,225 S CANAL ST,CHICAGO,IL,60606,41.8785312783536,-87.6394274596272,2016-09-22,Pass w/ Conditions,8,"SANITIZING RINSE FOR EQUIPMENT AND UTENSILS:  CLEAN, PROPER TEMPERATURE, CONCENTRATION, EXPOSURE TIME","OBSERVED LOW TEMP DISH MACHINE HAS NO POWER COMING TO MACHINE AT ALL TO OPERATE MACHINE AND CHECK FINAL RINSE SANITIZER. DISH MACHINE WILL BE TAG HELD FOR INSPECTION.MUST CONTACT CDPH TO REMOVE TAG.MUST USE 3-COMP SINK TO WASH,RINSE AND SANITIZE ALL FOOD EQUIPMENT AND UTENSIL. CRITICAL VIOLATION 7-38-030.NO CITATION ISSUED."
1961017,MCDONALD'S RESTAURANT (MCDONALD'S RESTAURANT (T3 H9)),51206,11601 W TOUHY AVE,CHICAGO,IL,60666,42.0085364008687,-87.9144284392705,2016-09-22,Pass,33,"FOOD AND NON-FOOD CONTACT EQUIPMENT UTENSILS CLEAN, FREE OF ABRASIVE DETERGENTS",Observed the 1 door cooler under the McCafe machine to be dirty. Instructed facility to clean and maintain.
1965263,MCDONALD'S,84425,4038 W BELMONT AVE,CHICAGO,IL,60641,41.9391826068248,-87.7287604353185,2016-09-26,Pass w/ Conditions,3,"POTENTIALLY HAZARDOUS FOOD MEETS TEMPERATURE REQUIREMENT DURING STORAGE, PREPARATION DISPLAY AND SERVICE","Found the following potentially hazardous foods at improper temperatures in small reach in cooler, under sandwich making station:  5lbs of cheese @ 60.3F ($9.25); 1/4 lb of ham @ 59.4F ($1); 3/4 lb of raw eggs @ 57.8F ($0.80) and 1/2lb cooked eggs @ 60.1F ($0.40). Operator voluntarily discarded denatured foods during inspection. Advised must keep all potentially hazardous foods at 40F or less (for cold foods, or 140F or above for hot foods) at all times. Critical violation 7-38-005(a)."
1965669,MCDONALD'S,1765916,5733 S KEDZIE AVE,CHICAGO,IL,60629,41.788891434222,-87.7032795921656,2016-09-30,Pass,33,"FOOD AND NON-FOOD CONTACT EQUIPMENT UTENSILS CLEAN, FREE OF ABRASIVE DETERGENTS","THE FOLLOWING IN NEED OF CLEANING: ALL DRINK DISPENSOR NOZZLES AND AREA AROUND THE NOZZLES, EXTERIOR AND INTERIOR OF FRYERS. MUST DETAIL CLEAN AND MAINTAIN. "
1965772,MCDONALD'S,1985417,10 E CHICAGO AVE,CHICAGO,IL,60611,41.896792874374,-87.6277875784165,2016-10-04,Pass,33,"FOOD AND NON-FOOD CONTACT EQUIPMENT UTENSILS CLEAN, FREE OF ABRASIVE DETERGENTS",CORRECTED.
1965826,MCDONALD'S,1333951,2400 N LINCOLN AVE,CHICAGO,IL,60614,41.925435975229,-87.6489509885183,2016-10-04,Pass,33,"FOOD AND NON-FOOD CONTACT EQUIPMENT UTENSILS CLEAN, FREE OF ABRASIVE DETERGENTS",VIOLATION CORRECTED
1966437,MCDONALD'S,2308020,2425 E 79TH ST,CHICAGO,IL,60649,41.7516335989759,-87.5651606509335,2016-10-13,Pass,33,"FOOD AND NON-FOOD CONTACT EQUIPMENT UTENSILS CLEAN, FREE OF ABRASIVE DETERGENTS","NOTED THE EXTERIOR OF THE COOKING EQUIPMENT DIRTY. MUST DETAIL CLEAN TO REMOVE GREASE. ALSO CLEAN THE DRY STORAGE SHELVING,PREP TABLE AND COUNTER TOPS."
1966578,CANADY ENTERPRISES CORP X (MCDONALD'S),2432672,500 W MADISON ST,CHICAGO,IL,60661,41.8819943382051,-87.6397586848809,2016-10-17,Pass,33,"FOOD AND NON-FOOD CONTACT EQUIPMENT UTENSILS CLEAN, FREE OF ABRASIVE DETERGENTS","INTERIOR PANEL OF ICE MACHINE NOT CLEAN,SLIGHT BUILD-UP.MUST CLEAN/MAINTAIN. "
1967051,MCDONALD'S,1979615,7832 S WESTERN AVE,CHICAGO,IL,60620,41.7509316572994,-87.6830175318953,2016-10-24,Pass,12,"HAND WASHING FACILITIES: WITH SOAP AND SANITARY HAND DRYING DEVICES, CONVENIENT AND ACCESSIBLE TO FOOD PREP AREA",VIOLATION CORRECTED
1967051,MCDONALD'S,1979615,7832 S WESTERN AVE,CHICAGO,IL,60620,41.7509316572994,-87.6830175318953,2016-10-24,Pass,33,"FOOD AND NON-FOOD CONTACT EQUIPMENT UTENSILS CLEAN, FREE OF ABRASIVE DETERGENTS",OBSERVED SHELVING AND LEDGES OF EQUIPMENT WITH FOOD DEBRIS. INSTRUCTED TO CLEAN AND MAINTAIN THE EXTERIOR OF ALL EQUIPMENT.
1971115,MCDONALD'S,1874347,6515 S WESTERN AVE,CHICAGO,IL,60636,41.7751165659088,-87.6833858388708,2016-11-09,Pass w/ Conditions,12,"HAND WASHING FACILITIES: WITH SOAP AND SANITARY HAND DRYING DEVICES, CONVENIENT AND ACCESSIBLE TO FOOD PREP AREA",THE ELECTRIC HAND DRYERS IN THE WOMEN'S WASHROOM ARE NOT OPERATIONAL.  NO PAPER TOWELS WERE AVAILABLE INSIDE OF THE WASHROOM FOR HAND DRYING. MANAGEMENT INSTRUCTED TO PROVIDE PAPER TOWELS OR OPERATIONAL SANITARY HAND DRYING DEVICES AT ALL TIMES. CRITICAL VIOLATION 7-38-030.
1975323,MCDONALD'S # 17274 (MCDONALD'S (T3- L4)),2487937,11601 W TOUHY AVE,CHICAGO,IL,60666,42.0085364008687,-87.9144284392705,2016-11-14,Pass,11,"ADEQUATE NUMBER, CONVENIENT, ACCESSIBLE, DESIGNED, AND MAINTAINED",CORRECTED (EXPOSED HAND SINK HAS BEEN INSTALLED).
1975323,MCDONALD'S # 17274 (MCDONALD'S (T3- L4)),2487937,11601 W TOUHY AVE,CHICAGO,IL,60666,42.0085364008687,-87.9144284392705,2016-11-14,Pass,33,"FOOD AND NON-FOOD CONTACT EQUIPMENT UTENSILS CLEAN, FREE OF ABRASIVE DETERGENTS",CORRECTED
1975422,MCDONALD'S,2391005,6420-6430 S CICERO AVE,CHICAGO,IL,60638,41.7759415876664,-87.7423386925991,2016-11-15,Pass,33,"FOOD AND NON-FOOD CONTACT EQUIPMENT UTENSILS CLEAN, FREE OF ABRASIVE DETERGENTS","CLEAN INTERIOR OF REACH IN FREEZER AND ICE MACHINE TO REMOVE BUILD UP. CLEAN ALL DRINK DISPENSOR NOZZLES TO REMOVE ALL BUILD UP. CLEAN AND MAINTAIN CLEAN AT ALL TIMES. "
1975428,MCDONALD'S,1985404,645 N MCCLURG CT,CHICAGO,IL,60611,41.8940665113648,-87.617607513688,2016-11-15,Pass,33,"FOOD AND NON-FOOD CONTACT EQUIPMENT UTENSILS CLEAN, FREE OF ABRASIVE DETERGENTS",INSTRUCTED TO DETAIL CLEAN AND MAINTAIN THE GASKETS AROUND ALL REACH-IN REFRIGERATION AND FREEZER UNITS ON PREMISES TO REMOVE FOOD DEBRIS BUILDUP.
1976448,MCDONALD'S,1678525,5700 S CICERO AVE,CHICAGO,IL,60638,41.7893293232654,-87.7416456441964,2016-12-02,Pass,33,"FOOD AND NON-FOOD CONTACT EQUIPMENT UTENSILS CLEAN, FREE OF ABRASIVE DETERGENTS","ALL DRINK DISPENSOR NOZZLES IN NEED OF CLEANING TO REMOVE ALL BUILD UP. MUST CLEAN AND MAINTAIN. "
1978247,MCDONALD'S,1943516,6560 S STONY ISLAND AVE,CHICAGO,IL,60637,41.7752200873081,-87.5864366257481,2016-12-15,Pass,33,"FOOD AND NON-FOOD CONTACT EQUIPMENT UTENSILS CLEAN, FREE OF ABRASIVE DETERGENTS",VIOLATION CORRECTED.
1978548,MCDONALD'S RESTAURANT (MCDONALD'S RESTAURANT (T3 H9)),51206,11601 W TOUHY AVE,CHICAGO,IL,60666,42.0085364008687,-87.9144284392705,2016-12-22,Pass w/ Conditions,12,"HAND WASHING FACILITIES: WITH SOAP AND SANITARY HAND DRYING DEVICES, CONVENIENT AND ACCESSIBLE TO FOOD PREP AREA",Observed the rear exposed handsink without paper towels. Facility installed during inspection. Instructed facility to maintain paper towels and soap at all exposed handsinks and to maintain.  Observed the handsink near the fryers inaccessible due to large oven gloves and a baking pan stored on top. Observed the rear exposed handsink inaccessible due to a rack of bread/buns directly in front of said sink. Facility relocated all items during inspection. Instructed facility to maintain exposed handsinks accessible at all times. Critical violation 7-38-030.
1978548,MCDONALD'S RESTAURANT (MCDONALD'S RESTAURANT (T3 H9)),51206,11601 W TOUHY AVE,CHICAGO,IL,60666,42.0085364008687,-87.9144284392705,2016-12-22,Pass w/ Conditions,33,"FOOD AND NON-FOOD CONTACT EQUIPMENT UTENSILS CLEAN, FREE OF ABRASIVE DETERGENTS","Observed the whipped cream compartment in the front 1 door cooler to be dirty. Instructed facility to clean and maintain.  Observed slight dirt accumulation in the upper interior portion of the ice machine. Instructed facility to clean, sanitize, and maintain."
1978549,MCDONALD'S,1970361,9542 S HALSTED ST,CHICAGO,IL,60628,41.7202240990589,-87.6433279836791,2016-12-22,Pass,33,"FOOD AND NON-FOOD CONTACT EQUIPMENT UTENSILS CLEAN, FREE OF ABRASIVE DETERGENTS",VIOLATION CORRECTED
1978599,MCDONALD'S (MCDONALDS (T3 K9)),64032,11601 W TOUHY AVE,CHICAGO,IL,60666,42.0085364008687,-87.9144284392705,2016-12-23,Pass,33,"FOOD AND NON-FOOD CONTACT EQUIPMENT UTENSILS CLEAN, FREE OF ABRASIVE DETERGENTS","Observed light dirt accumulation in the upper interior portion of the ice machine. Instructed facility to clean, sanitize, and maintain."
1978681,MCDONALD'S #4305 (MCDONALD'S),1922105,4844 N LINCOLN AVE,CHICAGO,IL,60625,41.9697537205744,-87.6894034367043,2016-12-27,Pass,33,"FOOD AND NON-FOOD CONTACT EQUIPMENT UTENSILS CLEAN, FREE OF ABRASIVE DETERGENTS",CORRECTED.
