InspectionID,BusinessName,License,Address,City,State,Zip,Latitude,Longitude,DatePerformed,Result,ViolationID,Name,Comments
670681,"ANDIAMO'S O'HARE, LLC (ANDIAMO'S O'HARE (HILTON O'HARE LOBBY))",1381615,11601 W TOUHY AVE,CHICAGO,IL,60666,42.0085364008687,-87.9144284392705,2012-02-21,Pass w/ Conditions,8,"SANITIZING RINSE FOR EQUIPMENT AND UTENSILS:  CLEAN, PROPER TEMPERATURE, CONCENTRATION, EXPOSURE TIME","Equipment and utensils should get proper exposure to the sanitizing solution during the rinse cycle.  Bactericidal treatment shall consist of exposure of all dish and utensil surfaces to a rinse of clean water at a temperature of not less than 180F.    FOUND HIGH TEMPERATURE DISHMACHNE (POT WASHER) NOT MAINTAINING PROPER FINAL RINSE TEMPERATURE OF 180F. NOTED FINAL RINSE TEMPERATURE OF 115F. INSTRUCTED MANAGER, A MECHANICAL DISH WASHING MACHINE SHOULD PROVIDE A FINAL SANITIZING OF EITHER 50 PPM CHLORINE FOR CHEMICAL SANITIZING MACHINE OR 180F OR ABOVE FOR FINAL RINSE FOR HOT WATER SANITIZING MACHINE. THE SAID DISH MACHINE WAS TAGGED 'HELD FOR INSPECTION' BY THE CHICAGO DEPT. OF PUBLIC HEALTH. INSTRUCTED NOT TO USE. (TEMPORARILY USE 3 COMPARTMENT SINK AND HIGH TEMPERATURE DISHMACHINE) INSTRUCTED TO REPAIR. WHEN FIXED, PLEASE FAX A REQUEST FOR RE INSPECTION AT 312-746-4240 TO ENSURE THAT THE SAID EQUIPMENT IS REPAIRED AND HELD FOR INSPECTION TAG CAN BE REMOVED PRIOR TO USE.  CRITICAL CITATION ISSUED 7-38-030"
670681,"ANDIAMO'S O'HARE, LLC (ANDIAMO'S O'HARE (HILTON O'HARE LOBBY))",1381615,11601 W TOUHY AVE,CHICAGO,IL,60666,42.0085364008687,-87.9144284392705,2012-02-21,Pass w/ Conditions,8,"SANITIZING RINSE FOR EQUIPMENT AND UTENSILS:  CLEAN, PROPER TEMPERATURE, CONCENTRATION, EXPOSURE TIME","FOUND LOW TEMPERATURE GLASS WASHER/DISH MACHINE BEHIND BAR WITH SIGN 'OUT OF ORDER' AND NOT IN USE. INSTRUCTED MANAGER, A MECHANICAL DISH WASHING MACHINE SHOULD PROVIDE A FINAL SANITIZING OF EITHER 50 PPM CHLORINE FOR CHEMICAL SANITIZING MACHINE OR 180F OR ABOVE FOR FINAL RINSE FOR HOT WATER SANITIZING MACHINE. THE SAID DISH MACHINE WAS TAGGED HELD FOR INSPECTION BY THE CHICAGO DEPT. WHEN FIXED, PLEASE FAX A REQUEST FOR RE INSPECTION AT 312-746-4240 TO ENSURE THAT THE SAID EQUIPMENT IS REPAIRED AND HELD FOR INSPECTION TAG CAN BE REMOVED PRIOR TO USE.   NO CITATION ISSUED."
670681,"ANDIAMO'S O'HARE, LLC (ANDIAMO'S O'HARE (HILTON O'HARE LOBBY))",1381615,11601 W TOUHY AVE,CHICAGO,IL,60666,42.0085364008687,-87.9144284392705,2012-02-21,Pass w/ Conditions,33,"FOOD AND NON-FOOD CONTACT EQUIPMENT UTENSILS CLEAN, FREE OF ABRASIVE DETERGENTS",INSTRUCTED TO CLEAN AND MAINTAIN INTERIOR SURFACES OF BUFFET TABLE CABINETS WITH DRIED FOOD DEBRIS ACCUMULATION.---------MUST CLEAN AND MAINTAIN POTS AND PANS STORAGE RACKS WITH GREASE BUILD-UP (NEXT TO 3 COMPARTMENT SINK) AT DISH ROOM.
670683,HILTON O'HARE,1878675,11601 W TOUHY AVE,CHICAGO,IL,60666,42.0085364008687,-87.9144284392705,2012-02-21,Pass w/ Conditions,33,"FOOD AND NON-FOOD CONTACT EQUIPMENT UTENSILS CLEAN, FREE OF ABRASIVE DETERGENTS","All food and non-food contact surfaces of equipment and all food storage utensils shall be thoroughly cleaned and sanitized daily.  STAINLESS RACKS OF 3 DOOR COOLER UNCLEAN,BECOMING RUSTY MUST CLEAN AND MAINTAIN;  INTERIOR OF 3 DOOR PREP COOLER UNCLEAN,MUST CLEAN AND MAINTAIN;  ATTACHED EQUIPMENT,CONDENSER TUBES ABOVE COOLER  WITH ACCUMULATED DUST MUST DETAIL CLEAN AND MAINTAIN;  INTERIOR PANEL OF ICE MACHINE IN THE GRAND BALLROOM NOT CLEAN MUST CLEAN AND MAINTAIN"
670838,O'HARE GASLIGHT CLUB (GASLIGHT CLUB (HILTON O'HARE LOBBY)),43114,4000 N O'HARE FIELD,CHICAGO,IL,60666,41.9704264,-87.9053663,2012-02-27,Pass,33,"FOOD AND NON-FOOD CONTACT EQUIPMENT UTENSILS CLEAN, FREE OF ABRASIVE DETERGENTS",All food and non-food contact surfaces of equipment and all food storage utensils shall be thoroughly cleaned and sanitized daily.  DISH MACHINE RACKS VERY DIRTY MUST DETAIL CLEAN AND MAINTAIN;  SHELVES INSIDE COOLERS UNCLEAN MUST CLEAN AND MAINTAIN;  COUNTER TOP BEHIND AND UNDER COFFEE MACHINE DIRTY MUST DETAIL CLEAN AND MAINTAIN
670960,HILTON O'HARE,1878675,11601 W TOUHY AVE,CHICAGO,IL,60666,42.0085364008687,-87.9144284392705,2012-02-29,Pass,33,"FOOD AND NON-FOOD CONTACT EQUIPMENT UTENSILS CLEAN, FREE OF ABRASIVE DETERGENTS",FOR NEXT REGULAR INSPECTION
679520,O'HARE BAR (CUBS BAR & GRILL (T3 ROTUNDA)),1621425,11601 W TOUHY AVE,CHICAGO,IL,60666,42.0085364008687,-87.9144284392705,2012-03-14,Pass,33,"FOOD AND NON-FOOD CONTACT EQUIPMENT UTENSILS CLEAN, FREE OF ABRASIVE DETERGENTS","All food and non-food contact surfaces of equipment and all food storage utensils shall be thoroughly cleaned and sanitized daily.  INTERIOR OF 8 DOOR COOLER UNCLEAN MUST CLEAN AND MAINTAIN;  EXTERIOR SODA MACHINE FACING DEEP FRYER DIRTY MUST CLEAN AND MAINTAIN;  CABINETS/SHELVES IN COOKING AREA UNCLEAN.FULL OF GREASE MUST REMOVE,CLEAN AND MAINTAIN"
679553,"ANDIAMO'S O'HARE, LLC (ANDIAMO'S O'HARE (HILTON O'HARE LOBBY))",1381615,11601 W TOUHY AVE,CHICAGO,IL,60666,42.0085364008687,-87.9144284392705,2012-03-09,Pass,33,"FOOD AND NON-FOOD CONTACT EQUIPMENT UTENSILS CLEAN, FREE OF ABRASIVE DETERGENTS","INSTRUCTED TO CLEAN AND MAINTAIN INTERIOR SURFACES OF BUFFET TABLE CABINETS WITH DRIED FOOD DEBRIS ACCUMULATION.---------MUST CLEAN AND MAINTAIN POTS AND PANS STORAGE RACKS WITH GREASE BUILD-UP (NEXT TO 3 COMPARTMENT SINK) AT DISH ROOM.  "
1234766,CAFFE MERCATO (CAFFE MERCATO (HILTON O'HARE MAIN LOBBY)),1927556,11601 W TOUHY AVE,CHICAGO,IL,60666,42.0085364008687,-87.9144284392705,2012-08-21,Pass,33,"FOOD AND NON-FOOD CONTACT EQUIPMENT UTENSILS CLEAN, FREE OF ABRASIVE DETERGENTS",INSTRUCTED TO DETAIL CLEAN AND MAINTAIN INTERIOR SURFACES OF EXPOSED HAND SINK CABINET IN PREP AREA.------MUST CLEAN AROUND EXPOSED HAND SINK FAUCET.
1235776,"ANDIAMO'S O'HARE, LLC (ANDIAMO'S O'HARE (HILTON O'HARE LOBBY))",1381615,11601 W TOUHY AVE,CHICAGO,IL,60666,42.0085364008687,-87.9144284392705,2013-05-09,Pass w/ Conditions,8,"SANITIZING RINSE FOR EQUIPMENT AND UTENSILS:  CLEAN, PROPER TEMPERATURE, CONCENTRATION, EXPOSURE TIME","BAR GLASSMACHINE NOT MAINTAINED WHILE IN USE, 0 PPM CHLORINE. INSTRUCTED MANAGER TO TEMPORARILY WASH, RINSE AND SANITIZE GLASSES, MULTI-USE UTENSILS AT 3-COMPARTMENT SINK, MUST REPAIR AND MAINTAIN GLASSMACHINE. CRITICAL VIOLATION 7-38-030.  DISHMACHINE TAGGED BY CDPH AT THIS TIME."
1235776,"ANDIAMO'S O'HARE, LLC (ANDIAMO'S O'HARE (HILTON O'HARE LOBBY))",1381615,11601 W TOUHY AVE,CHICAGO,IL,60666,42.0085364008687,-87.9144284392705,2013-05-09,Pass w/ Conditions,33,"FOOD AND NON-FOOD CONTACT EQUIPMENT UTENSILS CLEAN, FREE OF ABRASIVE DETERGENTS","OBSERVED FOOD DEBRIS IN PREP AREA CABINETS, ON SHELVES AT PREP AREA SALAD STATION AND COOKLINE. MUST CLEAN AND MAINTAIN EQUIPMENT."
1235777,CAFFE MERCATO (CAFFE MERCATO (HILTON O'HARE MAIN LOBBY)),1927556,11601 W TOUHY AVE,CHICAGO,IL,60666,42.0085364008687,-87.9144284392705,2013-05-09,Pass,33,"FOOD AND NON-FOOD CONTACT EQUIPMENT UTENSILS CLEAN, FREE OF ABRASIVE DETERGENTS",OBSERVED FOOD DEBRIS BUILD UP ON EXTERIOR OF EXPOSED HANDWASH BOWL. MUST CLEAN SINK.
1235793,O'HARE BAR (CUBS BAR & GRILL (T3 ROTUNDA)),1621425,11601 W TOUHY AVE,CHICAGO,IL,60666,42.0085364008687,-87.9144284392705,2013-05-16,Pass,33,"FOOD AND NON-FOOD CONTACT EQUIPMENT UTENSILS CLEAN, FREE OF ABRASIVE DETERGENTS",THE FOLLOWING NOT CLEAN- OBSERVED FOOD BUILD UP ON LOWER SIDE OF DISHMACHINE DRAIN BOARDS AND EXTERIOR OF ALL SINKS. MUST CLEAN AND MAINTAIN EQUIPMENT.
1236110,O'HARE BAR (CUBS BAR & GRILL (T3 ROTUNDA)),1621425,11601 W TOUHY AVE,CHICAGO,IL,60666,42.0085364008687,-87.9144284392705,2013-11-21,Pass,33,"FOOD AND NON-FOOD CONTACT EQUIPMENT UTENSILS CLEAN, FREE OF ABRASIVE DETERGENTS",MUST CLEAN AND SANITIZE INTERIOR OF UNUSED COOLER AT MAIN BAR.
1236133,"ANDIAMO'S O'HARE, LLC (ANDIAMO'S O'HARE (HILTON O'HARE LOBBY))",1381615,11601 W TOUHY AVE,CHICAGO,IL,60666,42.0085364008687,-87.9144284392705,2014-01-06,Pass,33,"FOOD AND NON-FOOD CONTACT EQUIPMENT UTENSILS CLEAN, FREE OF ABRASIVE DETERGENTS",OBSERVED FOOD DEBRIS ON EXTERIOR OF SINKS AT BAR. MUST CLEAN AND MAINTAIN EQUIPMENT.
1236134,HILTON O'HARE,1878675,11601 W TOUHY AVE,CHICAGO,IL,60666,42.0085364008687,-87.9144284392705,2014-01-06,Pass w/ Conditions,8,"SANITIZING RINSE FOR EQUIPMENT AND UTENSILS:  CLEAN, PROPER TEMPERATURE, CONCENTRATION, EXPOSURE TIME","HIGH TEMPERATURE TRAY/DISHMACHINE NOT MAINTAINED, FINAL RINSE TEMPERATURE AT 148 F WHILE IN USE. INSTRUCTED MANAGER TO REPAIR SAID MACHINE, FINAL RINSE TEMPERATURE MUST BE 180 F OR ABOVE. INSTRUCTED MANAGER TO WASH, RINSE AND SANITIZE ALL LARGE TRAYS/MULTI-USE EQUIPMENT IN 3-COMPARTMENT SINK. CRITCAL VIOLATION 7-38-030.  TRAY/DISHMACHINE TAGGED BY CDPH AT THIS TIME."
1236134,HILTON O'HARE,1878675,11601 W TOUHY AVE,CHICAGO,IL,60666,42.0085364008687,-87.9144284392705,2014-01-06,Pass w/ Conditions,33,"FOOD AND NON-FOOD CONTACT EQUIPMENT UTENSILS CLEAN, FREE OF ABRASIVE DETERGENTS",2ND FLOOR SATELLITE KITCHEN ICE MACHINE INTERIOR WITH SLIGHT CALCIUM BUILD UP. INSTRUCTED MANAGER TO CLEAN AND MAINTAIN INTERIOR OF ICE MACHINE.
1236164,HILTON O'HARE,1878675,11601 W TOUHY AVE,CHICAGO,IL,60666,42.0085364008687,-87.9144284392705,2014-01-27,Pass,8,"SANITIZING RINSE FOR EQUIPMENT AND UTENSILS:  CLEAN, PROPER TEMPERATURE, CONCENTRATION, EXPOSURE TIME","CORRECTED, HIGH TEMPERATURE TRAY/DISHMACHINE FINAL RINSE TEMPERATURE AT 205 F.     TAG REMOVED BY CDPH AT THIS TIME."
1236164,HILTON O'HARE,1878675,11601 W TOUHY AVE,CHICAGO,IL,60666,42.0085364008687,-87.9144284392705,2014-01-27,Pass,33,"FOOD AND NON-FOOD CONTACT EQUIPMENT UTENSILS CLEAN, FREE OF ABRASIVE DETERGENTS",CORRECTED
1271212,RENAISSANCE CHICAGO O'HARE HOTEL,1543307,8500 W BRYN MAWR AVE,CHICAGO,IL,60631,41.9811807248781,-87.8391675577046,2012-06-07,Pass,33,"FOOD AND NON-FOOD CONTACT EQUIPMENT UTENSILS CLEAN, FREE OF ABRASIVE DETERGENTS",Above violation has been corrected at this time of complaint re-inspection on 6/07/2012.
1286022,"ANDIAMO'S O'HARE, LLC (ANDIAMO'S O'HARE (HILTON O'HARE LOBBY))",1381615,11601 W TOUHY AVE,CHICAGO,IL,60666,42.0085364008687,-87.9144284392705,2012-10-22,Pass,33,"FOOD AND NON-FOOD CONTACT EQUIPMENT UTENSILS CLEAN, FREE OF ABRASIVE DETERGENTS","MUST CLEAN AND SANITIZE ALL COOKING EQUIPMENTS,CHOPPING BOARD,SIDES AND EXTERIOR PART OF THE STOVES, GRILL AND DEEP FRYER AND MAINTAIN."
1300348,O'HARE BAR (CUBS BAR & GRILL (T3 ROTUNDA)),1621425,11601 W TOUHY AVE,CHICAGO,IL,60666,42.0085364008687,-87.9144284392705,2012-11-06,Pass,33,"FOOD AND NON-FOOD CONTACT EQUIPMENT UTENSILS CLEAN, FREE OF ABRASIVE DETERGENTS","INSTRUCTED TO DETAIL CLEAN AND MAINTAIN INTERIOR AND EXTERIOR SURFACES OF STOVE/OVEN, GRILL, FRYER, PIPES, PIPE CHASES, CONDUITS, PLUMBING LINE, SHELVES, INTERIOR SURFACES OF DISH MACHINE, PLATE CARTS, WALLS WITH EXCESSIVE GREASE BUILD-UP IN COOKING AREA/KITCHEN."
1335216,RENAISSANCE CHICAGO O'HARE HOTEL,1543307,8500 W BRYN MAWR AVE,CHICAGO,IL,60631,41.9811807248781,-87.8391675577046,2013-04-29,Pass,33,"FOOD AND NON-FOOD CONTACT EQUIPMENT UTENSILS CLEAN, FREE OF ABRASIVE DETERGENTS",INSTRUCTED TO DEFROST AND MAINTAIN DORM FREEZER AT THE ROOM SERVICE AREA OF THE KITCHEN PREP AREA....ALSO INSTRUCTED TO CLEAN UPPER COMPARTMENT OF THE ICE MACHINE AND MAINTAIN.
1335434,HILTON O'HARE,1878675,11601 W TOUHY AVE,CHICAGO,IL,60666,42.0085364008687,-87.9144284392705,2013-05-09,Pass,33,"FOOD AND NON-FOOD CONTACT EQUIPMENT UTENSILS CLEAN, FREE OF ABRASIVE DETERGENTS",INSTRUCTED TO DETAIL CLEAN AND MAINTAIN POTS/PANS AND DISH STORAGE RACKS WITH DUST AND GREASE BUILD UP AT DISH ROOM AREA.----------MUST CLEAN AND MAINTAIN INTERIOR STORAGE CABINET IN MAIN KITCHEN WITH GREASE AND DRIED FOOD DEBRIS.
1335447,O'HARE GASLIGHT CLUB (GASLIGHT CLUB (HILTON O'HARE LOBBY)),43114,4000 N O'HARE FIELD,CHICAGO,IL,60666,41.9704264,-87.9053663,2013-05-09,Pass,33,"FOOD AND NON-FOOD CONTACT EQUIPMENT UTENSILS CLEAN, FREE OF ABRASIVE DETERGENTS",INSTRUCTED TO DETAIL CLEAN AND MAINTAIN ALL SODA GUN HOLDER BEHIND BARS.
1335840,"ANDIAMO'S O'HARE, LLC (ANDIAMO'S O'HARE (HILTON O'HARE LOBBY))",1381615,11601 W TOUHY AVE,CHICAGO,IL,60666,42.0085364008687,-87.9144284392705,2013-05-31,Pass,33,"FOOD AND NON-FOOD CONTACT EQUIPMENT UTENSILS CLEAN, FREE OF ABRASIVE DETERGENTS","OBSERVED FOOD DEBRIS IN PREP AREA CABINETS, ON SHELVES AT PREP AREA SALAD STATION AND COOKLINE. MUST CLEAN AND MAINTAIN EQUIPMENT."
1369495,RENAISSANCE CHICAGO O'HARE HOTEL,2263086,8500 W BRYN MAWR AVE,CHICAGO,IL,60631,41.9811807248781,-87.8391675577046,2013-10-07,Pass,33,"FOOD AND NON-FOOD CONTACT EQUIPMENT UTENSILS CLEAN, FREE OF ABRASIVE DETERGENTS","NOTED HEAVY LIME BUILT UP AT THE EXTERIOR SURFACES OF THE DISH MACHINES. ALSO NOTED FOOD DEBRIS AND DIRT UNDERNEATH SHELVING WITH STEAM TABLE AT THE BASEMENT OF EMPLOYEE CAFETERIA, CLEAN INSIDE ELECTRICAL UNIT OF ALL DEEP FRYERS AT PREP AREAS WITH THICK GREASE AND DIRT. MUST CLEAN AND MAINTAIN"
1424307,O'HARE BAR (CUBS BAR & GRILL (T3 ROTUNDA)),1621425,11601 W TOUHY AVE,CHICAGO,IL,60666,42.0085364008687,-87.9144284392705,2014-06-06,Pass,33,"FOOD AND NON-FOOD CONTACT EQUIPMENT UTENSILS CLEAN, FREE OF ABRASIVE DETERGENTS",CORRECTED
1424318,CHICAGO O'HARE MARRIOTT HOTEL (HARVEST GRILL),34348,8535 W HIGGINS RD,CHICAGO,IL,60631,41.9867885856625,-87.8401241734616,2014-06-11,Pass w/ Conditions,3,"POTENTIALLY HAZARDOUS FOOD MEETS TEMPERATURE REQUIREMENT DURING STORAGE, PREPARATION DISPLAY AND SERVICE","FOUND THE FOLLOWING POTENTIALLY HAZARDOUS FOODS HELD AT IMPROPER TEMPERATURES BETWEEN 44.9 F AND 49.1 F HELD INSIDE REACH IN COOLER #16-DRESSING, PICO DE GALLO, RIBS AND MAYONNAISE. HOWEVER FOUND SAID REACH IN COOLER AMBIENT AIR TEMPERATURE AT 39.7 F. INSTRUCTED MANAGER ALL POTENTIALLY HAZARDOUS FOODS MUST BE HELD AT 40 F OR BELOW IF HELD COLD. MANAGER VOLUNTARILLY DISCARDED ALL OUT OF TEMPERATURE SAID ITEMS. CRITICAL VIOLATION 7-38-005(A)."
1424318,CHICAGO O'HARE MARRIOTT HOTEL (HARVEST GRILL),34348,8535 W HIGGINS RD,CHICAGO,IL,60631,41.9867885856625,-87.8401241734616,2014-06-11,Pass w/ Conditions,33,"FOOD AND NON-FOOD CONTACT EQUIPMENT UTENSILS CLEAN, FREE OF ABRASIVE DETERGENTS",THE FOLLOWING NOT CLEAN- OBSERVED FOOD DEBRIS ON SHELVES AT BAKERY AREA AND ACCUMULATED GREASE/FOOD BUILD UP INSIDE FRYERS. INSTRUCTED MANAGER TO CLEAN AND MAINTAIN EQUIPMENT.
1424410,"ANDIAMO'S O'HARE, LLC (ANDIAMO'S O'HARE (HILTON O'HARE LOBBY))",1381615,11601 W TOUHY AVE,CHICAGO,IL,60666,42.0085364008687,-87.9144284392705,2014-08-06,Pass,33,"FOOD AND NON-FOOD CONTACT EQUIPMENT UTENSILS CLEAN, FREE OF ABRASIVE DETERGENTS",OBSERVED CALCIUM BUILD UP AROUND HANDLES OF HANDWASH BOWLS AT PREP AREA. INSTRUCTED MANAGER TO CLEAN AND MAINTAIN SINKS.
1424422,O'HARE GASLIGHT CLUB (GASLIGHT CLUB (HILTON O'HARE LOBBY)),43114,4000 N O'HARE FIELD,CHICAGO,IL,60666,41.9704264,-87.9053663,2014-08-08,Pass,33,"FOOD AND NON-FOOD CONTACT EQUIPMENT UTENSILS CLEAN, FREE OF ABRASIVE DETERGENTS",OBSERVED BUILD UP INSIDE MAIN BAR GUN HOLDER ALSO OBSERVED INTERIOR OF TOP HAT BAR 3-COMPARTMENT SINK NOT CLEAN. INSTRUCTED MANAGER TO CLEAN BAR GUN HOLDER AND 3-COMPARTMENT SINK.
1424428,HILTON O'HARE,1878675,11601 W TOUHY AVE,CHICAGO,IL,60666,42.0085364008687,-87.9144284392705,2014-08-13,Pass,33,"FOOD AND NON-FOOD CONTACT EQUIPMENT UTENSILS CLEAN, FREE OF ABRASIVE DETERGENTS",CORRECTED
1424438,RENAISSANCE CHICAGO O'HARE HOTEL,2263086,8500 W BRYN MAWR AVE,CHICAGO,IL,60631,41.9811807248781,-87.8391675577046,2014-08-15,Pass w/ Conditions,33,"FOOD AND NON-FOOD CONTACT EQUIPMENT UTENSILS CLEAN, FREE OF ABRASIVE DETERGENTS","THE FOLLOWING NOT CLEAN- OBSERVED ACCUMULATED FOOD DEBRIS ON LOWER SIDE OF DISHMACHINE DRAINBOARDS, CALCIUM/LIME BUILD UP ON AND ROUND EXPOSED HANDWASH BOWL HANDLES, FOOD DEBRIS ON EXTERIOR OF PREP AREA REACH IN COOLERS AND PREP COOLER DOOR GASKETS WITH FOOD BUILD UP. INSTRUCTED MANAGER TO CLEAN AND MAINTAIN EQUIPMENT."
1424439,RENAISSANCE CHICAGO O'HARE HOTEL (STARBUCKS (MAIN FLOOR)),2278129,8500 W BRYN MAWR AVE,CHICAGO,IL,60631,41.9811807248781,-87.8391675577046,2014-08-15,Pass,33,"FOOD AND NON-FOOD CONTACT EQUIPMENT UTENSILS CLEAN, FREE OF ABRASIVE DETERGENTS",OBSERVED FOOD DEBRIS BUILD UP ON EXTERIOR AND INTERIOR OF SINKS. INSTRUCTED MANAGER TO CLEAN AND MAINTAIN.
1424594,HOLIDAY INN CHICAGO O'HARE (HOLIDAY INN/BAR LOUIE),1518913,5615 N CUMBERLAND AVE,CHICAGO,IL,60631,41.9814281641774,-87.8364343020935,2014-11-05,Pass w/ Conditions,2,FACILITIES TO MAINTAIN PROPER TEMPERATURE,"PREP COOLER UNDER GRILL, PRODUCE WALK IN COOLER AND DRESSING REACH IN COOLER REPAIRED, AMBIENT AIR TEMPERATURE AT 40 F OR BELOW FOR SAID COOLERS."
1424594,HOLIDAY INN CHICAGO O'HARE (HOLIDAY INN/BAR LOUIE),1518913,5615 N CUMBERLAND AVE,CHICAGO,IL,60631,41.9814281641774,-87.8364343020935,2014-11-05,Pass w/ Conditions,8,"SANITIZING RINSE FOR EQUIPMENT AND UTENSILS:  CLEAN, PROPER TEMPERATURE, CONCENTRATION, EXPOSURE TIME","CORRECTED, HIGH TEMPERATURE DISHMACHINE FINAL RINSE TEMPERATURE AT 190 F."
1424594,HOLIDAY INN CHICAGO O'HARE (HOLIDAY INN/BAR LOUIE),1518913,5615 N CUMBERLAND AVE,CHICAGO,IL,60631,41.9814281641774,-87.8364343020935,2014-11-05,Pass w/ Conditions,33,"FOOD AND NON-FOOD CONTACT EQUIPMENT UTENSILS CLEAN, FREE OF ABRASIVE DETERGENTS",CORRECTED.
1425186,O'HARE GASLIGHT CLUB (GASLIGHT CLUB (HILTON O'HARE LOBBY)),43114,4000 N O'HARE FIELD,CHICAGO,IL,60666,41.9704264,-87.9053663,2015-11-25,Pass,33,"FOOD AND NON-FOOD CONTACT EQUIPMENT UTENSILS CLEAN, FREE OF ABRASIVE DETERGENTS",OBSERVED FOOD DEBRIS ON EXTERIOR OF MEAT SLICER AND ON SPICE SHELF. INSTRUCTED MANAGER TO CLEAN MEAT SLICER AND SPICE SHELF.
1434244,HOLIDAY INN CHICAGO O'HARE (HOLIDAY INN/BAR LOUIE),1518913,5615 N CUMBERLAND AVE,CHICAGO,IL,60631,41.9814281641774,-87.8364343020935,2014-03-24,Pass w/ Conditions,2,FACILITIES TO MAINTAIN PROPER TEMPERATURE,"BURGER PATTIES REACH IN COOLER NOT MAINTAINED, BELOW GRILL, ABIENT AIR TEMPERATURE AT 46.9 F, FOUND BEEF BURGERS/CHICKEN HELD INSIDE SAID COOLER. INSTRUCTED MANAGER COOLER MUST BE REPAIRED, AMBIENT AIR TEMPERATURE MUST BE 40 F OR BELOW. CRITICAL VIOLATION 7-38-005(A)."
1434244,HOLIDAY INN CHICAGO O'HARE (HOLIDAY INN/BAR LOUIE),1518913,5615 N CUMBERLAND AVE,CHICAGO,IL,60631,41.9814281641774,-87.8364343020935,2014-03-24,Pass w/ Conditions,3,"POTENTIALLY HAZARDOUS FOOD MEETS TEMPERATURE REQUIREMENT DURING STORAGE, PREPARATION DISPLAY AND SERVICE","FOUND THE FOLLOWING POTENTIALLY HAZARDOUS FOODS HELD AT IMPROPER TEMPERATURES BETWEEN 46.0 F AND 46.9 F- BEEF BURGERS, TURKEY AND PULLED PORK. INSTRUCTED MANAGER ALL POTENTIALLY HAZARDOUS FOODS MUST BE HELD AT 40 F OR BELOW IF HELD COLD. ALL SAID PONTIALLY HAZARDOUS FOODS VOLUNTARILY DISCARDED AT THIS TIME. CRITICAL VIOLATION 7-38-005(A)."
1532409,CHICAGO O'HARE MARRIOTT HOTEL (HARVEST GRILL),34348,8535 W HIGGINS RD,CHICAGO,IL,60631,41.9867885856625,-87.8401241734616,2015-03-30,Pass w/ Conditions,3,"POTENTIALLY HAZARDOUS FOOD MEETS TEMPERATURE REQUIREMENT DURING STORAGE, PREPARATION DISPLAY AND SERVICE","POTENTIALLY HAZARDOUS FOODS DOES NTO MEET TEMEPRATURE REQUIREMENT DURING STORAGE, PREPARATION AND SERVICE. FOUND CHILI THAT WAS COOKED 3-29-2015 INSIDE WALK-IN COOLER 20 LBS AT 53.9 F TO 55.3 F. INSTRUCTED MANAGER THAT POTENTIAL LYHAZARODUS FOODS MUST MAINTAIN 40 F OR BELOW. MANAGER VOLUNTARILY DENATURED AND DISCARDED. INSTRUCTED MANAGER THAT POTENTIALLY HAZARODUS FOODS MUST BE COOLED FROM 140 F TO 70 F IN 2 HOURS AND 70 F TO 40 F IN 4 HOURS. CRITICAL CITATION ISSUED 7-38-005(A). VALUE $130.00"
1532409,CHICAGO O'HARE MARRIOTT HOTEL (HARVEST GRILL),34348,8535 W HIGGINS RD,CHICAGO,IL,60631,41.9867885856625,-87.8401241734616,2015-03-30,Pass w/ Conditions,33,"FOOD AND NON-FOOD CONTACT EQUIPMENT UTENSILS CLEAN, FREE OF ABRASIVE DETERGENTS","CAN OPENER ATTACHED TOP PREP TABLE, GASKET ON 2 COOLER IN BAKERY,EXHAUST HOOD FILTERS IN CAFETERIA,  CUTTING BOARDS ON PREP COUNTER, FOIL ON TO OF STORAGE SHELVES OF COOKING EQUIPMENT, AND DEEP FRYER CABINETS NOT CLEAN. INSTRUCTED TO DETAIL CLEAN AND SANITIZE ALL FOOD CONTACT SURFACES AND REMOVE FOIL FROM SURFACE."
1546969,HILTON O'HARE,1878675,11601 W TOUHY AVE,CHICAGO,IL,60666,42.0085364008687,-87.9144284392705,2015-06-11,Pass w/ Conditions,1,"SOURCE SOUND CONDITION, NO SPOILAGE, FOODS PROPERLY LABELED, SHELLFISH TAGS IN PLACE",SHELLFISH TAGS NOT IN PLACE. OBSERVED CLAMS INSIDE REACH-IN COOLER WITHOUT SHELLFISH TAGS. INSTRUCTED THAT TAGS MUST STAY WITH PRODUCT UNTIL ALL PIECES ARE AERVED AND TAGS MUST BE HELD FOR 90 DAYS. CRITICAL CITATION ISSUED 7-38-005(B).
1546969,HILTON O'HARE,1878675,11601 W TOUHY AVE,CHICAGO,IL,60666,42.0085364008687,-87.9144284392705,2015-06-11,Pass w/ Conditions,33,"FOOD AND NON-FOOD CONTACT EQUIPMENT UTENSILS CLEAN, FREE OF ABRASIVE DETERGENTS","CAN OPENER, SLICER AND STORAGE RACK NOT CLEAN. INSTRUCTED TO DETAIL CLEAN AND SANITIZE ALL FOOD CONTACT SURFACES."
1559578,CHICAGO MARRIOTT O'HARE HOTEL,2379582,8535 W HIGGINS RD,CHICAGO,IL,60631,41.9867885856625,-87.8401241734616,2015-06-25,Pass,33,"FOOD AND NON-FOOD CONTACT EQUIPMENT UTENSILS CLEAN, FREE OF ABRASIVE DETERGENTS","FILTER ON EXHAUST HOOD IN CAFETERIA, CAN OPENER ATTACHED TO PREP TABLE, DEEP FRYER CABINETS, AND CUTTING BOARDS ATTACHED TO PREP TABLES NOT CLEAN. INSTRUCTED TO DETAIL CLEAN AND SANITIZE ALL FOOD CONTACT SURFACES. MUST ALSO REMOVE ALUMINUM FOIL ON SHELVES IN PREP AREA."
1559954,O'HARE BAR (CUBS BAR & GRILL (T3 ROTUNDA)),1621425,11601 W TOUHY AVE,CHICAGO,IL,60666,42.0085364008687,-87.9144284392705,2015-07-07,Pass,33,"FOOD AND NON-FOOD CONTACT EQUIPMENT UTENSILS CLEAN, FREE OF ABRASIVE DETERGENTS","STORAGE SHELVES UNDER COOKING EQUIPMENT, FILTERS ON EXHAUST HOOD ABOVE GRILL, AND COOLER GASKETS NOT CLEAN. INSTRUCTED TO DETAIL CLEAN AND SANITIZE ALL FOOD CONTACT SURFACES."
1561892,O'HARE GASLIGHT CLUB (GASLIGHT CLUB (HILTON O'HARE LOBBY)),43114,4000 N O'HARE FIELD,CHICAGO,IL,60666,41.9704264,-87.9053663,2015-08-05,Pass,33,"FOOD AND NON-FOOD CONTACT EQUIPMENT UTENSILS CLEAN, FREE OF ABRASIVE DETERGENTS",VIOLATION #33 NOW CORRECTED.
1566565,RENAISSANCE CHICAGO O'HARE HOTEL,2263086,8500 W BRYN MAWR AVE,CHICAGO,IL,60631,41.9811807248781,-87.8391675577046,2015-08-21,Pass,33,"FOOD AND NON-FOOD CONTACT EQUIPMENT UTENSILS CLEAN, FREE OF ABRASIVE DETERGENTS","DEEP FRYER CABINETS, STORAGE CABINETS IN STARBUCKS, CUTTING BOARD ATTACHED TO PREP TABLE, COOLER GASKET AND COOKING EQUIPMENT IN HOT STATION NOT CLEAN. INSTRUCTED TO DETAIL CLEAN AND SANITIZE ALL FOOD CONTACT SURFACES."
1567022,HOLIDAY INN CHICAGO O'HARE (HOLIDAY INN/BAR LOUIE),1518913,5615 N CUMBERLAND AVE,CHICAGO,IL,60631,41.9814281641774,-87.8364343020935,2015-09-01,Pass w/ Conditions,33,"FOOD AND NON-FOOD CONTACT EQUIPMENT UTENSILS CLEAN, FREE OF ABRASIVE DETERGENTS",VIOLATION #33 NOW CORRECTED.
1588745,O'HARE BAR (CUBS BAR & GRILL (T3 ROTUNDA)),1621425,11601 W TOUHY AVE,CHICAGO,IL,60666,42.0085364008687,-87.9144284392705,2015-11-23,Pass,33,"FOOD AND NON-FOOD CONTACT EQUIPMENT UTENSILS CLEAN, FREE OF ABRASIVE DETERGENTS","STORAGE CABINETS UNDER COUNTERS, STORAGE SHELVES, INTERIOR OF COOLERS AND EXHAUST HHOD AND FILTERS NOT CLEANED. INSTRUCTED TO DETAIL CLEAN AND SANITIZE ALL FOOD CONTACT SURFACES."
1591218,HILTON O'HARE,1878675,11601 W TOUHY AVE,CHICAGO,IL,60666,42.0085364008687,-87.9144284392705,2015-12-03,Pass,33,"FOOD AND NON-FOOD CONTACT EQUIPMENT UTENSILS CLEAN, FREE OF ABRASIVE DETERGENTS",CORRECTED.
1591221,"ANDIAMO'S O'HARE, LLC (ANDIAMO'S O'HARE (HILTON O'HARE LOBBY))",1381615,11601 W TOUHY AVE,CHICAGO,IL,60666,42.0085364008687,-87.9144284392705,2015-12-03,Pass,33,"FOOD AND NON-FOOD CONTACT EQUIPMENT UTENSILS CLEAN, FREE OF ABRASIVE DETERGENTS",CORRECTED.
1932082,HOLIDAY INN CHICAGO O'HARE (HOLIDAY INN/BAR LOUIE),1518913,5615 N CUMBERLAND AVE,CHICAGO,IL,60631,41.9814281641774,-87.8364343020935,2016-06-03,Pass,2,FACILITIES TO MAINTAIN PROPER TEMPERATURE,CORRECTED (2 DOOR PREP COOLER AIR TEMPERATURE NOW AT 38.5F AND 4 UNIT DRAWER COOLER AIR TEMPERATURE NOW AT 37.6F)
1932082,HOLIDAY INN CHICAGO O'HARE (HOLIDAY INN/BAR LOUIE),1518913,5615 N CUMBERLAND AVE,CHICAGO,IL,60631,41.9814281641774,-87.8364343020935,2016-06-03,Pass,8,"SANITIZING RINSE FOR EQUIPMENT AND UTENSILS:  CLEAN, PROPER TEMPERATURE, CONCENTRATION, EXPOSURE TIME",CORRECTED (FINAL SANITIZING RINSE NOW AT 184F FOR HIGH TEMP DISH MACHINE AND FINAL SANITIZING RINSE NOW FOR IODINE CONCENTRATION AT 25 PPM AT LOW TEMP DISH MACHINE BEHIND BAR).
1932082,HOLIDAY INN CHICAGO O'HARE (HOLIDAY INN/BAR LOUIE),1518913,5615 N CUMBERLAND AVE,CHICAGO,IL,60631,41.9814281641774,-87.8364343020935,2016-06-03,Pass,33,"FOOD AND NON-FOOD CONTACT EQUIPMENT UTENSILS CLEAN, FREE OF ABRASIVE DETERGENTS","INSTRUCTED TO DETAIL CLEAN AND MAINTAIN THE FOLLOWING: INTERIOR AND EXTERIOR SURFACES OF ALL COOKING EQUIPMENT, DISH MACHINE IN REAR AND DISH MACHINE BEHIND BAR, STORAGE RACKS WITH EXCESSIVE GREASE, FOOD AND MOLD LIKE BUILD-UP, INTERIOR SURFACES OF EXPOSED HAND SINKS, PREP SHELVES, STORAGE SHELVES, INTERIOR CABINETS UNDERNEATH BUFFET HOT AND COLD TABLE, SIDES OF ALL COOKING EQUIPMENT, INTERIOR SURFACES OF ALL COOLERS WITH EXCESSIVE FOOD DEBRIS.   "
1932758,RENAISSANCE CHICAGO O'HARE HOTEL (STARBUCKS (MAIN FLOOR)),2278129,8500 W BRYN MAWR AVE,CHICAGO,IL,60631,41.9811807248781,-87.8391675577046,2016-06-14,Pass w/ Conditions,11,"ADEQUATE NUMBER, CONVENIENT, ACCESSIBLE, DESIGNED, AND MAINTAINED","EXPOSED HAND SINK IN FRONT PREP AREA NOT ACCESSIBLE. OBSERVED MIX TEA,AND LEMONADE CARTON IN FRORT OF EXPOSED HAND SINK NOT ABLE TO GET TO THE SINK TO WASH HANDS . CRITICAL VIOLATION 7-38-030"
1937886,RENAISSANCE CHICAGO O'HARE HOTEL,2263086,8500 W BRYN MAWR AVE,CHICAGO,IL,60631,41.9811807248781,-87.8391675577046,2016-06-30,Pass w/ Conditions,33,"FOOD AND NON-FOOD CONTACT EQUIPMENT UTENSILS CLEAN, FREE OF ABRASIVE DETERGENTS","DEEP FRYER CABINETS, STORAGE CABINETS IN STARBUCKS, CUTTING BOARD ATTACHED TO PREP TABLE, COOLER GASKET AND COOKING EQUIPMENT IN HOT STATION NOT CLEAN. INSTRUCTED TO DETAIL CLEAN AND SANITIZE ALL FOOD CONTACT SURFACES."
1937919,HOLIDAY INN CHICAGO O'HARE (HOLIDAY INN/BAR LOUIE),1518913,5615 N CUMBERLAND AVE,CHICAGO,IL,60631,41.9814281641774,-87.8364343020935,2016-06-30,Pass,33,"FOOD AND NON-FOOD CONTACT EQUIPMENT UTENSILS CLEAN, FREE OF ABRASIVE DETERGENTS","INSTRUCTED TO DETAIL CLEAN AND MAINTAIN THE FOLLOWING: INTERIOR AND EXTERIOR SURFACES OF ALL COOKING EQUIPMENT, DISH MACHINE IN REAR AND DISH MACHINE BEHIND BAR, STORAGE RACKS WITH EXCESSIVE GREASE, FOOD AND MOLD LIKE BUILD-UP, INTERIOR SURFACES OF EXPOSED HAND SINKS, PREP SHELVES, STORAGE SHELVES, INTERIOR CABINETS UNDERNEATH BUFFET HOT AND COLD TABLE, SIDES OF ALL COOKING EQUIPMENT, INTERIOR SURFACES OF ALL COOLERS WITH EXCESSIVE FOOD DEBRIS.   "
1949165,O'HARE BAR (CUBS BAR & GRILL (T3 ROTUNDA)),1621425,11601 W TOUHY AVE,CHICAGO,IL,60666,42.0085364008687,-87.9144284392705,2016-08-11,Pass,33,"FOOD AND NON-FOOD CONTACT EQUIPMENT UTENSILS CLEAN, FREE OF ABRASIVE DETERGENTS","INSTRUCTED TO DETAIL CLEAN AND MAINTAIN INTERIOR AND EXTERIOR SURFACES OF ALL COOLERS WITH FOOD DEBRIS, INTERIOR SURFACES OF EXPOSED HAND SINK IN COOKING AREA, SIDES OF COOKING EQUIPMENT WITH EXCESSIVE GREASE ACCUMULATION."
1954167,O'HARE BAR (CUBS BAR & GRILL (T3 ROTUNDA)),1621425,11601 W TOUHY AVE,CHICAGO,IL,60666,42.0085364008687,-87.9144284392705,2016-09-09,Pass,33,"FOOD AND NON-FOOD CONTACT EQUIPMENT UTENSILS CLEAN, FREE OF ABRASIVE DETERGENTS","INSTRUCTED TO DETAIL CLEAN AND MAINTAIN INTERIOR AND EXTERIOR SURFACES OF ALL COOLERS WITH FOOD DEBRIS, INTERIOR SURFACES OF EXPOSED HAND SINK IN COOKING AREA, SIDES OF COOKING EQUIPMENT WITH EXCESSIVE GREASE ACCUMULATION."
1960772,"ANDIAMO'S O'HARE, LLC (ANDIAMO'S O'HARE (HILTON O'HARE LOBBY))",1381615,11601 W TOUHY AVE,CHICAGO,IL,60666,42.0085364008687,-87.9144284392705,2016-09-19,Pass w/ Conditions,12,"HAND WASHING FACILITIES: WITH SOAP AND SANITARY HAND DRYING DEVICES, CONVENIENT AND ACCESSIBLE TO FOOD PREP AREA","Observed two handsinks at the bar: the one near the beverage station had no paper towels and was inaccessible due to alcohol bottles stacked on shelving in front of sink; the other sink at the middle of the bar had no soap or paper towels and was obstructed by alcohol bottles and being used as a dump sink. Instructed facility to ensure that all exposed hand sinks have soap and paper towels, are used only for handwashing, and are accessible at all times. Critical citation issued 7-38-030."
1965437,HILTON O'HARE,1878675,11601 W TOUHY AVE,CHICAGO,IL,60666,42.0085364008687,-87.9144284392705,2016-09-28,Pass,33,"FOOD AND NON-FOOD CONTACT EQUIPMENT UTENSILS CLEAN, FREE OF ABRASIVE DETERGENTS","INSTRUCTED TO CLEAN AND MAINTAIN STORAGE RACKS IN DISH WASHING AREA.----------MUST CLEAN AND MAINTAIN INTERIOR SURFACES OF 3 COMPARTMENT SINK IN 2ND FLOOR FOOD PREP PANTRY AREA, INTERIOR AND EXTERIOR SURFACES OF DISH MACHINE IN SECOND FLOOR BEVERAGE PANTRY AREA, INTERNAL AND EXTERIOR SURFACES OF BEVERAGE DISPENSER MACHINE AT EMPLOYEE CAFETERIA."
1966696,CHICAGO MARRIOTT O'HARE HOTEL,2379582,8535 W HIGGINS RD,CHICAGO,IL,60631,41.9867885856625,-87.8401241734616,2016-10-18,Pass w/ Conditions,2,FACILITIES TO MAINTAIN PROPER TEMPERATURE,"FACILITIES UNABLE TO MAINTAIN PROPER TEMPERATURES. OBSERVED TWO COOLERS AT IMPROPER TEMPERATURES. THE 6 DOOR TALL REACH-IN COOLER AT 46.7F WITH FOOD SUCH AS COOKED PULLED PORK AT 53.4F. TALL 4 DOOR REACH-IN COOLER IN THE BUFFET HALLWAY FOUND AT 50.8F WITH YOGURT AT 46.6.BOTH COOLERS TAGGED HELD FOR INSPECTION AND MUST NOT USE UNTIL REPAIRED, MAINTAINS A TEMPERATURE OF 40F. OR BELOW AND CDPH CONTACTED FOR RE-INSPECTION AND TAG REMOVAL. CRITICAL VIOLATION 7-38-005(A)."
1966696,CHICAGO MARRIOTT O'HARE HOTEL,2379582,8535 W HIGGINS RD,CHICAGO,IL,60631,41.9867885856625,-87.8401241734616,2016-10-18,Pass w/ Conditions,3,"POTENTIALLY HAZARDOUS FOOD MEETS TEMPERATURE REQUIREMENT DURING STORAGE, PREPARATION DISPLAY AND SERVICE","THE FOLLOWING POTENTIALLY HAZARDOUS FOODS FOUND HELD IN THE ABOVE MENTIONED COOLERS AT IMPROPER TEMPERATURES. PULLED PORK AT 53.4F, COOKED CHICKEN AT 54.7F, CHEESE AT 53.1F, MASHED POTATOES AT 63.7F. IN THE 4 DOOR COOLER: COTTAGE CHEESE AT 45.9F, YOGURT AT 46.6F, EGGS AT 46.4F, CUT FRUIT AT 46.7F. ESTIMATED TOTAL POUNDS DISCARDED TO BE 270 LBS. MANAGEMENT STATES ESTIMATED VALUE TO BE $730.00. CRITICAL VIOLATION 7-38-005(A)."
1966696,CHICAGO MARRIOTT O'HARE HOTEL,2379582,8535 W HIGGINS RD,CHICAGO,IL,60631,41.9867885856625,-87.8401241734616,2016-10-18,Pass w/ Conditions,8,"SANITIZING RINSE FOR EQUIPMENT AND UTENSILS:  CLEAN, PROPER TEMPERATURE, CONCENTRATION, EXPOSURE TIME","CHLORINE CHEMICAL DISH MACHINE AT THE BAR NOT PROPERLY DISPENSING SANITIZER WHILE GLASSES WHERE BEING WASHED. OBSERVED 0 PPM CHLORINE NOTED AFTER SEVERAL CYCLE ATTEMPTS. MACHINE TAGGED HELD FOR INSPECTION AND MUST NOT USE UNTIL REPAIRED, DISPENSES CHLORINE SANITIZER TO 100 PPM AND CDPH NOTIFIED FOR TAG REMOVAL. CRITICAL VIOLATION 7-38-030."
1966696,CHICAGO MARRIOTT O'HARE HOTEL,2379582,8535 W HIGGINS RD,CHICAGO,IL,60631,41.9867885856625,-87.8401241734616,2016-10-18,Pass w/ Conditions,33,"FOOD AND NON-FOOD CONTACT EQUIPMENT UTENSILS CLEAN, FREE OF ABRASIVE DETERGENTS",INTERIOR ICE BIN HOLDER OF THE MACHINE IN THE MAIN KITCHEN HALLWAY (RIGHT) NOT CLEAN. DIRTY WALL MOUNTED FRY SLICER DIRTY. PLASTIC ICE SHOOT DISPENSER AT THE SODA DISPENSER IN THE EMPLOYEE CAFETERIA DIRTY. UNUSED COOKING EQUIPMENT ON THE FOOD LINE OF THE EMPLOYEE CAFETERIA.MUST CLEAN AND MAINTAIN ALL.
1967061,O'HARE GASLIGHT CLUB (GASLIGHT CLUB (HILTON O'HARE LOBBY)),43114,4000 N O'HARE FIELD,CHICAGO,IL,60666,41.9704264,-87.9053663,2016-10-24,Pass,33,"FOOD AND NON-FOOD CONTACT EQUIPMENT UTENSILS CLEAN, FREE OF ABRASIVE DETERGENTS","Observed slight dirt accumulation in the upper interior portion of the ice machine. Instructed facility to clean, sanitize, and maintain.  Observed the bottom of the fryers to have oil and dirt accumulation. Instructed facility to clean and maintain.  Observed the main bar soda gun holder to be dirty. Instructed facility to clean and maintain.  Observed the 2 door cooler in the rear kitchen to be dirty on the inside and outside. Instructed facility to clean and maintain."
1975642,CHICAGO MARRIOTT O'HARE HOTEL,2379582,8535 W HIGGINS RD,CHICAGO,IL,60631,41.9867885856625,-87.8401241734616,2016-11-17,Pass,33,"FOOD AND NON-FOOD CONTACT EQUIPMENT UTENSILS CLEAN, FREE OF ABRASIVE DETERGENTS",CORRECTED
1976075,O'HARE BAR (CUBS BAR & GRILL (T3 ROTUNDA)),1621425,11601 W TOUHY AVE,CHICAGO,IL,60666,42.0085364008687,-87.9144284392705,2016-11-29,Pass,33,"FOOD AND NON-FOOD CONTACT EQUIPMENT UTENSILS CLEAN, FREE OF ABRASIVE DETERGENTS",INSTRUCTED TO DETAIL CLEAN AND MAINTAIN INTERIOR SURFACES OF DISH MACHINE AND INTERIOR SURFACES OF EXPOSED HAND SINK CABINETS IN PREP/COOKING AREA.
1978502,HILTON O'HARE,1878675,11601 W TOUHY AVE,CHICAGO,IL,60666,42.0085364008687,-87.9144284392705,2016-12-21,Pass,33,"FOOD AND NON-FOOD CONTACT EQUIPMENT UTENSILS CLEAN, FREE OF ABRASIVE DETERGENTS",Observed dust accumulation on the fanguards in the 2nd floor large walk in cooler. Instructed facility to clean and maintain.
